name,street_address,postcode,city,url,business_type
Stuzzico Pizzabar,Augsburger Str. 29,10789,Berlin,https://helfen-shop.berlin/dein-unternehmen/stuzzico-pizzabar/,restaurant
von Dombrowski Heilig Maltz,Auguststraße 86,10117,Berlin,https://helfen-shop.berlin/dein-unternehmen/von-dombrowski-heilig-maltz/,restaurant
Trattoria Gusto,Bregenzer Strasse 1,10707,Berlin,https://helfen-shop.berlin/dein-unternehmen/trattoria-gusto/,restaurant
english to go,Voigtstraße 9,10245,Berlin,https://helfen-shop.berlin/dein-unternehmen/english-to-go/,restaurant
Mädchen Ohne Abitur,Körtestrasse 5,10967,Berlin,https://helfen-shop.berlin/dein-unternehmen/maedchen-ohne-abitur/,restaurant
Golden! Blumen&Wohnen,Sonnenallee 64,10829,Berlin,https://helfen-shop.berlin/dein-unternehmen/golden-blumenwohnen/,restaurant
Restaurant Alpenwirt,Karl-Marx-Allee 90 a,10243,Berlin,https://helfen-shop.berlin/dein-unternehmen/restaurant-alpenwirt/,restaurant
Kathi & Friseure Meisterbetrieb und Visagistik,Bennigsenstraße 13,12159,Berlin,https://helfen-shop.berlin/dein-unternehmen/kathi-friseure-meisterbetrieb-und-visagistik/,restaurant
Café Vilja,Maximilianstraße 1,13187,Berlin,https://helfen-shop.berlin/dein-unternehmen/cafe-vilja/,restaurant
LOCKE & GLATZE Glasbläserallee,Glasbläserallee 17,10245,Berlin,https://helfen-shop.berlin/dein-unternehmen/locke-glatze-glasblaeserallee/,restaurant
VW Kantine,Mollstr. 3,10178,Berlin,https://helfen-shop.berlin/dein-unternehmen/vw-kantine/,restaurant
großerherz,Metzer Str. 22,10405,Berlin,https://helfen-shop.berlin/dein-unternehmen/grosserherz/,restaurant
The Dorothy Bar,Kollwitzstrasse 41,10405,Berlin,https://helfen-shop.berlin/dein-unternehmen/the-dorothy-bar/,restaurant
TỤDO Bubbletea,Hardenbergplatz 2,10623,Berlin,https://helfen-shop.berlin/dein-unternehmen/tudo-bubbletea/,restaurant
crusz Berlin,Spittelmarkt 11-12,10117,Berlin,https://helfen-shop.berlin/dein-unternehmen/crusz-berlin/,restaurant
Coffee Room Berlin,Saarbrücker Str. 30,10405,Berlin,https://helfen-shop.berlin/dein-unternehmen/coffee-room-berlin/,restaurant
LOCKE & GLATZE,Greifswalder Strasse 191,10405,Berlin,https://helfen-shop.berlin/dein-unternehmen/locke-glatze/,restaurant
Praxis für Craniosacrale Osteopathie und Schmerztherapie nach Liebscher & Bracht,Mahlerstr.35,13088,Berlin,https://helfen-shop.berlin/dein-unternehmen/praxis-fuer-craniosacrale-osteopathie-und-schmerztherapie-nach-liebscher-bracht/,restaurant
Naschpunkt,Schivelbeiner Strasse 10,10439,Berlin,https://helfen-shop.berlin/dein-unternehmen/naschpunkt/,restaurant
Mama Shabz,Reichenberger Str. 61a,10999,Berlin,https://helfen-shop.berlin/dein-unternehmen/mama-shabz/,restaurant
Milchkaffee,Kirchstr.5,12555,Berlin,https://helfen-shop.berlin/dein-unternehmen/milchkaffee/,restaurant
Meck&Sons,Varziner Str.3,12159,Berlin,https://helfen-shop.berlin/dein-unternehmen/mecksons/,restaurant
CAFÉ FLEURY,Weinbergsweg 20,10119,Berlin,https://helfen-shop.berlin/dein-unternehmen/cafe-fleury/,restaurant
Gainsbourg Bar,Jeanne-Mammen-Bogen 576/577,10623,Berlin,https://helfen-shop.berlin/dein-unternehmen/gainsbourg-bar/,restaurant
Weißes Röss´l,Heinersdorferstr.15,12209,Berlin,https://helfen-shop.berlin/dein-unternehmen/weisses-roessl/,restaurant
LUA Indochina und Sushi Restaurant,Ludolfinger Platz 1,13465,Berlin,https://helfen-shop.berlin/dein-unternehmen/lua-indochina-und-sushi-restaurant/,restaurant
Cafe-Bar Kleine Dinge,Krumme Str.39,10627,Berlin,https://helfen-shop.berlin/dein-unternehmen/cafe-bar-kleine-dinge/,restaurant
Katalka Spielwaren,Raumerstraße 22,10437,Berlin,https://helfen-shop.berlin/dein-unternehmen/katalka-spielwaren/,restaurant
Wasserläufer Berlin,Müggelheimer Straße 1,12555,Berlin,https://helfen-shop.berlin/dein-unternehmen/wasserlaeufer-berlin/,restaurant
Simply Keto – Lowcarb & Glutenfrei,Invalidenstr. 154,10115,Berlin,https://helfen-shop.berlin/dein-unternehmen/simply-keto-lowcarb-glutenfrei/,restaurant
Kosmetikinstitut Christine Noster,Havelmüllerweg 21,13509,Berlin,https://helfen-shop.berlin/dein-unternehmen/kosmetikinstitut-christine-noster/,restaurant
Annette Koroll FOTOS,Knesebeckstr 6/7,10623,Berlin,https://helfen-shop.berlin/dein-unternehmen/annette-koroll-fotos/,restaurant
Restaurant-Cafe “Ephraim’s”,Spreeufer 1,10178,Berlin,https://helfen-shop.berlin/dein-unternehmen/restaurant-cafe-ephraims/,restaurant
Restaurant Malche am See / Catering Igel,Gabrielenstraße 77,13507,Berlin,https://helfen-shop.berlin/dein-unternehmen/restaurant-malche-am-see-catering-igel/,restaurant
All the Colors,Bötzowstraße 28,10407,Berlin,https://helfen-shop.berlin/dein-unternehmen/all-the-colors/,restaurant
Ristorante a Mano,Strausberger Platz 2,10243,Berlin,https://helfen-shop.berlin/dein-unternehmen/ristorante-a-mano/,restaurant
Gänsemarkt,Plantage 1,13597,Berlin,https://helfen-shop.berlin/dein-unternehmen/gaensemarkt/,restaurant
OfCONCRETE,Kollwitzstraße 69,10405,Berlin,https://helfen-shop.berlin/dein-unternehmen/ofconcrete/,restaurant
Die Kaffeefreunde,Bänschstr. 73,10247,Berlin,https://helfen-shop.berlin/dein-unternehmen/die-kaffeefreunde/,restaurant
Sweet Sisters,Bänschstraße 41,10247,Berlin,https://helfen-shop.berlin/dein-unternehmen/sweet-sisters/,restaurant
Mitho Cha!,Rykestr. 40,10405,Berlin,https://helfen-shop.berlin/dein-unternehmen/mitho-cha/,restaurant
Tysk Berlin,Forststr. 4,12163,Berlin,https://helfen-shop.berlin/dein-unternehmen/tysk-berlin/,restaurant
Ristorante Brigantino,Rheinstrasse 53,12161,Berlin,https://helfen-shop.berlin/dein-unternehmen/ristorante-brigantino/,restaurant
Thomas-Eck,Pestalozzistaße 25,10627,Berlin,https://helfen-shop.berlin/dein-unternehmen/thomas-eck/,restaurant
Wilhelm die 3.,Immanuelkirchstraße 5,10405,Berlin,https://helfen-shop.berlin/dein-unternehmen/wilhelm-die-3/,restaurant
Fargo,Grünberger Str.77,10245,Berlin,https://helfen-shop.berlin/dein-unternehmen/fargo/,restaurant
Steffi Mode & Accessoires,Waidmannsluster Damm 189,13469,Berlin,https://helfen-shop.berlin/dein-unternehmen/steffi-mode-accessoires/,restaurant
Zeitraum Berlin by Marius Schewe,Ackerstr. 21,10115,Berlin,https://helfen-shop.berlin/dein-unternehmen/zeitraum-berlin-by-marius-schewe/,restaurant
GM26,Gutsmuthsstr.26,12163,Berlin,https://helfen-shop.berlin/dein-unternehmen/gm26/,restaurant
Limomade,Bänschstr.59,10247,Berlin,https://helfen-shop.berlin/dein-unternehmen/limomade/,restaurant
engelnest coworking,Wilhelm-Kabus-Str. 24,10829,Berlin,https://helfen-shop.berlin/dein-unternehmen/engelnest-coworking/,restaurant
MASKWORLD Store,Oranienburger Straße 86a,10178,Berlin,https://helfen-shop.berlin/dein-unternehmen/maskworld-store/,restaurant
Süßes Rendezvous in Strausberg,Große Straße 13,15344,Berlin,https://helfen-shop.berlin/dein-unternehmen/suesses-rendezvous-in-strausberg/,restaurant
Zimmer 16,Florastr. 16,13187,Berlin,https://helfen-shop.berlin/dein-unternehmen/zimmer-16/,restaurant
Trattoria Martinello,Reichenbergerstraße 73,10999,Berlin,https://helfen-shop.berlin/dein-unternehmen/trattoria-martinello/,restaurant
Die gute Seite -Buchhandlung-,Richardplatz 16,12055,Berlin,https://helfen-shop.berlin/dein-unternehmen/die-gute-seite-buchhandlung/,restaurant
Gelateria Mos Eisley,Herrfurthplatz 6,12049,Berlin,https://helfen-shop.berlin/dein-unternehmen/gelateria-mos-eisley/,restaurant
Thörner fürs Büro GmbH,Salzburger Straße 9,10825,Berlin,https://helfen-shop.berlin/dein-unternehmen/thoerner-fuers-buero-gmbh/,restaurant
Kosmetiksalon le petit luxe,Czeminskistr. 4,10829,Berlin,https://helfen-shop.berlin/dein-unternehmen/kosmetiksalon-le-petit-luxe/,restaurant
weinseelig Handels UG,Ringbahnstraße 34,12099,Berlin,https://helfen-shop.berlin/dein-unternehmen/weinseelig-handels-ug/,restaurant
Fährhaus Saatwinkel,Im Saatwinkel 15,13599,Berlin,https://helfen-shop.berlin/dein-unternehmen/faehrhaus-saatwinkel/,restaurant
Café Marameo,Chamissoplatz 7,10965,Berlin,https://helfen-shop.berlin/dein-unternehmen/cafe-marameo/,restaurant
Tortenmanufaktur LAELIA,Greifswalder Str. 50,10405,Berlin,https://helfen-shop.berlin/dein-unternehmen/tortenmanufaktur-laelia/,restaurant
Collect Boutique,Oranienstr.44,10969,Berlin,https://helfen-shop.berlin/dein-unternehmen/collect-boutique/,restaurant
Weinladen Schmidt Prenzlauer Berg,Kollwitzstrasse 50,10405,Berlin,https://helfen-shop.berlin/dein-unternehmen/weinladen-schmidt-prenzlauer-berg/,restaurant
KÖRPERNAH – Dessous & Bademode,Maaßenstr.8,10777,Berlin,https://helfen-shop.berlin/dein-unternehmen/koerpernah-dessous-bademode/,restaurant
Korean Food Stories,Prenzlauer Allee 217,10405,Berlin,https://helfen-shop.berlin/dein-unternehmen/korean-food-stories/,restaurant
HAFEN,Motzstraße 19,10777,Berlin,https://helfen-shop.berlin/dein-unternehmen/hafen/,restaurant
JOSL Berlin,Pestalozzistrasse 70,10627,Berlin,https://helfen-shop.berlin/dein-unternehmen/josl-berlin/,restaurant
Nachtigäller natürlich,Sesenheimer Str.1,10627,Berlin,https://helfen-shop.berlin/dein-unternehmen/nachtigaeller-natuerlich/,restaurant
Erdforscher Labor Berlin // MyBestScienceParty,Mehringdamm 64,10961,Berlin,https://helfen-shop.berlin/dein-unternehmen/erdforscher-labor-berlin-mybestscienceparty/,restaurant
Hani Beauty,Döberitzer Weg 3,14624,Berlin,https://helfen-shop.berlin/dein-unternehmen/hani-beauty/,restaurant
Sandunga Mezcaleria,Boxhagener Straße 50,10245,Berlin,https://helfen-shop.berlin/dein-unternehmen/sandunga-mezcaleria/,restaurant
Goldmanns Feine Kost,Am Goldmannpark 4,12587,Berlin,https://helfen-shop.berlin/dein-unternehmen/goldmanns-feine-kost/,restaurant
Müßiggang,Oranienstr. 14a (Heinrichplatz),10999,Berlin,https://helfen-shop.berlin/dein-unternehmen/muessiggang/,restaurant
The School of LIfe,Lychner Str. 7,10437,Berlin,https://helfen-shop.berlin/dein-unternehmen/the-school-of-life/,restaurant
Straßenbräu,Neue Bahnhofstraße 30,10245,Berlin,https://helfen-shop.berlin/dein-unternehmen/strassenbraeu/,restaurant
Vergißmeinnicht Blumenbinderei,Bölschestraße 21,12587,Berlin,https://helfen-shop.berlin/dein-unternehmen/vergissmeinnicht-blumenbinderei/,restaurant
Sweet Kitcen,Mierstr. 7-9,12055,Berlin,https://helfen-shop.berlin/dein-unternehmen/sweet-kitcen/,restaurant
Spinnrad,Wiesbadener Straße 16,14197,Berlin,https://helfen-shop.berlin/dein-unternehmen/spinnrad/,restaurant
Karlshorst Village,Treskowallee 99,10318,Berlin,https://helfen-shop.berlin/dein-unternehmen/karlshorst-village/,restaurant
annAmare,Mehringdamm 75,10965,Berlin,https://helfen-shop.berlin/dein-unternehmen/annamare/,restaurant
Café Trainspot,Am Lokdepot 1,10965,Berlin,https://helfen-shop.berlin/dein-unternehmen/cafe-trainspot/,restaurant
DELICUT FRISEUR,Diedenhoferstr.3,10405,Berlin,https://helfen-shop.berlin/dein-unternehmen/delicut-friseur/,restaurant
Seeweißchen,Lindenallee 56,13088,Berlin,https://helfen-shop.berlin/dein-unternehmen/seeweisschen/,restaurant
Schuhschaukel,Neufertstr 24,14059,Berlin,https://helfen-shop.berlin/dein-unternehmen/schuhschaukel/,restaurant
Bar Italia,Mehringdamm 72 / Eingang Kreuzbergstr.,10961,Berlin,https://helfen-shop.berlin/dein-unternehmen/bar-italia/,restaurant
Vaust Braugaststätte,Pestalozzistraße 8,10625,Berlin,https://helfen-shop.berlin/dein-unternehmen/vaust-braugaststaette/,restaurant
Krokodil,Gartenstrasse 46-48,12557,Berlin,https://helfen-shop.berlin/dein-unternehmen/krokodil/,restaurant
sonntag berlin,Danziger Straße 10,10435,Berlin,https://helfen-shop.berlin/dein-unternehmen/sonntag-berlin/,restaurant
Lehmbrucks,Fehlerstr. 1,12161,Berlin,https://helfen-shop.berlin/dein-unternehmen/lehmbrucks/,restaurant
Café Lama,Hohenzollerndamm 7,10717,Berlin,https://helfen-shop.berlin/dein-unternehmen/cafe-lama/,restaurant
Colecomp,Wörther Straße 35,10435,Berlin,https://helfen-shop.berlin/dein-unternehmen/colecomp/,restaurant
Paint your Style Friedrichshain,Simplonstraße 8,10245,Berlin,https://helfen-shop.berlin/dein-unternehmen/paint-your-style-friedrichshain/,restaurant
homage store,Dieffenbachstr. 15,10967,Berlin,https://helfen-shop.berlin/dein-unternehmen/homage-store/,restaurant
Scotch & Sofa,Kollwitzstraße 18,10405,Berlin,https://helfen-shop.berlin/dein-unternehmen/scotch-sofa/,restaurant
LORENZbeautyworks – Friseur&Kosmetik,Rotherstraße 29,10245,Berlin,https://helfen-shop.berlin/dein-unternehmen/lorenzbeautyworks-friseurkosmetik/,restaurant
iandi gastrobar,Lenau Str 21,12047,Berlin,https://helfen-shop.berlin/dein-unternehmen/iandi-gastrobar/,restaurant
TOPF & PFANNE,Kurfürstendamm 97/98,10709,Berlin,https://helfen-shop.berlin/dein-unternehmen/topf-pfanne/,restaurant
Monokel Berlin,Rosenthaler Str. 5,10119,Berlin,https://helfen-shop.berlin/dein-unternehmen/monokel-berlin/,restaurant
Monterey Bar,Danziger Strasse 61,10435,Berlin,https://helfen-shop.berlin/dein-unternehmen/monterey-bar/,restaurant
Petite Jungle,Ruppiner Str. 4,10115,Berlin,https://helfen-shop.berlin/dein-unternehmen/petite-jungle/,restaurant
Telegraph Bar,Winterfeldtstraße 1,10781,Berlin,https://helfen-shop.berlin/dein-unternehmen/telegraph-bar/,restaurant
Kunstgewerbehaus Zehlendorf,Teltower Damm 34,14169,Berlin,https://helfen-shop.berlin/dein-unternehmen/kunstgewerbehaus-zehlendorf/,restaurant
Henri Banks – Creative Gifts,krossener strasse 36,10245,Berlin,https://helfen-shop.berlin/dein-unternehmen/henri-banks-creative-gifts/,restaurant
DRUIDE – Absinth Bar,Schönhauser Allee 42,10435,Berlin,https://helfen-shop.berlin/dein-unternehmen/druide-absinth-bar/,restaurant
nakedsteel piercing & bodymodification,Mainzer Str. 10,10247,Berlin,https://helfen-shop.berlin/dein-unternehmen/nakedsteel-piercing-bodymodification/,restaurant
Saigonese Kitchen,Güntzelstraße 24,10717,Berlin,https://helfen-shop.berlin/dein-unternehmen/saigonese-kitchen/,restaurant
Crazy Bastard Sauce,Weserstrasse 168,12045,Berlin,https://helfen-shop.berlin/dein-unternehmen/crazy-bastard-sauce/,restaurant
Green Fashion Tours,Steinstraße 27,10119,Berlin,https://helfen-shop.berlin/dein-unternehmen/green-fashion-tours/,restaurant
Hertel Dominic Hairdressers,Solmsstrasse 27,10961,Berlin,https://helfen-shop.berlin/dein-unternehmen/hertel-dominic-hairdressers/,restaurant
FUNK Optik Berlin,Oranienburger Straße 87 (Innenhof),10178,Berlin,https://helfen-shop.berlin/dein-unternehmen/funk-optik-berlin/,restaurant
Restaurant „Zum Speicher“ Hotel Stadtgut,Alt-Buch 45-51,13125,Berlin,https://helfen-shop.berlin/dein-unternehmen/restaurant-zum-speicher-hotel-stadtgut/,restaurant
Café Krümelkeks / Eiscafé,Aller der Kosmonauten 151F,12685,Berlin,https://helfen-shop.berlin/dein-unternehmen/cafe-kruemelkeks-eiscafe/,restaurant
Cafe Manstein4,Mansteinstr. 4,10783,Berlin,https://helfen-shop.berlin/dein-unternehmen/cafe-manstein4/,restaurant
RASAYANA Massagen,Einsteinufer 57,10587,Berlin,https://helfen-shop.berlin/dein-unternehmen/rasayana-massagen/,restaurant
GUT.GUT.,Schröderstraße 10,10115,Berlin,https://helfen-shop.berlin/dein-unternehmen/gut-gut/,restaurant
Rudower Tönnchen,Sattlerstraße 4,12524,Berlin,https://helfen-shop.berlin/dein-unternehmen/rudower-toennchen/,restaurant
Bleibtreu Store Berlin,Mainzer Strasse 18,10715,Berlin,https://helfen-shop.berlin/dein-unternehmen/bleibtreu-store-berlin/,restaurant
Deutsch-Jüdisches Theater/Förderverein für deutsch-jüdische Theatervorstellungen e.V.,Grainauer Straße 20,10777,Berlin,https://helfen-shop.berlin/dein-unternehmen/deutsch-juedisches-theater-foerderverein-fuer-deutsch-juedische-theatervorstellungen-e-v/,restaurant
Bellealliance Restaurant,Mehringdamm 56,10961,Berlin,https://helfen-shop.berlin/dein-unternehmen/bellealliance-restaurant/,restaurant
vincent-burger,Tauroggener Str. 9,10589,Berlin,https://helfen-shop.berlin/dein-unternehmen/vincent-burger/,restaurant
Kokami,Sredzkistraße 54,10405,Berlin,https://helfen-shop.berlin/dein-unternehmen/kokami/,restaurant
dbeads,Elßholzstraße 5,10781,Berlin,https://helfen-shop.berlin/dein-unternehmen/dbeads/,restaurant
Baumann -Spezialhaus für Kirchenbedarf,Trautenaustr. 14,10717,Berlin,https://helfen-shop.berlin/dein-unternehmen/baumann-spezialhaus-fuer-kirchenbedarf/,restaurant
Foto-Faible,Morgensternstrasse 29,12207,Berlin,https://helfen-shop.berlin/dein-unternehmen/foto-faible/,restaurant
Kim’s Ha Restaurant,Kantstrasse 87,10627,Berlin,https://helfen-shop.berlin/dein-unternehmen/kims-ha-restaurant/,restaurant
Samer cafee,Gleimstr 44,10437,Berlin,https://helfen-shop.berlin/dein-unternehmen/samer-cafee/,restaurant
Roman’s Berlin,Schlüterstraße 44,10707,Berlin,https://helfen-shop.berlin/dein-unternehmen/romans-berlin/,restaurant
Restaurant Amera,Borussiastraße 62,12103,Berlin,https://helfen-shop.berlin/dein-unternehmen/restaurant-amera/,restaurant
Santomana,Schliemannstr 26,10437,Berlin,https://helfen-shop.berlin/dein-unternehmen/santomana-2/,restaurant
POPILUXE,Wilmersdorfer Str.107a,10629,Berlin,https://helfen-shop.berlin/dein-unternehmen/popiluxe/,restaurant
Studio 29,Geisbergstr 29,10777,Berlin,https://helfen-shop.berlin/dein-unternehmen/studio-29/,restaurant
stadt im ohr – Hörspiele zum Mitlaufen,Rudolfstraße 11,10245,Berlin,https://helfen-shop.berlin/dein-unternehmen/stadt-im-ohr-hoerspiele-zum-mitlaufen/,restaurant
Cafe Coconut,Danzigerstr. 142,10407,Berlin,https://helfen-shop.berlin/dein-unternehmen/cafe-coconut/,restaurant
Cookies & Co,Senefelderstr. 4,10437,Berlin,https://helfen-shop.berlin/dein-unternehmen/cookies-co/,restaurant
Tilda – coffee eat sleep,Raumerstraße 7,10437,Berlin,https://helfen-shop.berlin/dein-unternehmen/tilda-coffee-eat-sleep/,restaurant
Monika Uecker Friseur,Düsseldorfer Str. 2,10719,Berlin,https://helfen-shop.berlin/dein-unternehmen/monika-uecker-friseur/,restaurant
Cafe Neundrei,Monbijouplatz 2,10178,Berlin,https://helfen-shop.berlin/dein-unternehmen/cafe-neundrei/,restaurant
LichtMal/Zentrum für Freunde der Schwarz-Weiss-Fotografie e.V.,Kopenhagener Straße 14,10437,Berlin,https://helfen-shop.berlin/dein-unternehmen/lichtmal-zentrum-fuer-freunde-der-schwarz-weiss-fotografie-e-v/,restaurant
DaGiorgio’s,Grüntaler Str. 11,13357,Berlin,https://helfen-shop.berlin/dein-unternehmen/dagiorgios/,restaurant
Song Nguu,Am Falkplatz 5,10437,Berlin,https://helfen-shop.berlin/dein-unternehmen/song-nguu/,restaurant
Le Belfort,Kollwitzstr. 28,10405,Berlin,https://helfen-shop.berlin/dein-unternehmen/le-belfort/,restaurant
Café Schrittfahren,Chausseestraße 49,10115,Berlin,https://helfen-shop.berlin/dein-unternehmen/cafe-schrittfahren/,restaurant
Café Desd,Schulzendorfer Strasse 13,13347,Berlin,https://helfen-shop.berlin/dein-unternehmen/cafe-desd/,restaurant
Fleur de Sel,Oderberger Str. 13,10435,Berlin,https://helfen-shop.berlin/dein-unternehmen/fleur-de-sel/,restaurant
Heidi‘s Café,Spreeufer 4,10178,Berlin,https://helfen-shop.berlin/dein-unternehmen/heidis-cafe/,restaurant
Tigertörtchen,Chausseestraße 60,10115,Berlin,https://helfen-shop.berlin/dein-unternehmen/tigertoertchen/,restaurant
New Tam Tam,Belzigerstrße 25,10823,Berlin,https://helfen-shop.berlin/dein-unternehmen/new-tam-tam/,restaurant
BQL Store Berlin,Kastanienallee 75,10405,Berlin,https://helfen-shop.berlin/dein-unternehmen/bql-store-berlin/,restaurant
Cristall Collection Beleuchtung,Kaiserdamm 24,14057,Berlin,https://helfen-shop.berlin/dein-unternehmen/cristall-collection-beleuchtung/,restaurant
Café UMA – Ayurvedische und vegetarische Spezialitäten,Friedrich-Wilhelm-Platz 3,12161,Berlin,https://helfen-shop.berlin/dein-unternehmen/cafe-uma-ayurvedische-und-vegetarische-spezialitaeten/,restaurant
Crème de la Bücher Antiquariat,Mariannenstraße 50,10997,Berlin,https://helfen-shop.berlin/dein-unternehmen/creme-de-la-buecher-antiquariat/,restaurant
Tam Tam,Knesebeckstraße 59-61,10719,Berlin,https://helfen-shop.berlin/dein-unternehmen/tam-tam/,restaurant
BRÄUGIER Craftbier,Stubbenkammerstr. 6,10437,Berlin,https://helfen-shop.berlin/dein-unternehmen/braeugier-craftbier/,restaurant
Zur Gemütlichen Ecke,Medebacher Weg 9,13507,Berlin,https://helfen-shop.berlin/dein-unternehmen/zur-gemuetlichen-ecke/,restaurant
Bombay Express,Gerichtstr. 47,13347,Berlin,https://helfen-shop.berlin/dein-unternehmen/bombay-express/,restaurant
Kosmetik & Podologiepraxis Elke Ostermaier,Rheinsteinstrasse 9,10318,Berlin,https://helfen-shop.berlin/dein-unternehmen/kosmetik-podologiepraxis-elke-ostermaier/,restaurant
Volta Press,Alt-Moabit 103,10559,Berlin,https://helfen-shop.berlin/dein-unternehmen/volta-press/,restaurant
STILMONOPOL,Dolziger Str. 39,10247,Berlin,https://helfen-shop.berlin/dein-unternehmen/stilmonopol/,restaurant
ZIMMERTHEATER STEGLITZ,Bornstraße 17,12163,Berlin,https://helfen-shop.berlin/dein-unternehmen/zimmertheater-steglitz/,restaurant
TOFUTUSSIS,"Markthalle Neun, Eisenbahnstr. 42 – 43",10997,Berlin,https://helfen-shop.berlin/dein-unternehmen/tofutussis/,restaurant
OYA Massage im Rolling Tiger Projekt,Reichenberger Str. 61 a,10999,Berlin,https://helfen-shop.berlin/dein-unternehmen/oya-massage-im-rolling-tiger-projekt/,restaurant
Wo man sich Zuhause fühlt,Heinrich-Böll-Straße 2,13156,Berlin,https://helfen-shop.berlin/dein-unternehmen/wo-man-sich-zuhause-fuehlt/,restaurant
Pony & Clyde Friseure,Barbarossastraße 5a,10781,Berlin,https://helfen-shop.berlin/dein-unternehmen/pony-clyde-friseure/,restaurant
Biokosmetik-stoffers.de,Moltkestr.52,12203,Berlin,https://helfen-shop.berlin/dein-unternehmen/biokosmetik-stoffers-de/,restaurant
Sound Bath Berlin,Kopenhagener Str. 27,10437,Berlin,https://helfen-shop.berlin/dein-unternehmen/sound-bath-berlin/,restaurant
Casa Nostra,Schöneberger Str. 3,12163,Berlin,https://helfen-shop.berlin/dein-unternehmen/casa-nostra/,restaurant
Espressobar,Mommsenstrasse 4,10629,Berlin,https://helfen-shop.berlin/dein-unternehmen/espressobar/,restaurant
Kleine Schritte Kinderschuhe,Hufelandstrasse 24,10407,Berlin,https://helfen-shop.berlin/dein-unternehmen/kleine-schritte-kinderschuhe/,restaurant
Sense Healing,Kopenhagener Str. 27,10437,Berlin,https://helfen-shop.berlin/dein-unternehmen/sense-healing/,restaurant
Präventionsstudio FlowFitness,Fregestr. 11,12159,Berlin,https://helfen-shop.berlin/dein-unternehmen/praeventionsstudio-flowfitness/,restaurant
Isla Coffee,Hermannstraße 37,12049,Berlin,https://helfen-shop.berlin/dein-unternehmen/isla-coffee/,restaurant
Restaurant Bar Brass,Am Spreebord 9,10589,Berlin,https://helfen-shop.berlin/dein-unternehmen/restaurant-bar-brass/,restaurant
THE BARN,Auguststraße 58,10119,Berlin,https://helfen-shop.berlin/dein-unternehmen/the-barn/,restaurant
Cafe La Femme,Residenzstraße 129,13409,Berlin,https://helfen-shop.berlin/dein-unternehmen/cafe-la-femme/,restaurant
Indigo Pearl,Auguststr. 83,10117,Berlin,https://helfen-shop.berlin/dein-unternehmen/indigo-pearl/,restaurant
Linierie underwear store,Linienstraße 75,10119,Berlin,https://helfen-shop.berlin/dein-unternehmen/linierie-underwear-store/,restaurant
Das Hotel ( Hotel Bar ),Mariannenstrasse 26A,10999,Berlin,https://helfen-shop.berlin/dein-unternehmen/das-hotel-hotel-bar/,restaurant
Berlin Food Tour,Birkenstraße 22,10559,Berlin,https://helfen-shop.berlin/dein-unternehmen/berlin-food-tour/,restaurant
"COE Kneipe, Bar, Restaurant",Am Generalshof 3,12555,Berlin,https://helfen-shop.berlin/dein-unternehmen/coe-kneipe-bar-restaurant/,restaurant
MaGoKeramik,Scharnweberstraße 28,10247,Berlin,https://helfen-shop.berlin/dein-unternehmen/magokeramik/,restaurant
Kuback,Nürnbergerstraße 17,10789,Berlin,https://helfen-shop.berlin/dein-unternehmen/kuback/,restaurant
No51,Oranienplatz 15,10999,Berlin,https://helfen-shop.berlin/dein-unternehmen/no51/,restaurant
siebenSchön- unabhängige Dr.Juchheim-Beratung,Wilmersdorfer Straße 7,10585,Berlin,https://helfen-shop.berlin/dein-unternehmen/siebenschoen-unabhaengige-dr-juchheim-beratung/,restaurant
Bagel Coffe Culture,Mehringdamm 66,10961,Berlin,https://helfen-shop.berlin/dein-unternehmen/bagel-coffe-culture/,restaurant
Blume an der Hasenheide,Fontanestr. 32,12049,Berlin,https://helfen-shop.berlin/dein-unternehmen/blume-an-der-hasenheide/,restaurant
Restaurant Heidelbeere,Heidelberger Platz 1,14197,Berlin,https://helfen-shop.berlin/dein-unternehmen/restaurant-heidelbeere/,restaurant
GOLDONI Theaterschule,Laubacher Str. 30,14197,Berlin,https://helfen-shop.berlin/dein-unternehmen/goldoni-theaterschule/,restaurant
Mirage Bistrot,Reinickendorfer Str 110,13347,Berlin,https://helfen-shop.berlin/dein-unternehmen/mirage-bistrot/,restaurant
Insel Lindwerder,Havelchaussee 43,14193,Berlin,https://helfen-shop.berlin/dein-unternehmen/insel-lindwerder/,restaurant
Frauensache,Heinsestrasse 30,13467,Berlin,https://helfen-shop.berlin/dein-unternehmen/frauensache/,restaurant
BAR MOECHTEGERN,LEIBNIZSTR.87,10625,Berlin,https://helfen-shop.berlin/dein-unternehmen/bar-moechtegern/,restaurant
Papeterie Hermsdorf,Fellbacher Str. 29,13467,Berlin,https://helfen-shop.berlin/dein-unternehmen/papeterie-hermsdorf/,restaurant
Victoria met Albert – Prenzlauer Berg,Dunckerstraße 81,10437,Berlin,https://helfen-shop.berlin/dein-unternehmen/victoria-met-albert-prenzlauer-berg/,restaurant
Piadina mia,Albrechtstrasse 70,12167,Berlin,https://helfen-shop.berlin/dein-unternehmen/piadina-mia/,restaurant
Jugend im Museum e.V. – Werkstatt Hortensien,Hortensienstraße 29A,12203,Berlin,https://helfen-shop.berlin/dein-unternehmen/jugend-im-museum-e-v-werkstatt-hortensien/,restaurant
Panama,Potsdamer Str 91,10785,Berlin,https://helfen-shop.berlin/dein-unternehmen/panama/,restaurant
Mp 3 Bar,Grünberger Str. 28,10245,Berlin,https://helfen-shop.berlin/dein-unternehmen/mp-3-bar/,restaurant
räume.net einrichten,Berkaer Str. 39,14199,Berlin,https://helfen-shop.berlin/dein-unternehmen/raeume-net-einrichten/,restaurant
Restaurant Karolinenhof,Rohrwallallee 87-99,12527,Berlin,https://helfen-shop.berlin/dein-unternehmen/restaurant-karolinenhof/,restaurant
Briefmarken Weine,Karl-Marx-Allee 99,10243,Berlin,https://helfen-shop.berlin/dein-unternehmen/briefmarken-weine/,restaurant
Chutnify Neukölln,Pflügerstraße 25,12047,Berlin,https://helfen-shop.berlin/dein-unternehmen/chutnify-neukoelln/,restaurant
Katz Orange,Bergstraße 22,10115,Berlin,https://helfen-shop.berlin/dein-unternehmen/katz-orange/,restaurant
Schmitz katze,Oranienstr.163,10969,Berlin,https://helfen-shop.berlin/dein-unternehmen/schmitz-katze/,restaurant
Chutnify,Sredzkistraße 43,10435,Berlin,https://helfen-shop.berlin/dein-unternehmen/chutnify/,restaurant
Alimentari Enoteca Caffè Antipasteria Tavola calda Vino Toscano,Grunewaldstrasse 45,10825,Berlin,https://helfen-shop.berlin/dein-unternehmen/alimentari-enoteca-caffe-antipasteria-tavola-calda-vino-toscano/,restaurant
Wirtshaus Halali,Königstraße 24,14109,Berlin,https://helfen-shop.berlin/dein-unternehmen/wirtshaus-halali/,restaurant
Zilles Stubentheater,Jägerstr.4,12555,Berlin,https://helfen-shop.berlin/dein-unternehmen/zilles-stubentheater/,restaurant
The Conscious Club,Reuterstraße 62,12047,Berlin,https://helfen-shop.berlin/dein-unternehmen/the-conscious-club/,restaurant
Blumenparadies,Wrangelstraße 84,10997,Berlin,https://helfen-shop.berlin/dein-unternehmen/blumenparadies/,restaurant
Action-Sport Tauchzentrale,Treskowallee 88,10318,Berlin,https://helfen-shop.berlin/dein-unternehmen/action-sport-tauchzentrale/,restaurant
Mirami-Restaurant,Stresemannstraße 48,10963,Berlin,https://helfen-shop.berlin/dein-unternehmen/mirami-restaurant/,restaurant
MK Mode Damenboutique,Heinsestrasse 35,13467,Berlin,https://helfen-shop.berlin/dein-unternehmen/mk-mode-damenboutique/,restaurant
Restaurant Nußbaumerin,Leibnizstrasse 55,10629,Berlin,https://helfen-shop.berlin/dein-unternehmen/restaurant-nussbaumerin/,restaurant
Ristorante Stella Alpina,Suarezstr. 4,14057,Berlin,https://helfen-shop.berlin/dein-unternehmen/ristorante-stella-alpina/,restaurant
Berlin Helicopter,Flughafen Schönefeld,12529,Berlin,https://helfen-shop.berlin/dein-unternehmen/berlin-helicopter/,restaurant
RegalRocker,Stargarder Str. 17,10437,Berlin,https://helfen-shop.berlin/dein-unternehmen/regalrocker/,restaurant
“Fotos mit Herz” Fotostudio Silke Rudolph,Samariterstraße 33,10247,Berlin,https://helfen-shop.berlin/dein-unternehmen/fotos-mit-herz-fotostudio-silke-rudolph/,restaurant
Zum Schwalbenschwanz,Margaretenstraße 22,10317,Berlin,https://helfen-shop.berlin/dein-unternehmen/zum-schwalbenschwanz/,restaurant
Good Q cafe,Tucholskystraße 43,10117,Berlin,https://helfen-shop.berlin/dein-unternehmen/good-q-cafe/,restaurant
La Malga,Hindenburgdamm 96 B,12203,Berlin,https://helfen-shop.berlin/dein-unternehmen/la-malga/,restaurant
Verdini,Westfälische Str. 42,10711,Berlin,https://helfen-shop.berlin/dein-unternehmen/verdini/,restaurant
Salonlöwin,Mahlowerstr. 2,12049,Berlin,https://helfen-shop.berlin/dein-unternehmen/salonloewin/,restaurant
Popcorner,Hedwigstraße 12,12159,Berlin,https://helfen-shop.berlin/dein-unternehmen/popcorner/,restaurant
Joseph Indische Restaurant,Dürerplatz 2,12157,Berlin,https://helfen-shop.berlin/dein-unternehmen/joseph-indische-restaurant/,restaurant
Annett Liebers Friseure,Treskowallee 90,10318,Berlin,https://helfen-shop.berlin/dein-unternehmen/annett-liebers-friseure/,restaurant
Il buco di Heidi – Caffe e Ristoro,Schönhauser Allee 177a,10119,Berlin,https://helfen-shop.berlin/dein-unternehmen/il-buco-di-heidi-caffe-e-ristoro/,restaurant
Voland,Wichertstr. 63,10439,Berlin,https://helfen-shop.berlin/dein-unternehmen/voland/,restaurant
Brenøe,Bergmannstr.10,10961,Berlin,https://helfen-shop.berlin/dein-unternehmen/brenoe/,restaurant
Berliner Bierakademie,Fürther Strasse 8,10777,Berlin,https://helfen-shop.berlin/dein-unternehmen/berliner-bierakademie/,restaurant
Hannelore Günther,Niebuhrstr. 1,10629,Berlin,https://helfen-shop.berlin/dein-unternehmen/hannelore-guenther/,restaurant
Neukombiniert,7,12205,Berlin,https://helfen-shop.berlin/dein-unternehmen/neukombiniert/,restaurant
Cafe Linus,Hertzbergstraße 32,12055,Berlin,https://helfen-shop.berlin/dein-unternehmen/cafe-linus/,restaurant
Gundara,Schlesische Str. 25,10997,Berlin,https://helfen-shop.berlin/dein-unternehmen/gundara/,restaurant
19grams,Karl-Liebknecht-Strasse 13,10178,Berlin,https://helfen-shop.berlin/dein-unternehmen/19grams/,restaurant
Studio Hertzberg,Sonnenallee 174,12059,Berlin,https://helfen-shop.berlin/dein-unternehmen/studio-hertzberg/,restaurant
BESTE Bar,Willdenowstraße 12a,13353,Berlin,https://helfen-shop.berlin/dein-unternehmen/beste-bar/,restaurant
Zitrone Kinderschuhe,Reichenberger Strasse 63,10999,Berlin,https://helfen-shop.berlin/dein-unternehmen/zitrone-kinderschuhe/,restaurant
Das Vierseithofcafé,Dorfaue 6,14974,Berlin,https://helfen-shop.berlin/dein-unternehmen/das-vierseithofcafe/,restaurant
Friseur Kopfkultur,Eisenacherstrasse 84,10781,Berlin,https://helfen-shop.berlin/dein-unternehmen/friseur-kopfkultur/,restaurant
HAIR MÜLLER,Invalidenstraße 153,10115,Berlin,https://helfen-shop.berlin/dein-unternehmen/hair-mueller/,restaurant
Café Nullpunkt,Friedrichstraße 23B,10969,Berlin,https://helfen-shop.berlin/dein-unternehmen/cafe-nullpunkt/,restaurant
La Strada – Cafe Restaurant Catering,Bismarckstr. 69,10627,Berlin,https://helfen-shop.berlin/dein-unternehmen/la-strada-cafe-restaurant-catering/,restaurant
,,,,,restaurant
Hani Beauty – Hellersdorf,Landsberger Chaussee 17,16356,Berlin,https://helfen-shop.berlin/dein-unternehmen/hani-beauty-hellersdorf/,restaurant
Hani Beauty – Friedrichshain,Tamara-Danz-Str. 11,10243,Berlin,https://helfen-shop.berlin/dein-unternehmen/hani-beauty-friedrichshain/,restaurant
Biokosmetik Stoffers,Moltkestr.52,12203,Berlin,https://helfen-shop.berlin/dein-unternehmen/biokosmetik-stoffers/,restaurant
TEE.SALON.IKI,Böckhstr. 50,10967,Berlin,https://helfen-shop.berlin/dein-unternehmen/tee-salon-iki/,restaurant
CHARLOTTE,Fellbacher Str. 29,13467,Berlin,https://helfen-shop.berlin/dein-unternehmen/charlotte/,restaurant
Café Mahlsdorf,Hönower Str. 65,12623,Berlin,https://helfen-shop.berlin/dein-unternehmen/cafe-mahlsdorf/,restaurant
SCHOEMIG PORZELLAN,Raumerstr. 35,10437,Berlin,https://helfen-shop.berlin/dein-unternehmen/schoemig-porzellan/,restaurant
Brauerei “Flessa Bräu”,Petersburger Str. 39,10249,Berlin,https://helfen-shop.berlin/dein-unternehmen/brauerei-flessa-braeu/,restaurant
Landhaus Hubertus,"Staehleweg, Invalidensiedlung 46",13465,Berlin,https://helfen-shop.berlin/dein-unternehmen/landhaus-hubertus/,restaurant
Sarkany Schmuck,Bürknerstraße 10,12047,Berlin,https://helfen-shop.berlin/dein-unternehmen/sarkany-schmuck/,restaurant
Hani Beauty (Mitte),Leipziger Platz 12,10117,Berlin,https://helfen-shop.berlin/dein-unternehmen/hani-beauty-mitte/,restaurant
Bines my fashion  shop,Alt-Rudow 53,12357,Berlin,https://helfen-shop.berlin/dein-unternehmen/bines-my-fashion-shop/,restaurant
Pizzaklub,Katzlerstraße 20,10829,Berlin,https://helfen-shop.berlin/dein-unternehmen/pizzaklub/,restaurant
Ticket B – Architektur erleben,Frankfurter Tor 1,10243,Berlin,https://helfen-shop.berlin/dein-unternehmen/ticket-b-architektur-erleben/,restaurant
Dirk 1 Friseur,Goethestr. 15,10625,Berlin,https://helfen-shop.berlin/dein-unternehmen/dirk-1-friseur/,restaurant
Christopher’s,Mommsenstr. 63,10629,Berlin,https://helfen-shop.berlin/dein-unternehmen/christophers/,restaurant
Cafe DUJARDIN,Uferstrasse 12,13357,Berlin,https://helfen-shop.berlin/dein-unternehmen/cafe-dujardin/,restaurant
Haus der Sinne,Ystader Straße 10,10437,Berlin,https://helfen-shop.berlin/dein-unternehmen/haus-der-sinne/,restaurant
Feine Wäsche,Friedrichstraße 67,10117,Berlin,https://helfen-shop.berlin/dein-unternehmen/feine-waesche/,restaurant
Mission Accepted,Tauentzienstraße 9-12,10789,Berlin,https://helfen-shop.berlin/dein-unternehmen/mission-accepted/,restaurant
Modulor,Prinzenstraße 85,10969,Berlin,https://helfen-shop.berlin/dein-unternehmen/modulor/,restaurant
Avant-Apres Cosmetic Institut,Pestalozzistr 99a,10625,Berlin,https://helfen-shop.berlin/dein-unternehmen/avant-apres-cosmetic-institut/,restaurant
Georgios Restaurant,Bayerische str. 26,10707,Berlin,https://helfen-shop.berlin/dein-unternehmen/georgios-restaurant/,restaurant
Trollby Kinder-Second-Hand mit Still- und Umstandsmode,Eisenacher Strasse 78,10823,Berlin,https://helfen-shop.berlin/dein-unternehmen/trollby-kinder-second-hand-mit-still-und-umstandsmode/,restaurant
FINE & DANDY kleine schwester,Ackerstraße 156,10115,Berlin,https://helfen-shop.berlin/dein-unternehmen/fine-dandy-kleine-schwester/,restaurant
Buchstabenmuseum,Stadtbahnbogen 424,10557,Berlin,https://helfen-shop.berlin/dein-unternehmen/buchstabenmuseum/,restaurant
tenzan lab.,Wörther Str.22,10405,Berlin,https://helfen-shop.berlin/dein-unternehmen/tenzan-lab/,restaurant
scorpia- schmuck,Krefelderstr 3,10555,Berlin,https://helfen-shop.berlin/dein-unternehmen/scorpia-schmuck/,restaurant
Myam Stix,Landsberger Chaussee 17,16356,Berlin,https://helfen-shop.berlin/dein-unternehmen/myam-stix/,restaurant
janinebeangallery,Torstraße 154,10115,Berlin,https://helfen-shop.berlin/dein-unternehmen/janinebeangallery/,restaurant
FINE & DANDY the Beautydepartment,Lychenerstr. 43,10437,Berlin,https://helfen-shop.berlin/dein-unternehmen/fine-dandy-the-beautydepartment/,restaurant
bob – boxoffberlin,Zimmerstr. 11,10969,Berlin,https://helfen-shop.berlin/dein-unternehmen/bob-boxoffberlin/,restaurant
El Chilenito Berlin,Bergmannstraße 102,10961,Berlin,https://helfen-shop.berlin/dein-unternehmen/el-chilenito-berlin/,restaurant
Marin et Marine,Sanderstraße 13,12047,Berlin,https://helfen-shop.berlin/dein-unternehmen/marin-et-marine/,restaurant
La Maremma,Hagen Straße 79,14193,Berlin,https://helfen-shop.berlin/dein-unternehmen/la-maremma/,restaurant
Schnittstelle Friseure,Kollwitzstraße 70,10435,Berlin,https://helfen-shop.berlin/dein-unternehmen/schnittstelle-friseure/,restaurant
Atma,Räuschstrasse 57a,13509,Berlin,https://helfen-shop.berlin/dein-unternehmen/atma/,restaurant
Schnittstelle Friseure AVEDA Store,Bergmannstraße 108,10961,Berlin,https://helfen-shop.berlin/dein-unternehmen/schnittstelle-friseure-aveda-store/,restaurant
English Traders Berlin,Weisestr. 58,12049,Berlin,https://helfen-shop.berlin/dein-unternehmen/english-traders-berlin/,restaurant
Bahadur – Tandoori Grill & Currys,Sigmaringer Str. 36,10713,Berlin,https://helfen-shop.berlin/dein-unternehmen/bahadur-tandoori-grill-currys/,restaurant
Frieda Hain,Gärtnerstr. 10,10245,Berlin,https://helfen-shop.berlin/dein-unternehmen/frieda-hain/,restaurant
Art.City.People.: Creative Space & Craft Coffee,Oranienburger Strasse 32,10117,Berlin,https://helfen-shop.berlin/dein-unternehmen/art-city-people-creative-space-craft-coffee/,restaurant
Ella&Mo,Heinsestrasse 25,13467,Berlin,https://helfen-shop.berlin/dein-unternehmen/ellamo/,restaurant
Luisa Serafin Clothing,Henriette-Herz-Platz 4,10178,Berlin,https://helfen-shop.berlin/dein-unternehmen/luisa-serafin-clothing/,restaurant
Naschhaus – Naschen wie in Schweden,Schreinerstr. 15,10247,Berlin,https://helfen-shop.berlin/dein-unternehmen/naschhaus-naschen-wie-in-schweden/,restaurant
Hut Styler,Spandauer Straße 27,10178,Berlin,https://helfen-shop.berlin/dein-unternehmen/hut-styler/,restaurant
Evin Pizza Pasta,Kurfürstenstr. 101-104,10787,Berlin,https://helfen-shop.berlin/dein-unternehmen/evin-pizza-pasta/,restaurant
Anna Exclusive Fashion,Kurfürstendamm 60,10707,Berlin,https://helfen-shop.berlin/dein-unternehmen/anna-exclusive-fashion/,restaurant
Restaurant Dos,Kurfürstendamm 129b,10711,Berlin,https://helfen-shop.berlin/dein-unternehmen/restaurant-dos/,restaurant
Theater im Keller,Weserstraße 211,12047,Berlin,https://helfen-shop.berlin/dein-unternehmen/theater-im-keller/,restaurant
Kino & Bar in der Königstadt,Straßburger Straße 55,10405,Berlin,https://helfen-shop.berlin/dein-unternehmen/kino-bar-in-der-koenigstadt/,restaurant
Berlin Rikscha Tours,Dennewitzstr.4,10785,Berlin,https://helfen-shop.berlin/dein-unternehmen/berlin-rikscha-tours/,restaurant
Kollateralschaden,Bürknerstraße 11,12047,Berlin,https://helfen-shop.berlin/dein-unternehmen/kollateralschaden/,restaurant
Restaurant Georgios,BAYERISCHE Straßen 26,10707,Berlin,https://helfen-shop.berlin/dein-unternehmen/restaurant-georgios/,restaurant
Hermann Eicke,Brunnenstrasse 45,10115,Berlin,https://helfen-shop.berlin/dein-unternehmen/hermann-eicke/,restaurant
Goldschmiede Selbiger,Weitlingstraße 30,10317,Berlin,https://helfen-shop.berlin/dein-unternehmen/goldschmiede-selbiger/,restaurant
Spree & Havelschiffahrt,Schiffbauerdamm 12,10117,Berlin,https://helfen-shop.berlin/dein-unternehmen/spree-havelschiffahrt/,restaurant
fsk-Kino am Oranienplatz,Segitzdamm 2,10969,Berlin,https://helfen-shop.berlin/dein-unternehmen/fsk-kino-am-oranienplatz/,restaurant
Hacke & Spitze Tanzbedarf,Zossener Str. 32,10961,Berlin,https://helfen-shop.berlin/dein-unternehmen/hacke-spitze-tanzbedarf/,restaurant
König 19,Königstraße 40,14109,Berlin,https://helfen-shop.berlin/dein-unternehmen/koenig-19/,restaurant
Agas Own,Körtestraße 34,10967,Berlin,https://helfen-shop.berlin/dein-unternehmen/agas-own/,restaurant
Foto Kotti,Skalitzer Str.134,10999,Berlin,https://helfen-shop.berlin/dein-unternehmen/foto-kotti/,restaurant
Ete Clothing,Bergmannstrasse 18,10961,Berlin,https://helfen-shop.berlin/dein-unternehmen/ete-clothing/,restaurant
KLANGMASSAGE BERLIN,Neuchateller Str. 10,12203,Berlin,https://helfen-shop.berlin/dein-unternehmen/klangmassage-berlin/,restaurant
Schmidt Z&KO GmbH,Rheinstr.45-46,12161,Berlin,https://helfen-shop.berlin/dein-unternehmen/schmidt-zko-gmbh/,restaurant
Mantra,Dürerplatz 2,12157,Berlin,https://helfen-shop.berlin/dein-unternehmen/mantra/,restaurant
Seyfert und Friseure,Drakestr 29a,12205,Berlin,https://helfen-shop.berlin/dein-unternehmen/seyfert-und-friseure/,restaurant
PP-Berlin,Kopernikusstr.10,10245,Berlin,https://helfen-shop.berlin/dein-unternehmen/pp-berlin/,restaurant
Flagshipstore Berlin,Oderberger Str. 53,10435,Berlin,https://helfen-shop.berlin/dein-unternehmen/flagshipstore-berlin/,restaurant
Restaurant Olivengarten,Spichernstraße 24,10777,Berlin,https://helfen-shop.berlin/dein-unternehmen/restaurant-olivengarten/,restaurant
Die Hütte Pizzeria,Kopenhagener Straße 17,10437,Berlin,https://helfen-shop.berlin/dein-unternehmen/die-huette-pizzeria/,restaurant
Die Kleine Wunderkammer,Kastanienallee 32,10435,Berlin,https://helfen-shop.berlin/dein-unternehmen/die-kleine-wunderkammer/,restaurant
"TapBeat, International Tap Dance Center",Jeanne-Mammen-Bogen 580-581,10623,Berlin,https://helfen-shop.berlin/dein-unternehmen/tapbeat-international-tap-dance-center/,restaurant
die kaffeenauten,Schützenstraße 4,12165,Berlin,https://helfen-shop.berlin/dein-unternehmen/die-kaffeenauten/,restaurant
ROSE ROSA,Bleibtreustraße 48,10623,Berlin,https://helfen-shop.berlin/dein-unternehmen/rose-rosa/,restaurant
Secret Tours Berlin,Rauchstraße 11,10787,Berlin,https://helfen-shop.berlin/dein-unternehmen/secret-tours-berlin/,restaurant
Aesthetik Movement,Roch str 16,10178,Berlin,https://helfen-shop.berlin/dein-unternehmen/aesthetik-movement/,restaurant
Friseur Jilah,Brunnenstrasse 34,10115,Berlin,https://helfen-shop.berlin/dein-unternehmen/friseur-jilah/,restaurant
Frame Punk GmbH,Manteuffelstraße 48,10999,Berlin,https://helfen-shop.berlin/dein-unternehmen/frame-punk-gmbh/,restaurant
Beauty E&C,Scharnweberstr. 31,13405,Berlin,https://helfen-shop.berlin/dein-unternehmen/beauty-ec/,restaurant
Gloria Kreuzberg,Görlitzer Str. 42,10997,Berlin,https://helfen-shop.berlin/dein-unternehmen/gloria-kreuzberg/,restaurant
KIWIBLAU Coaching,Oranienstr. 58A,10969,Berlin,https://helfen-shop.berlin/dein-unternehmen/kiwiblau-coaching/,restaurant
Kohlenquelle,Kopenhagener Straße 16,10437,Berlin,https://helfen-shop.berlin/dein-unternehmen/kohlenquelle/,restaurant
Gloria Prenzlauer Berg,Danziger Str. 17,10435,Berlin,https://helfen-shop.berlin/dein-unternehmen/gloria-prenzlauer-berg/,restaurant
Ammazza che Pizza,Maybachufer 21,12047,Berlin,https://helfen-shop.berlin/dein-unternehmen/ammazza-che-pizza/,restaurant
habitare wohnen & wohnen,Savignyplatz 7-8,10623,Berlin,https://helfen-shop.berlin/dein-unternehmen/habitare-wohnen-wohnen/,restaurant
mia y leo,Jagowstr. 26,10555,Berlin,https://helfen-shop.berlin/dein-unternehmen/mia-y-leo/,restaurant
Weltballon,Zimmerstraße 98,10117,Berlin,https://helfen-shop.berlin/dein-unternehmen/weltballon/,restaurant
Rosige Zeiten,Lehmbruckstr. 9,10245,Berlin,https://helfen-shop.berlin/dein-unternehmen/rosige-zeiten/,restaurant
VIN AQUA VIN,Weserstraße 204,12047,Berlin,https://helfen-shop.berlin/dein-unternehmen/vin-aqua-vin/,restaurant
Evelin Brandt Berlin – Friedrichshain,Frankfurter Allee 89,10247,Berlin,https://helfen-shop.berlin/dein-unternehmen/evelin-brandt-berlin-friedrichshain/,restaurant
CHOICE Restaurant,Akazienstr 9,10823,Berlin,https://helfen-shop.berlin/dein-unternehmen/choice-restaurant/,restaurant
Evelin Brandt Berlin – Mitte,Friedrichstraße 153A,10117,Berlin,https://helfen-shop.berlin/dein-unternehmen/evelin-brandt-berlin-mitte/,restaurant
Stadtengel,Wühlischstr. 24,10245,Berlin,https://helfen-shop.berlin/dein-unternehmen/stadtengel/,restaurant
Pilatesengel,Herrfurthplatz 5,12043,Berlin,https://helfen-shop.berlin/dein-unternehmen/pilatesengel/,restaurant
Kiezelfen Schmuck & Accessoires,Gärtnerstr. 24,10245,Berlin,https://helfen-shop.berlin/dein-unternehmen/kiezelfen-schmuck-accessoires/,restaurant
Peccato Fashion Store,Wühlischstr. 40-41,10245,Berlin,https://helfen-shop.berlin/dein-unternehmen/peccato-fashion-store/,restaurant
Evelin Brandt Berlin – Charlottenburg,Savignyplatz 6,10623,Berlin,https://helfen-shop.berlin/dein-unternehmen/evelin-brandt-berlin-charlottenburg/,restaurant
Berliner Hutsalon Coy – art to wear,Rosenthaler Str. 40 Hof 8,10178,Berlin,https://helfen-shop.berlin/dein-unternehmen/berliner-hutsalon-coy-art-to-wear/,restaurant
Maikes Haar Oase,Hindenburgdamm 57 d,12203,Berlin,https://helfen-shop.berlin/dein-unternehmen/maikes-haar-oase/,restaurant
Duke Bar,Freiheit 15,12555,Berlin,https://helfen-shop.berlin/dein-unternehmen/duke-bar/,restaurant
Minimarkt Stresow,Stresowplatz 16 A,13597,Berlin,https://helfen-shop.berlin/dein-unternehmen/minimarkt-stresow/,restaurant
Gordon Restaurant and Record Store,Allerstr. 11,10243,Berlin,https://helfen-shop.berlin/dein-unternehmen/gordon-restaurant-and-record-store/,restaurant
Viticula Wein&Feinkost,Rudolf-Breitscheid-Allee 95,15366,Berlin,https://helfen-shop.berlin/dein-unternehmen/viticula-weinfeinkost/,restaurant
The WOW! Gallery Berlin,Greifswalderstr 81,10405,Berlin,https://helfen-shop.berlin/dein-unternehmen/the-wow-gallery-berlin/,restaurant
Fotowalks Berlin,Romy-Schneider-Str. 13,13599,Berlin,https://helfen-shop.berlin/dein-unternehmen/fotowalks-berlin/,restaurant
Restaurant Treptower Klause,Karl-Kunger-Str.  69,12435,Berlin,https://helfen-shop.berlin/dein-unternehmen/restaurant-treptower-klause/,restaurant
Kosmetikstudio- Beautylounge,Dahlmannstraße 10,10629,Berlin,https://helfen-shop.berlin/dein-unternehmen/kosmetikstudio-beautylounge/,restaurant
Frollein Langner,Weisestraße 34,12049,Berlin,https://helfen-shop.berlin/dein-unternehmen/frollein-langner/,restaurant
asiana village,Wilhelmsruher Damm 231,13435,Berlin,https://helfen-shop.berlin/dein-unternehmen/asiana-village/,restaurant
Lisboa Bar am Boxi,Krossener Str. 20,10245,Berlin,https://helfen-shop.berlin/dein-unternehmen/lisboa-bar-am-boxi/,restaurant
Café Insonne,Windscheidstrasse 22,10627,Berlin,https://helfen-shop.berlin/dein-unternehmen/cafe-insonne/,restaurant
Ice Angels,Blumberger Damm 90,12685,Berlin,https://helfen-shop.berlin/dein-unternehmen/ice-angels/,restaurant
La Barbieria Berlin,Knaackstraße 33,10405,Berlin,https://helfen-shop.berlin/dein-unternehmen/la-barbieria-berlin/,restaurant
Doldenmädel Braugasthaus,Mehringdamm 80,10965,Berlin,https://helfen-shop.berlin/dein-unternehmen/doldenmaedel-braugasthaus/,restaurant
Immergrūn- Eastgate,Marzahner Promenade 1a,12679,Berlin,https://helfen-shop.berlin/dein-unternehmen/immergrun-eastgate/,restaurant
Blau-Weiss Hockeylounge,Eichhörnchensteig 1,14193,Berlin,https://helfen-shop.berlin/dein-unternehmen/blau-weiss-hockeylounge/,restaurant
Immergrūn- Spandau Arcaden,Klosterstraße 3,13581,Berlin,https://helfen-shop.berlin/dein-unternehmen/immergrun-spandau-arcaden/,restaurant
Lady M  Wäsche DessousBademoden,Westfälischestrasse 43,10711,Berlin,https://helfen-shop.berlin/dein-unternehmen/lady-m-waesche-dessousbademoden/,restaurant
GENUSSWANDEL,Brandenburgische Strasse 27,12159,Berlin,https://helfen-shop.berlin/dein-unternehmen/genusswandel/,restaurant
Lassrollen Urbanboarding Surf-Skate-Stunt-Shop,Grünberger str. 42,10245,Berlin,https://helfen-shop.berlin/dein-unternehmen/lassrollen-urbanboarding-surf-skate-stunt-shop/,restaurant
Kutumba,Märkische Allee 176-178,12681,Berlin,https://helfen-shop.berlin/dein-unternehmen/kutumba/,restaurant
Touristinformation Neukölln,Karl-Marx-Straße 83,12043,Berlin,https://helfen-shop.berlin/dein-unternehmen/touristinformation-neukoelln/,restaurant
SNAUBAR,Sonnenallee 96,12045,Berlin,https://helfen-shop.berlin/dein-unternehmen/snaubar/,restaurant
Microblading BERLIN by LadaNatalie.com,Rykestr. 19,10405,Berlin,https://helfen-shop.berlin/dein-unternehmen/microblading-berlin-by-ladanatalie-com/,restaurant
KRONSOHN HAAR.KUNST.MODE,Proskauer Straße 30,10247,Berlin,https://helfen-shop.berlin/dein-unternehmen/kronsohn-haar-kunst-mode/,restaurant
The MyMoon Restaurant,Alt Reinickendorf 3,13407,Berlin,https://helfen-shop.berlin/dein-unternehmen/the-mymoon-restaurant/,restaurant
Road Runner Bar,Franz-Künstler-Str. 15,10969,Berlin,https://helfen-shop.berlin/dein-unternehmen/road-runner-bar/,restaurant
Georgios Restaurant,BAYERISCHE Straßen 26,10707,Berlin,https://helfen-shop.berlin/dein-unternehmen/georgios-restaurant-2/,restaurant
bolsos berlin,Friedrichstr. 23a,10969,Berlin,https://helfen-shop.berlin/dein-unternehmen/bolsos-berlin/,restaurant
TZOM Eritrean food,Dieffenbachstraße 69,10967,Berlin,https://helfen-shop.berlin/dein-unternehmen/tzom-eritrean-food/,restaurant
Seerose,Körtestr. 38,10967,Berlin,https://helfen-shop.berlin/dein-unternehmen/seerose/,restaurant
Stella Perfect Beauty Kosmetikstudio,Hagenstrasse 10,14193,Berlin,https://helfen-shop.berlin/dein-unternehmen/stella-perfect-beauty-kosmetikstudio/,restaurant
Felicious Jewellery,Schröderstraße 14,10115,Berlin,https://helfen-shop.berlin/dein-unternehmen/felicious-jewellery/,restaurant
Cake Avenue Berlin,Lüderitz str 8,13351,Berlin,https://helfen-shop.berlin/dein-unternehmen/cake-avenue-berlin/,restaurant
Funky Summer Longboard Berlin,Tegeler Str. 30,13353,Berlin,https://helfen-shop.berlin/dein-unternehmen/funky-summer-longboard-berlin/,restaurant
anne malderle modedesign & manufaktur,Fidicinstrasse 4,10965,Berlin,https://helfen-shop.berlin/dein-unternehmen/anne-malderle-modedesign-manufaktur/,restaurant
Das Sachsenhaus,Markgrafenstraße 39,10117,Berlin,https://helfen-shop.berlin/dein-unternehmen/das-sachsenhaus/,restaurant
Fräulein Hirschhorn – Näh dich glücklich!,Hauptstraße 67,12159,Berlin,https://helfen-shop.berlin/dein-unternehmen/fraeulein-hirschhorn-naeh-dich-gluecklich/,restaurant
& Coffee,Nehrigstraße 6,10559,Berlin,https://helfen-shop.berlin/dein-unternehmen/coffee/,restaurant
Café MyMoon,Markstr.4,13409,Berlin,https://helfen-shop.berlin/dein-unternehmen/cafe-mymoon/,restaurant
CINTLI Berlin,Bülowstr. 6,10783,Berlin,https://helfen-shop.berlin/dein-unternehmen/cintli-berlin/,restaurant
PRESENT & PAPER,Schliemannstraße 25a,10437,Berlin,https://helfen-shop.berlin/dein-unternehmen/present-paper/,restaurant
Ware:Schönheit,Tegelerstraße 32,13353,Berlin,https://helfen-shop.berlin/dein-unternehmen/wareschoenheit/,restaurant
Treinta Y Seis,Falckensteinstrasse 42,10997,Berlin,https://helfen-shop.berlin/dein-unternehmen/treinta-y-seis/,restaurant
Tante Anna Café,Gutenbergstraße 103,14467,Berlin,https://helfen-shop.berlin/dein-unternehmen/tante-anna-cafe/,restaurant
Sicula Bar,Scharnweberstraße 46,10247,Berlin,https://helfen-shop.berlin/dein-unternehmen/sicula-bar/,restaurant
Micha Pelz Coiffure,Schlegelstraße 26,10115,Berlin,https://helfen-shop.berlin/dein-unternehmen/micha-pelz-coiffure/,restaurant
La Pica de Deli Mel,Freienwalder Strasse 14,13055,Berlin,https://helfen-shop.berlin/dein-unternehmen/la-pica-de-deli-mel/,restaurant
"Artigiani, das natürliche Eis",Unter den Eichen 94b,12205,Berlin,https://helfen-shop.berlin/dein-unternehmen/artigiani-das-natuerliche-eis/,restaurant
Rosewater’s Bath & Body Shop,Knesebeckstraße 5,10623,Berlin,https://helfen-shop.berlin/dein-unternehmen/rosewaters-bath-body-shop/,restaurant
Mic Mac,Akazienstraße 8,10823,Berlin,https://helfen-shop.berlin/dein-unternehmen/mic-mac/,restaurant
Sveda,Schwedter Strasse 79,10437,Berlin,https://helfen-shop.berlin/dein-unternehmen/sveda/,restaurant
China Haus Restaurant,Mannheimer Str. 39,12623,Berlin,https://helfen-shop.berlin/dein-unternehmen/china-haus-restaurant/,restaurant
JCorner,Chausseestr. 88,10115,Berlin,https://helfen-shop.berlin/dein-unternehmen/jcorner/,restaurant
Greifmusic – die mobile Musikschule,Baumschulenstraße 65a,12437,Berlin,https://helfen-shop.berlin/dein-unternehmen/greifmusic-die-mobile-musikschule/,restaurant
Restaurant Galeb,Blissestraße.2,10713,Berlin,https://helfen-shop.berlin/dein-unternehmen/restaurant-galeb/,restaurant
Keramikwerkstatt im CorA-Art-Werkstattladen,Dietzgenstraße 57,13156,Berlin,https://helfen-shop.berlin/dein-unternehmen/keramikwerkstatt-im-cora-art-werkstattladen/,restaurant
Asia River,Tamara-Danz-Str. 11,10243,Berlin,https://helfen-shop.berlin/dein-unternehmen/asia-river/,restaurant
Café ‘weder gestern noch morgen’,Gärtnerstraße 22,10245,Berlin,https://helfen-shop.berlin/dein-unternehmen/cafe-weder-gestern-noch-morgen/,restaurant
Junction Café,Gneisenaustr. 18,10961,Berlin,https://helfen-shop.berlin/dein-unternehmen/junction-cafe/,restaurant
Pink Star,Uhlandstr. 53,10719,Berlin,https://helfen-shop.berlin/dein-unternehmen/pink-star/,restaurant
Pure Skin Beauty,Rückertstraße 2,10627,Berlin,https://helfen-shop.berlin/dein-unternehmen/pure-skin-beauty/,restaurant
Jekyll und Kleid,Gneisenaustr. 63,10961,Berlin,https://helfen-shop.berlin/dein-unternehmen/jekyll-und-kleid/,restaurant
C 37,Choriner Strasse 37,10435,Berlin,https://helfen-shop.berlin/dein-unternehmen/c-37/,restaurant
Kiez-Küche,Goethestraße 34,12459,Berlin,https://helfen-shop.berlin/dein-unternehmen/kiez-kueche/,restaurant
Tekin Änderungsatelier,Hermannstr.214- 216,12049,Berlin,https://helfen-shop.berlin/dein-unternehmen/tekin-aenderungsatelier/,restaurant
Zur Rose,Weinbergsweg 26,10119,Berlin,https://helfen-shop.berlin/dein-unternehmen/zur-rose/,restaurant
Der Schöne Laden,Wienerstr.15,10999,Berlin,https://helfen-shop.berlin/dein-unternehmen/der-schoene-laden/,restaurant
Bon. Figaro „Ihr Friseur“,Ehrenfelsstr. 10,10318,Berlin,https://helfen-shop.berlin/dein-unternehmen/bon-figaro-ihr-friseur/,restaurant
Süße Werkstatt Julia,Marienstr.26,10117,Berlin,https://helfen-shop.berlin/dein-unternehmen/suesse-werkstatt-julia/,restaurant
Tucholsky-Buchhandlung,Tucholskystraße 47,10117,Berlin,https://helfen-shop.berlin/dein-unternehmen/tucholsky-buchhandlung/,restaurant
MACHmit! Museum für Kinder,Senefelderstraße 5,10437,Berlin,https://helfen-shop.berlin/dein-unternehmen/machmit-museum-fuer-kinder/,restaurant
Tentacion Mezcalothek,Scharnweberstr. 32,10245,Berlin,https://helfen-shop.berlin/dein-unternehmen/tentacion-mezcalothek/,restaurant
clánndestino,Waldemarstr. 29,10999,Berlin,https://helfen-shop.berlin/dein-unternehmen/clanndestino/,restaurant
Mojewa Food Truck,Braunschweiger Straße 72,12055,Berlin,https://helfen-shop.berlin/dein-unternehmen/mojewa-food-truck/,restaurant
Café Canna,Lychener Str. 4,10437,Berlin,https://helfen-shop.berlin/dein-unternehmen/cafe-canna/,restaurant
just shine Farbtyp- und Stilberatung,Muskauer Straße 47,10997,Berlin,https://helfen-shop.berlin/dein-unternehmen/just-shine-farbtyp-und-stilberatung/,restaurant
Kosmetikstudio Gesund&Schön,Hohenstaufenstr. 32,10779,Berlin,https://helfen-shop.berlin/dein-unternehmen/kosmetikstudio-gesundschoen/,restaurant
kultpur,Muskauer Straße 47,10997,Berlin,https://helfen-shop.berlin/dein-unternehmen/kultpur/,restaurant
Heipl Berlin,Schlesische Strasse 30,10997,Berlin,https://helfen-shop.berlin/dein-unternehmen/heipl-berlin/,restaurant
PINOY Philippinische Spezialitäten,Danckelmannstr. 49,14059,Berlin,https://helfen-shop.berlin/dein-unternehmen/pinoy-philippinische-spezialitaeten/,restaurant
Studio108 Yogastudio & Heilpraxis,Wollankstr. 128,13187,Berlin,https://helfen-shop.berlin/dein-unternehmen/studio108-yogastudio-heilpraxis/,restaurant
Lichterglanz die Kerzenmanufaktur,Räuschstraße 17a,13509,Berlin,https://helfen-shop.berlin/dein-unternehmen/lichterglanz-die-kerzenmanufaktur/,restaurant
Doppel D,Knesebeckstraße 8,10623,Berlin,https://helfen-shop.berlin/dein-unternehmen/doppel-d/,restaurant
Les Épicuriens,Marheineke Markthalle,10961,Berlin,https://helfen-shop.berlin/dein-unternehmen/les-epicuriens/,restaurant
Löblich-Deli&Café,Hasenheide 49,10967,Berlin,https://helfen-shop.berlin/dein-unternehmen/loeblich-delicafe/,restaurant
The Hidden by Daniel‘s Eatery,Heinrich-Roller-Strasse 8,10405,Berlin,https://helfen-shop.berlin/dein-unternehmen/the-hidden-by-daniels-eatery/,restaurant
DESIGNPANOPTIKUM,Poststraße 7,10178,Berlin,https://helfen-shop.berlin/dein-unternehmen/designpanoptikum/,restaurant
Café Botanico,Richardstrasse 100,12043,Berlin,https://helfen-shop.berlin/dein-unternehmen/cafe-botanico/,restaurant
Coiffeur Georgina,Kantstraße 58,10627,Berlin,https://helfen-shop.berlin/dein-unternehmen/coiffeur-georgina/,restaurant
Freiwald Kosmetik,Berliner Straße 127,15569,Berlin,https://helfen-shop.berlin/dein-unternehmen/freiwald-kosmetik/,restaurant
Betty `n Caty,Knaackstrasse 26,10405,Berlin,https://helfen-shop.berlin/dein-unternehmen/betty-n-caty/,restaurant
Biste Mode Frisiersalon,Wartburgstr. 15,10825,Berlin,https://helfen-shop.berlin/dein-unternehmen/biste-mode-frisiersalon/,restaurant
Sing Blackbird,Sanderstr. 11,12047,Berlin,https://helfen-shop.berlin/dein-unternehmen/sing-blackbird/,restaurant
Frameworks Berlin,Reichenberger Straße 28,10999,Berlin,https://helfen-shop.berlin/dein-unternehmen/frameworks-berlin/,restaurant
Santomana,Schliemannstr. 26,10437,Berlin,https://helfen-shop.berlin/dein-unternehmen/santomana/,restaurant
La Petite Croissanterie und Café,carmerstr 8,10623,Berlin,https://helfen-shop.berlin/dein-unternehmen/la-petite-croissanterie-und-cafe/,restaurant
Cento Passi,Krossener Str 36,10245,Berlin,https://helfen-shop.berlin/dein-unternehmen/cento-passi/,restaurant
home on earth,"Hackesche Höfe / Hof V, Rosenthalerstr. 40/41",10178,Berlin,https://helfen-shop.berlin/dein-unternehmen/home-on-earth/,restaurant
Dae Mon,Monbijouplatz 11,10178,Berlin,https://helfen-shop.berlin/dein-unternehmen/dae-mon/,restaurant
Gogogi GmbH,Weinbergsweg 24,10119,Berlin,https://helfen-shop.berlin/dein-unternehmen/gogogi-gmbh/,restaurant
Li.ke Thai Vagan Restaurant,Grünbergerstraße 69,10245,Berlin,https://helfen-shop.berlin/dein-unternehmen/li-ke-thai-vagan-restaurant/,restaurant
Sportshop Fairplay,Johannisthaler Chaussee 425,12351,Berlin,https://helfen-shop.berlin/dein-unternehmen/sportshop/,restaurant
complementum,Chausseestraße 4,10115,Berlin,https://helfen-shop.berlin/dein-unternehmen/complementum/,restaurant
Bramigk&Breer,Niebuhrstrasse 1,10629,Berlin,https://helfen-shop.berlin/dein-unternehmen/bramigkbreer/,restaurant
Kaffee Käthe,Kollwitzstrasse 38,10405,Berlin,https://helfen-shop.berlin/dein-unternehmen/kaffee-kaethe/,restaurant
SPUTNIKeins fotografie,Alt-Buch 45,13125,Berlin,https://helfen-shop.berlin/dein-unternehmen/sputnikeins-fotografie/,restaurant
Restaurant Parkstern,Parkstraße 31,13086,Berlin,https://helfen-shop.berlin/dein-unternehmen/restaurant-parkstern/,restaurant
Theater unterm Turm,Düsseldorfer Straße 2,10719,Berlin,https://helfen-shop.berlin/dein-unternehmen/theater-unterm-turm/,restaurant
BRAFINETTE,Florastraße 90,13187,Berlin,https://helfen-shop.berlin/dein-unternehmen/brafinette/,restaurant
KiezEis,Winterfeldtstraße 46,10781,Berlin,https://helfen-shop.berlin/dein-unternehmen/kiezeis/,restaurant
Restaurant Tugra,Kurfürstendamm 96,10709,Berlin,https://helfen-shop.berlin/dein-unternehmen/restaurant-tugra/,restaurant
Weinladen Schmidt,Curtiusstr. 9,12205,Berlin,https://helfen-shop.berlin/dein-unternehmen/weinladen-schmidt/,restaurant
polli überall,Körtestraße 3,10967,Berlin,https://helfen-shop.berlin/dein-unternehmen/polli-ueberall/,restaurant
Alte Turnhalle Berlin,Holteistr. 6,10245,Berlin,https://helfen-shop.berlin/dein-unternehmen/alte-turnhalle-berlin/,restaurant
Machete Berlin,Neue Bahnhofstrasse 29,10245,Berlin,https://helfen-shop.berlin/dein-unternehmen/machete-berlin/,restaurant
Ayurveda Kalari Berlin,Marienburger Str. 8,10405,Berlin,https://helfen-shop.berlin/dein-unternehmen/ayurveda-kalari-berlin/,restaurant
Monkey Bar,Budapester Str. 40,10787,Berlin,https://helfen-shop.berlin/dein-unternehmen/monkey-bar/,restaurant
Silk over Glass Photography,Fischerstraße 40,13597,Berlin,https://helfen-shop.berlin/dein-unternehmen/silk-over-glass-photography/,restaurant
La Bonne Franquette,Chausseestraße 110,10115,Berlin,https://helfen-shop.berlin/dein-unternehmen/la-bonne-franquette/,restaurant
Bose Eck,Manteuffelstr. 59,12103,Berlin,https://helfen-shop.berlin/dein-unternehmen/bose-eck/,restaurant
Bluebird Eistörtchen Manufaktur,Leonhardtstraße 8-9,14057,Berlin,https://helfen-shop.berlin/dein-unternehmen/bluebird-eistoertchen-manufaktur/,restaurant
Gnam Pasta Factory,Kottbusser Damm 6,10967,Berlin,https://helfen-shop.berlin/dein-unternehmen/gnam-pasta-factory/,restaurant
Veronica Pohle,Kurfürstendamm 64,10707,Berlin,https://helfen-shop.berlin/dein-unternehmen/veronica-pohle/,restaurant
Hair Art Gallery,Stargarder Straße 54,10437,Berlin,https://helfen-shop.berlin/dein-unternehmen/hair-art-gallery/,restaurant
Luxuslashes Lounge Berlin,Leibnizstraße 61,10629,Berlin,https://helfen-shop.berlin/dein-unternehmen/luxuslashes-lounge-berlin/,restaurant
Bücherbogen am Savignyplatz GmbH,Stadtbahnbogen 593,10623,Berlin,https://helfen-shop.berlin/dein-unternehmen/buecherbogen-am-savignyplatz-gmbh/,restaurant
purebeau & more,Leibnizstraße 61,10629,Berlin,https://helfen-shop.berlin/dein-unternehmen/purebeau-more/,restaurant
Bulbul Berlin,Skalitzer str. 114,10999,Berlin,https://helfen-shop.berlin/dein-unternehmen/bulbul-berlin/,restaurant
Goldacker Schokoladen&Torten,Ackerstrasse 149,10115,Berlin,https://helfen-shop.berlin/dein-unternehmen/goldacker-schokoladentorten/,restaurant
Jubel – feine Patisserie,Hufelandstr. 10,10407,Berlin,https://helfen-shop.berlin/dein-unternehmen/jubel-feine-patisserie/,restaurant
Bewei Studio Berlin,Windscheidstr. 29,10627,Berlin,https://helfen-shop.berlin/dein-unternehmen/bewei-studio-berlin/,restaurant
NOVeL Concept Store für nachhaltiges Design,Rykestraße 48,10405,Berlin,https://helfen-shop.berlin/dein-unternehmen/novel-concept-store-fuer-nachhaltiges-design/,restaurant
La Lucha,Paul-Lincke-Ufer 39-41,10999,Berlin,https://helfen-shop.berlin/dein-unternehmen/la-lucha/,restaurant
yoyo foodworld,Gärtnerstr. 27,10245,Berlin,https://helfen-shop.berlin/dein-unternehmen/yoyo-foodworld/,restaurant
131 BAR,Chausseestrasse 131a,10115,Berlin,https://helfen-shop.berlin/dein-unternehmen/131-bar/,restaurant
MÜLLERSKIND homemade bakery,Parkstraße 11,12103,Berlin,https://helfen-shop.berlin/dein-unternehmen/muellerskind-homemade-bakery/,restaurant
Luna Spielwaren,Waldstraße 17,10551,Berlin,https://helfen-shop.berlin/dein-unternehmen/luna-spielwaren/,restaurant
CRUBA Berlin,Auguststrasse 28,10117,Berlin,https://helfen-shop.berlin/dein-unternehmen/cruba-berlin/,restaurant
friedrich,Hermann-Hesse-Straße 20,13156,Berlin,https://helfen-shop.berlin/dein-unternehmen/friedrich/,restaurant
Vilarnau Salon,manteuffelstrase 55,10999,Berlin,https://helfen-shop.berlin/dein-unternehmen/vilarnau-salon/,restaurant
Tee Tea Thé,Goltzstr. 2,10781,Berlin,https://helfen-shop.berlin/dein-unternehmen/tee-tea-the/,restaurant
Juki – Korean BBQ,Lychener Str. 13,10437,Berlin,https://helfen-shop.berlin/dein-unternehmen/juki-korean-bbq/,restaurant
Pizzeria Trattoria Castel Montecroce,Friesenstrasse 14,10965,Berlin,https://helfen-shop.berlin/dein-unternehmen/pizzeria-trattoria-castel-montecroce/,restaurant
DER SCHMARRNKAISER,Arminiusstr 2-4,10551,Berlin,https://helfen-shop.berlin/dein-unternehmen/der-schmarrnkaiser/,restaurant
Friseur Kaplan,Kaiser-Wilhelm-Straße 54,12247,Berlin,https://helfen-shop.berlin/dein-unternehmen/friseur-kaplan/,restaurant
Ristorante Sole,Frankfurter Allee 7,10247,Berlin,https://helfen-shop.berlin/dein-unternehmen/ristorante-sole/,restaurant
friedland&partner,Belziger Strasse 28,10823,Berlin,https://helfen-shop.berlin/dein-unternehmen/friedlandpartner/,restaurant
Bürkner Eck Bar,Hobrechstraße 39,12047,Berlin,https://helfen-shop.berlin/dein-unternehmen/buerkner-eck-bar/,restaurant
Kaiser Friedrich Herrenhemden,Kaiser-Friedrich-Str. 1A,10585,Berlin,https://helfen-shop.berlin/dein-unternehmen/kaiser-friedrich-herrenhemden/,restaurant
Kaffee.Bar,Stargarder Straße 55a,10437,Berlin,https://helfen-shop.berlin/dein-unternehmen/kaffee-bar/,restaurant
Gül Restaurant,Krumme Str. 55,10627,Berlin,https://helfen-shop.berlin/dein-unternehmen/guel-restaurant/,restaurant
EEVIE OSTRICH – FRISEUR & MAKE UP,Lindenstraße 76,10969,Berlin,https://helfen-shop.berlin/dein-unternehmen/eevie-ostrich-friseur-make-up/,restaurant
Überblick Optik,Rigaer str.1,10247,Berlin,https://helfen-shop.berlin/dein-unternehmen/ueberblick-optik/,restaurant
"Bibliotheca-Culinaria, Kochbuchantiquariat",Zehdenicker Str. 16,10119,Berlin,https://helfen-shop.berlin/dein-unternehmen/bibliotheca-culinaria-kochbuchantiquariat/,restaurant
Selvi Design Kosmetik Studio,Weser str 215,12047,Berlin,https://helfen-shop.berlin/dein-unternehmen/selvi-design-kosmetik-studio/,restaurant
La Buvette,Gleimstrasse 41,10437,Berlin,https://helfen-shop.berlin/dein-unternehmen/la-buvette/,restaurant
Hotel-Restaurant Landhaus Perle Frank Kempe e.K.,Falkenseer Damm 17,13585,Berlin,https://helfen-shop.berlin/dein-unternehmen/hotel-restaurant-landhaus-perle-frank-kempe-e-k/,restaurant
Café Kuchenkultur,Großbeerenstr.28D,10965,Berlin,https://helfen-shop.berlin/dein-unternehmen/cafe-kuchenkultur/,restaurant
anabelas Kitchen,Pestalozzistrasse 3,10625,Berlin,https://helfen-shop.berlin/dein-unternehmen/anabelas-kitchen/,restaurant
alltours Reisecenter,Bölschestr. 97,12587,Berlin,https://helfen-shop.berlin/dein-unternehmen/alltours-reisecenter/,restaurant
NENI Berlin,Budapester Str. 40,10787,Berlin,https://helfen-shop.berlin/dein-unternehmen/neni-berlin/,restaurant
"Kalle, Clara & Co",Kienitzer Str. 108,12049,Berlin,https://helfen-shop.berlin/dein-unternehmen/kalle-clara-co/,restaurant
Astra Filmpalast,Sterndamm 69,12487,Berlin,https://helfen-shop.berlin/dein-unternehmen/astra-filmpalast/,restaurant
Helmuts Fahrrad Center Potsdam,Breite Str. 2D,14467,Berlin,https://helfen-shop.berlin/dein-unternehmen/helmuts-fahrrad-center-potsdam/,restaurant
Azadeh Studio für orientalischen Tanz,Leibnizstraße 88,10625,Berlin,https://helfen-shop.berlin/dein-unternehmen/azadeh-studio-fuer-orientalischen-tanz/,restaurant
Friseursalon HAARgenau,Parrisiusstr 21,12555,Berlin,https://helfen-shop.berlin/dein-unternehmen/friseursalon-haargenau/,restaurant
Yes Haus,Berlinerstr 109,13467,Berlin,https://helfen-shop.berlin/dein-unternehmen/yes-haus/,restaurant
Coffee Corner,Kottbusser Damm 1,10967,Berlin,https://helfen-shop.berlin/dein-unternehmen/coffee-corner/,restaurant
Frittenwirtschaft,Vulkanstr. 13,10367,Berlin,https://helfen-shop.berlin/dein-unternehmen/frittenwirtschaft/,restaurant
Princess Cheesecake,Tucholskystraße 37,10117,Berlin,https://helfen-shop.berlin/dein-unternehmen/princess-cheesecake/,restaurant
Pound & Pence,Arminiusstraße 2-4,10551,Berlin,https://helfen-shop.berlin/dein-unternehmen/pound-pence/,restaurant
Restaurant & Weinbau – Limyra,MAAßEN STR 11,10777,Berlin,https://helfen-shop.berlin/dein-unternehmen/restaurant-weinbau-limyra/,restaurant
Weltladen Friedrichshagen – Die Zwickmühle,Bölschestraße 150,12587,Berlin,https://helfen-shop.berlin/dein-unternehmen/weltladen-friedrichshagen-die-zwickmuehle/,restaurant
TIARÉ Naturkosmetik,Stargarder Str. 68,10437,Berlin,https://helfen-shop.berlin/dein-unternehmen/tiare-naturkosmetik/,restaurant
Zweite Liebe,Florastraße 59,13187,Berlin,https://helfen-shop.berlin/dein-unternehmen/zweite-liebe/,restaurant
Beauty Lashes Berlin,Breite Str. 23,13187,Berlin,https://helfen-shop.berlin/dein-unternehmen/beauty-lashes-berlin/,restaurant
Gutshaus Neukladow,Neukladower Allee 9 – 12,14089,Berlin,https://helfen-shop.berlin/dein-unternehmen/gutshaus-neukladow/,restaurant
Theater Zitadelle/ Zitadelle Spandau,Am Juliusturm 64,13599,Berlin,https://helfen-shop.berlin/dein-unternehmen/theater-zitadelle-zitadelle-spandau/,restaurant
Helmuts Fahrrad Center – Marienfelde,Großbeerenstr. 169-171,12277,Berlin,https://helfen-shop.berlin/dein-unternehmen/helmuts-fahrrad-center-marienfelde/,restaurant
Hausen – noch schöner wohnen,Krossener Str. 25,10245,Berlin,https://helfen-shop.berlin/dein-unternehmen/hausen-noch-schoener-wohnen/,restaurant
Art Tours Berlin,Wildenbruchstrasse 90,12045,Berlin,https://helfen-shop.berlin/dein-unternehmen/art-tours-berlin/,restaurant
Zum Dorfkrug,Alt-Kladow 23,14089,Berlin,https://helfen-shop.berlin/dein-unternehmen/zum-dorfkrug/,restaurant
Kärrecho,Neue Bahnhofstraße 25,12435,Berlin,https://helfen-shop.berlin/dein-unternehmen/kaerrecho/,restaurant
Schuhmacherei ByksBerlin,Schmiljanstraße 23,12161,Berlin,https://helfen-shop.berlin/dein-unternehmen/schuhmacherei-byksberlin/,restaurant
Flamingo Fresh Food Bar,Neustädtische Kirchstr. 8,10117,Berlin,https://helfen-shop.berlin/dein-unternehmen/flamingo-fresh-food-bar/,restaurant
Angel-in-Bondage,Berliner Str. 118,10713,Berlin,https://helfen-shop.berlin/dein-unternehmen/angel-in-bondage/,restaurant
Grünton Friseur,Eberswalder Straße 26,10437,Berlin,https://helfen-shop.berlin/dein-unternehmen/gruenton-friseur/,restaurant
Erzgebirgische Volkskunst Münzberg,Adamstraße 49,13595,Berlin,https://helfen-shop.berlin/dein-unternehmen/erzgebirgische-volkskunst-muenzberg/,restaurant
Pijalnia Wódki i Piwa,Simon-Dach-Str. 32,10245,Berlin,https://helfen-shop.berlin/dein-unternehmen/pijalnia-wodki-i-piwa/,restaurant
sichtwechsel®️ Berlin,Sredzkistr. 23,10435,Berlin,https://helfen-shop.berlin/dein-unternehmen/sichtwechsel%ef%b8%8f-berlin/,restaurant
VILLA RUH,Nassauische Str. 62,10717,Berlin,https://helfen-shop.berlin/dein-unternehmen/villa-ruh/,restaurant
Head over Heels Hair,Weichselstraße 14,10247,Berlin,https://helfen-shop.berlin/dein-unternehmen/head-over-heels-hair/,restaurant
Restaurant Shan Shan,Gleimstr.24,10437,Berlin,https://helfen-shop.berlin/dein-unternehmen/restaurant-shan-shan/,restaurant
Meet Me By The Baobab Tree,Soldiner Strasse 41,13359,Berlin,https://helfen-shop.berlin/dein-unternehmen/meet-me-by-the-baobab-tree/,restaurant
Borkowsky Instrumente und Band-Equipment,Torellstr. 1,10243,Berlin,https://helfen-shop.berlin/dein-unternehmen/borkowsky-instrumente-und-band-equipment/,restaurant
"Löwenmähne, dein Friseur",Schlieperstraße 25,13507,Berlin,https://helfen-shop.berlin/dein-unternehmen/loewenmaehne-dein-friseur/,restaurant
Fotostudio Fügener,Laubacher Straße 36,14197,Berlin,https://helfen-shop.berlin/dein-unternehmen/fotostudio-fuegener/,restaurant
Die Gestalterei,Christburgerstr. 30,10405,Berlin,https://helfen-shop.berlin/dein-unternehmen/die-gestalterei/,restaurant
Vereinsheim Sc Borsigwalde,Tietzstraße 33-41,13509,Berlin,https://helfen-shop.berlin/dein-unternehmen/vereinsheim-sc-borsigwalde/,restaurant
LIEBLING KREUZBERG – Kleidungsstücke & Interieurs (Kreuzberg),Mehringdamm 75,10965,Berlin,https://helfen-shop.berlin/dein-unternehmen/liebling-kreuzberg-kleidungsstuecke-interieurs-kreuzberg/,restaurant
Terzo Mondo,Grolmanstraße 28,10623,Berlin,https://helfen-shop.berlin/dein-unternehmen/terzo-mondo/,restaurant
Marinella Berlin,Unter den Eichen 94,12205,Berlin,https://helfen-shop.berlin/dein-unternehmen/marinella-berlin/,restaurant
Barry beauty,Schillerstraße 48,10627,Berlin,https://helfen-shop.berlin/dein-unternehmen/barry-beauty/,restaurant
LIEBLING KREUZBERG – Kleidungsstücke & Interieurs (Pankow),Florastrasse 42,13187,Berlin,https://helfen-shop.berlin/dein-unternehmen/liebling-kreuzberg-kleidungsstuecke-interieurs-pankow/,restaurant
Strandbad,Wörtherstr. 12,10435,Berlin,https://helfen-shop.berlin/dein-unternehmen/strandbad/,restaurant
Hiljegerdes Friseur Kosmetik Make-Up,Krefelder Str. 3,10555,Berlin,https://helfen-shop.berlin/dein-unternehmen/hiljegerdes-friseur-kosmetik-make-up/,restaurant
Restaurant Mariona,Skalitzer Str. 94b,10997,Berlin,https://helfen-shop.berlin/dein-unternehmen/restaurant-mariona/,restaurant
Nelia Modedesign,Belziger Straße 20,10823,Berlin,https://helfen-shop.berlin/dein-unternehmen/nelia-modedesign/,restaurant
Schönheitstanz Studio,Charitéstr. 4,10117,Berlin,https://helfen-shop.berlin/dein-unternehmen/schoenheitstanz-studio/,restaurant
Filmkunstbar Fitzcarraldo,Reichenberger Str. 133,10999,Berlin,https://helfen-shop.berlin/dein-unternehmen/filmkunstbar-fitzcarraldo/,restaurant
Yumcha Heroes,Weinbergsweg 8,10119,Berlin,https://helfen-shop.berlin/dein-unternehmen/yumcha-heroes/,restaurant
Kristin Scholz Hair & Make Up,Saarbrückerstr. 6,10405,Berlin,https://helfen-shop.berlin/dein-unternehmen/kristin-scholz-hair-make-up/,restaurant
Der Schnapphahn in der Babinischen Republik,Dresdener Straße 14,10999,Berlin,https://helfen-shop.berlin/dein-unternehmen/der-schnapphahn-in-der-babinischen-republik/,restaurant
Offstoff,Grimmstr.20,10967,Berlin,https://helfen-shop.berlin/dein-unternehmen/offstoff/,restaurant
Honiggelb Berlin,Turmstrasse 10,10559,Berlin,https://helfen-shop.berlin/dein-unternehmen/honiggelb-berlin/,restaurant
AMODO,Linienstraße 150,10115,Berlin,https://helfen-shop.berlin/dein-unternehmen/amodo/,restaurant
RAUM Italic,Choriner Str.49,10435,Berlin,https://helfen-shop.berlin/dein-unternehmen/raum-italic/,restaurant
Beauty Moments,Knaackstraße 49,10435,Berlin,https://helfen-shop.berlin/dein-unternehmen/beauty-moments/,restaurant
Tirelli’s,Kreuzbergstrasse 29,10965,Berlin,https://helfen-shop.berlin/dein-unternehmen/tirellis/,restaurant
Muret la barba,Rosenthaler Str. 61,10119,Berlin,https://helfen-shop.berlin/dein-unternehmen/muret-la-barba/,restaurant
Nalani Supsurfing,Müggelseedamm 216,12587,Berlin,https://helfen-shop.berlin/dein-unternehmen/nalani-supsurfing/,restaurant
Baan Boonkum Thaimassage & Spa,Berliner Str. 102,13189,Berlin,https://helfen-shop.berlin/dein-unternehmen/baan-boonkum-thaimassage-spa/,restaurant
Café Villa Oppenheim,Schloßstr. 55,14059,Berlin,https://helfen-shop.berlin/dein-unternehmen/cafe-villa-oppenheim/,restaurant
Ristorante Rossosiena,Potsdamer Chaussee 15a,14163,Berlin,https://helfen-shop.berlin/dein-unternehmen/ristorante-rossosiena/,restaurant
bebop,Pfuelstr. 5,10997,Berlin,https://helfen-shop.berlin/dein-unternehmen/bebop/,restaurant
Kletterwald Wuhlheide,An der Wuhlheide 199,12459,Berlin,https://helfen-shop.berlin/dein-unternehmen/kletterwald-wuhlheide/,restaurant
Pth-nails,Berliner Allee 40,13088,Berlin,https://helfen-shop.berlin/dein-unternehmen/pth-nails/,restaurant
Henrys,Schöneberger Str. 11,12163,Berlin,https://helfen-shop.berlin/dein-unternehmen/henrys/,restaurant
Georgios Stylisten,Hohenzollerndamm 2,10717,Berlin,https://helfen-shop.berlin/dein-unternehmen/georgios-stylisten/,restaurant
Loretta an der Spree,Mildred-Harnack-Straße 11,10243,Berlin,https://helfen-shop.berlin/dein-unternehmen/loretta-an-der-spree/,restaurant
SYLD STORE BERLIN,Frankfurter Allee 32,10247,Berlin,https://helfen-shop.berlin/dein-unternehmen/syld-store-berlin/,restaurant
Blumentischlerei & Kuchentischlerei,Bremer Straße 41,10551,Berlin,https://helfen-shop.berlin/dein-unternehmen/blumentischler-kuchentischlerei/,restaurant
BurgerHouse,Reichenberger Strasse 174,10999,Berlin,https://helfen-shop.berlin/dein-unternehmen/burgerhouse/,restaurant
Der kleine Zirkusladen – Friedrichshain,Kopernikusstr. 10,10245,Berlin,https://helfen-shop.berlin/dein-unternehmen/der-kleine-zirkusladen-friedrichshain/,restaurant
HAARWERKSTATT – Simon-Dach-Str. 30,Simon-Dach-Str. 30,10245,Berlin,https://helfen-shop.berlin/dein-unternehmen/haarwerkstatt-simon-dach-str-30/,restaurant
HAARWERKSTATT – Alte Schönhauser Str. 42,Alte Schönhauser Str. 42,10119,Berlin,https://helfen-shop.berlin/dein-unternehmen/haarwerkstatt-alte-schoenhauser-str-42/,restaurant
HAARWERKSTATT – Friedrich-Ebert-Str. 27/28,Friedrich-Ebert-Str. 27/28,14467,Potsdam,https://helfen-shop.berlin/dein-unternehmen/haarwerkstatt-friedrich-ebert-str-27-28/,restaurant
HAARWERKSTATT – Stuttgarter Platz 1,Stuttgarter Platz 1,10627,Berlin,https://helfen-shop.berlin/dein-unternehmen/haarwerkstatt-stuttgarter-platz-1/,restaurant
HAARWERKSTATT – Meinekestr. 26,Meinekestr. 26,10719,Berlin,https://helfen-shop.berlin/dein-unternehmen/haarwerkstatt-meinekestr-26/,restaurant
HAARWERKSTATT – Akazienstr. 27,Akazienstr. 27,10823,Berlin,https://helfen-shop.berlin/dein-unternehmen/haarwerkstatt-akazienstr-27/,restaurant
Stammtisch,Weserstraße 159,12045,Berlin,https://helfen-shop.berlin/dein-unternehmen/stammtisch/,restaurant
Vineria Carvalho,Reichenberger Str. 54 Ecke Lausitzer Str.,10999,Berlin,https://helfen-shop.berlin/dein-unternehmen/vineria-carvalho/,restaurant
Cabana Coffee Roasters,Teltower Damm 42,14167,Berlin,https://helfen-shop.berlin/dein-unternehmen/cabana-coffee-roasters/,restaurant
JUNCTION BAR,Gneisenaustr.18,10961,Berlin,https://helfen-shop.berlin/dein-unternehmen/junction-bar/,restaurant
Café Uebereck,Lenbachstraße 8,10245,Berlin,https://helfen-shop.berlin/dein-unternehmen/cafe-uebereck/,restaurant
,,,,,restaurant
Schankwirtschaft Seeblick,Rykestr. 14,10405,Berlin,https://helfen-shop.berlin/dein-unternehmen/schankwirtschaft-seeblick/,restaurant
Crêperie SUZETTE,Pappelallee 15,10437,Berlin,https://helfen-shop.berlin/dein-unternehmen/creperie-suzette/,restaurant
Cafe bar Joseph,DÜRErpkatz 2,12157,Berlin,https://helfen-shop.berlin/dein-unternehmen/cafe-bar-joseph/,restaurant
Schweighofer’s,Weimarer Str. 12,10625,Berlin,https://helfen-shop.berlin/dein-unternehmen/schweighofers/,restaurant
DAS CLUBHAUS,Roedernstraße 16-18,13053,Berlin,https://helfen-shop.berlin/dein-unternehmen/das-clubhaus/,restaurant
Foxtrail Berlin Potsdam GmbH,Friedrichstr. 133,10117,Berlin,https://helfen-shop.berlin/dein-unternehmen/foxtrail-berlin-potsdam-gmbh/,restaurant
slow friday – fair fashion store,Gormannstraße 25,10119,Berlin,https://helfen-shop.berlin/dein-unternehmen/slow-friday-fair-fashion-store/,restaurant
Guerilliaz Raum für Gestaltung,Gneisenaustr 55,10961,Berlin,https://helfen-shop.berlin/dein-unternehmen/guerilliaz-raum-fuer-gestaltung/,restaurant
The End of Chases,Langhansstraße 93,13086,Berlin,https://helfen-shop.berlin/dein-unternehmen/the-end-of-chases/,restaurant
YADA YADA breakfast club,Köpenicker Str. 93,10179,Berlin,https://helfen-shop.berlin/dein-unternehmen/yada-yada-breakfast-club/,restaurant
Other Nature: alternativer Sexladen,Mehringdamm 79,10965,Berlin,https://helfen-shop.berlin/dein-unternehmen/other-nature-alternativer-sexladen/,restaurant
Hangmee Restaurant,Boxhagener Str.,10245,Berlin,https://helfen-shop.berlin/dein-unternehmen/hangmee-restaurant/,restaurant
Ye-MC,Moritzstraße 2,13597,Berlin,https://helfen-shop.berlin/dein-unternehmen/ye-mc/,restaurant
Berliner Büchertisch,Gneisenaustraße 7a,10961,Berlin,https://helfen-shop.berlin/dein-unternehmen/berliner-buechertisch/,restaurant
CrossFit Icke,"Wilhelm-Kabus-Straße 40, Haus 10",10829,Berlin,https://helfen-shop.berlin/dein-unternehmen/crossfit-icke/,restaurant
Marjellchen,Mommsenstraße 9,10629,Berlin,https://helfen-shop.berlin/dein-unternehmen/marjellchen/,restaurant
Kladower Hof,Sakrowerlandstr. 14-16,14089,Berlin,https://helfen-shop.berlin/dein-unternehmen/kladower-hof/,restaurant
Brauerei Friedrichshagen / Rathaus Events,Böschest. 87/88,12587,Berlin,https://helfen-shop.berlin/dein-unternehmen/brauerei-friedrichshagen-rathaus-events/,restaurant
Café Hom,Wildenbruchplatz 5,12045,Berlin,https://helfen-shop.berlin/dein-unternehmen/cafe/,restaurant
-LADEN 13- Bürobedarf und Schreibwaren,Straßmannstr. 13,10249,Berlin,https://helfen-shop.berlin/dein-unternehmen/laden-13-buerobedarf-und-schreibwaren/,restaurant
Zauberkönig,Herrfurthstr. 6a,12049,Berlin,https://helfen-shop.berlin/dein-unternehmen/zauberkoenig/,restaurant
LoveBurger 100%Vegan,Treptowerstr 90,12059,Berlin,https://helfen-shop.berlin/dein-unternehmen/loveburger-100vegan/,restaurant
kinderevents berlin,Scharnweberstraße 49,10247,Berlin,https://helfen-shop.berlin/dein-unternehmen/kinderevents-berlin/,restaurant
hutmanufaktur petra benz. berlin,Nassauische Str. 11-12,10717,Berlin,https://helfen-shop.berlin/dein-unternehmen/hutmanufaktur-petra-benz-berlin/,restaurant
La Cantina Berlin,Bleibtreustraße 17,10623,Berlin,https://helfen-shop.berlin/dein-unternehmen/la-cantina-berlin/,restaurant
Das Rote Kleid,Oderberger Straße 18,10435,Berlin,https://helfen-shop.berlin/dein-unternehmen/das-rote-kleid/,restaurant
Eismanufaktur Berlin,Auguststraße 63,10117,Berlin,https://helfen-shop.berlin/dein-unternehmen/eismanufaktur-berlin/,restaurant
BABOR Kosmetikstudio Stankovic,Bornstraße 24,12163,Berlin,https://helfen-shop.berlin/dein-unternehmen/babor-kosmetikstudio-stankovic/,restaurant
Marga Schoeller Bücherstube,Knesebeckstr. 33,10623,Berlin,https://helfen-shop.berlin/dein-unternehmen/marga-schoeller-buecherstube/,restaurant
"CAFE gestern, heute & morgen",Gaudystr.1,10437,Berlin,https://helfen-shop.berlin/dein-unternehmen/cafe-gestern-heute-morgen/,restaurant
"Korbinian Ludwig Heß, Maßschuhe",Hohenzollerndamm 201,10717,Berlin,https://helfen-shop.berlin/dein-unternehmen/korbinian-ludwig-hess-massschuhe/,restaurant
Pasticceria Mangiarte,Danziger Straße 23,10435,Berlin,https://helfen-shop.berlin/dein-unternehmen/pasticceria-mangiarte/,restaurant
Naturkosmetik Lotte,Prenzlauer Allee 40,10405,Berlin,https://helfen-shop.berlin/dein-unternehmen/naturkosmetik-lotte/,restaurant
Schuhtanten,Paul-Lincke-Ufer 44,10999,Berlin,https://helfen-shop.berlin/dein-unternehmen/schuhtanten/,restaurant
Gon 80 Restaurant,Eylauer str 16,10965,Berlin,https://helfen-shop.berlin/dein-unternehmen/gon-80-restaurant/,restaurant
SOMMERNEST,Winsstraße 16,10405,Berlin,https://helfen-shop.berlin/dein-unternehmen/sommernest/,restaurant
CILOLA – EXPERTS FOR LASHES & BROWS,Sredzkistr. 54,10405,Berlin,https://helfen-shop.berlin/dein-unternehmen/cilola-experts-for-lashes-brows/,restaurant
STODIECKs Buchhandlung und Bio-Wein,Richard-Wagner-Str. 39,10585,Berlin,https://helfen-shop.berlin/dein-unternehmen/stodiecks-buchhandlung-und-bio-wein/,restaurant
Rita in Palma,Kienitzer Straße 101,12049,Berlin,https://helfen-shop.berlin/dein-unternehmen/rita-in-palma/,restaurant
Pizzeria Solo Pizza,Danziger Straße 7,10435,Berlin,https://helfen-shop.berlin/dein-unternehmen/pizzeria-solo-pizza/,restaurant
Café Antoní Berlin,Grünstraße 10,12555,Berlin,https://helfen-shop.berlin/dein-unternehmen/cafe-antoni-berlin/,restaurant
Trentasei Cucina Italiana,Skalitzer Str. 34,10997,Berlin,https://helfen-shop.berlin/dein-unternehmen/trentasei-cucina-italiana/,restaurant
TS Burger,Carl-Schurz-Str. 61,13597,Berlin,https://helfen-shop.berlin/dein-unternehmen/ts-burger/,restaurant
Café Liebling,Raumerstraße 36a,10437,Berlin,https://helfen-shop.berlin/dein-unternehmen/cafe-liebling/,restaurant
FIFTY COCKTAIL HEROES,SREDZKISTR. 62,10405,Berlin,https://helfen-shop.berlin/dein-unternehmen/fifty-cocktail-heroes/,restaurant
Sunny Burrito,Buggestr. 6,12163,Berlin,https://helfen-shop.berlin/dein-unternehmen/sunny-burrito/,restaurant
Coffee Hamdt,Reuterstraße 78,12053,Berlin,https://helfen-shop.berlin/dein-unternehmen/coffee-hamdt/,restaurant
Kinderbauernhof Beaumont Farm,Freidorfer Str. 27,17219,Möllenhagen,https://helfen-shop.berlin/dein-unternehmen/kinderbauernhof-beaumont-farm/,restaurant
St. Michaels Restaurant,Bismarckallee 23,14193,Berlin,https://helfen-shop.berlin/dein-unternehmen/st-michaels-restaurant/,restaurant
EINSTEIN Unter den Linden,Unter den Linden 42,10117,Berlin,https://helfen-shop.berlin/dein-unternehmen/einstein-unter-den-linden/,restaurant
Why Not Cafe & Nails Spa,Pohlstraße 74,10785,Berlin,https://helfen-shop.berlin/dein-unternehmen/why-not-cafe-nails-spa/,restaurant
Aromas Cafe,Marienburger Strasse 26 A,10405,Berlin,https://helfen-shop.berlin/dein-unternehmen/aromas-cafe/,restaurant
Engels-Brunch,Mahlerstrasse 5,13088,Berlin,https://helfen-shop.berlin/dein-unternehmen/engels-brunch/,restaurant
Ausspanne,Kastanienallee 65,10119,Berlin,https://helfen-shop.berlin/dein-unternehmen/ausspanne/,restaurant
Hucklebuck & Finja Nordkinder,Dunckerstraße 22,10437,Berlin,https://helfen-shop.berlin/dein-unternehmen/hucklebuck-finja-nordkinder/,restaurant
Pot & Pepper – Feine Gewürze,Kieler Strasse 9,12163,Berlin,https://helfen-shop.berlin/dein-unternehmen/pot-pepper-feine-gewuerze/,restaurant
YogaCafé – Mindful Life,Gleimstraße 40,10437,Berlin,https://helfen-shop.berlin/dein-unternehmen/yogacafe-mindful-life/,restaurant
TURNHALLE,Reinhardtstraße. 27a,10117,Berlin,https://helfen-shop.berlin/dein-unternehmen/turnhalle/,restaurant
Kosmetikinstitut Julia,Schützenstraße 17a,12305,Berlin,https://helfen-shop.berlin/dein-unternehmen/kosmetikinstitut-julia/,restaurant
Die Schöne Party,Schönhauser Allee 36,10435,Berlin,https://helfen-shop.berlin/dein-unternehmen/die-schoene-party/,restaurant
Bs Aufs Messer Records,Marchlewski Strasse 107,10243,Berlin,https://helfen-shop.berlin/dein-unternehmen/bs-aufs-messer-records/,restaurant
Café zur Alten Zicke,Am Nußbaum 8,10178,Berlin,https://helfen-shop.berlin/dein-unternehmen/cafe-zur-alten-zicke/,restaurant
optiKing,Eberswalder Str. 34,10437,Berlin,https://helfen-shop.berlin/dein-unternehmen/optiking/,restaurant
Blumen Polz Hein,Müllerstrasse 95,13349,Berlin,https://helfen-shop.berlin/dein-unternehmen/blumen-polz-hein/,restaurant
Lija.Berlin,Fürbringerstraße 31,10961,Berlin,https://helfen-shop.berlin/dein-unternehmen/lija-berlin/,restaurant
1000stoff,Muskauer Str. 49,10997,Berlin,https://helfen-shop.berlin/dein-unternehmen/1000stoff/,restaurant
Restaurant Timeless,Kaiserin-Augusta-Allee 92,10589,Berlin,https://helfen-shop.berlin/dein-unternehmen/restaurant-timeless/,restaurant
Weilensee – Bilder & Rahmen,Bergmannstr. 9,10961,Berlin,https://helfen-shop.berlin/dein-unternehmen/weilensee-bilder-rahmen/,restaurant
Vetzgerei,Raumerstr. 36,10437,Berlin,https://helfen-shop.berlin/dein-unternehmen/vegane-metzgerei/,restaurant
Stef Fauser Design,Stargarder Straße 55,10437,Berlin,https://helfen-shop.berlin/dein-unternehmen/stef-fauser-design/,restaurant
Cafe Peoples,Buckower Damm 227,12349,Berlin,https://helfen-shop.berlin/dein-unternehmen/cafe-peoples/,restaurant
Mod Coffee Berlin,Brunnenstraße 193,10119,Berlin,https://helfen-shop.berlin/dein-unternehmen/mod-coffee-berlin/,restaurant
Passenger Coffee,Elsenstraße 38,12435,Berlin,https://helfen-shop.berlin/dein-unternehmen/passenger-coffee/,restaurant
Migi Würsch,Boxhagenerstrasse 14,10245,Berlin,https://helfen-shop.berlin/dein-unternehmen/migi-wuersch-2/,restaurant
Santokki,Pappelallee 82,10437,Berlin,https://helfen-shop.berlin/dein-unternehmen/santokki/,restaurant
Musicland,Klosterstrasse 12,13581,Berlin,https://helfen-shop.berlin/dein-unternehmen/musicland/,restaurant
Espresso-Ambulanz,Oranienburger Str.51,10117,Berlin,https://helfen-shop.berlin/dein-unternehmen/espresso-ambulanz/,restaurant
Polygon Club Berlin,Wiesenweg 1-4,10365,Berlin,https://helfen-shop.berlin/dein-unternehmen/polygon-club-berlin/,restaurant
Labyrinth Kindermuseum Berlin,Osloer Str. 12,13359,Berlin,https://helfen-shop.berlin/dein-unternehmen/labyrinth-kindermuseum-berlin/,restaurant
Nudelbude,Weichselstr. 64,12043,Berlin,https://helfen-shop.berlin/dein-unternehmen/nudelbude/,restaurant
Smart Beauty Academy,Nachtalbenweg 61,13088,Berlin,https://helfen-shop.berlin/dein-unternehmen/smart-beauty-academy/,restaurant
TATAS,Maybachufer 11,12047,Berlin,https://helfen-shop.berlin/dein-unternehmen/tatas/,restaurant
garden olson,Sonntagstraße 12,10245,Berlin,https://helfen-shop.berlin/dein-unternehmen/garden-olson/,restaurant
Stairs Bar,Uhlandstraße 133,10717,Berlin,https://helfen-shop.berlin/dein-unternehmen/stairs-bar/,restaurant
Restaurant Jules Verne,Schlüterstraße 61,10625,Berlin,https://helfen-shop.berlin/dein-unternehmen/restaurant-jules-verne/,restaurant
Amitie restaurant,Potsdamer Straße 151,10783,Berlin,https://helfen-shop.berlin/dein-unternehmen/amitie-restaurant/,restaurant
BARZEIT,Jungstr:29,10247,Berlin,https://helfen-shop.berlin/dein-unternehmen/barzeit/,restaurant
Babierhandwerk T. Gruteser (Franz&Friends),Ebertystraße 9,10249,Berlin,https://helfen-shop.berlin/dein-unternehmen/babierhandwerk-t-gruteser-franzfriends/,restaurant
Weltladen ZeichenDerZeit eG,Wörther Str. 28,10405,Berlin,https://helfen-shop.berlin/dein-unternehmen/weltladen-zeichenderzeit-eg/,restaurant
Heimathafen Neukölln,Karl-Marx-Straße 141,12167,Berlin,https://helfen-shop.berlin/dein-unternehmen/heimathafen-neukoelln/,restaurant
Pequod Books – International Second-Hand,Selchower Str. 33,12049,Berlin,https://helfen-shop.berlin/dein-unternehmen/pequod-books-international-second-hand/,restaurant
Elbfeeberlin – Beschwingtes Bekleidungsdesign,Rotkäppchenstraße 36,12555,Berlin,https://helfen-shop.berlin/dein-unternehmen/elbfeeberlin-beschwingtes-bekleidungsdesign/,restaurant
Bananas Berlin,Kastanienallee 40,10961,Berlin,https://helfen-shop.berlin/dein-unternehmen/bananas-berlin/,restaurant
Mobile Friseurmeisterin Nadja Kobela,Karl-Marx-Str.17,15537,Berlin,https://helfen-shop.berlin/dein-unternehmen/mobile-friseurmeisterin-nadja-kobela/,restaurant
CutCats Friseur,Adamstrasse 16,13595,Berlin,https://helfen-shop.berlin/dein-unternehmen/cutcats-friseur/,restaurant
ENGLERS RESTAURANT,Englerallee 42,14195,Berlin,https://helfen-shop.berlin/dein-unternehmen/englers-restaurant/,restaurant
auszeit,Hermann-Hesse-Straße 15,13156,Berlin,https://helfen-shop.berlin/dein-unternehmen/auszeit/,restaurant
Swadishta UG,Kurfürstenstrasse 131a,10785,Berlin,https://helfen-shop.berlin/dein-unternehmen/swadishta-ug/,restaurant
juggleHUB Coworking,Christburger Strasse 23,10405,Berlin,https://helfen-shop.berlin/dein-unternehmen/jugglehub-coworking/,restaurant
Eva-Lichtspiele  (Kino),Blissestrasse 18,10713,Berlin,https://helfen-shop.berlin/dein-unternehmen/eva-lichtspiele-kino/,restaurant
Café Schwesterherz,Kopenhagener Straße 22,10437,Berlin,https://helfen-shop.berlin/dein-unternehmen/cafe-schwesterherz/,restaurant
kokon kosmetik,Seumestrasse 25,10245,Berlin,https://helfen-shop.berlin/dein-unternehmen/kokon-kosmetik/,restaurant
"GM26 Café, Bar, Galerie",Gutsmuthsstr.26,12163,Berlin,https://helfen-shop.berlin/dein-unternehmen/gm26-cafe-bar-galerie/,restaurant
Fräulein Schneefeld & Herr Hund,Prenzlauer Allee 23,10405,Berlin,https://helfen-shop.berlin/dein-unternehmen/fraeulein-schneefeld-herr-hund/,restaurant
Lindners-Restaurant,Rheingaustr. 1,12161,Berlin,https://helfen-shop.berlin/dein-unternehmen/lindners-restaurant/,restaurant
Calcutta Restaurant,Bleibtreustr.17,10623,Berlin,https://helfen-shop.berlin/dein-unternehmen/calcutta-restaurant/,restaurant
AMPELMANN,Unter den Linden 35,10117,Berlin,https://helfen-shop.berlin/dein-unternehmen/ampelmann/,restaurant
Ganzkörperschuh,Bundesallee 87,12161,Berlin,https://helfen-shop.berlin/dein-unternehmen/ganzkoerperschuh/,restaurant
Café Eiskult Wedding,Fehmarnerstr.20,13353,Berlin,https://helfen-shop.berlin/dein-unternehmen/cafe-eiskult-wedding/,restaurant
Bölschelino   Kinderkleidung,Bölschestrasse 18,12587,Berlin,https://helfen-shop.berlin/dein-unternehmen/boelschelino-kinderkleidung/,restaurant
Beba,Niederkirchnerstrasse 7,10963,Berlin,https://helfen-shop.berlin/dein-unternehmen/beba/,restaurant
JallaJalla,Kopenhagenerstr.4,10437,Berlin,https://helfen-shop.berlin/dein-unternehmen/jallajalla/,restaurant
Coffee For Coffee,Frankfurter Allee 70,10247,Berlin,https://helfen-shop.berlin/dein-unternehmen/coffee-for-coffee/,restaurant
Café Médoc,Am Fuchsbau 33,14532,Berlin,https://helfen-shop.berlin/dein-unternehmen/cafe-medoc/,restaurant
"Salon Super Cut , Beate Lamprecht",Gotzkowskystrasse 18,10555,Berlin,https://helfen-shop.berlin/dein-unternehmen/salon-super-cut-beate-lamprecht/,restaurant
Salami Social Club,Frankfurter Allee 43,10247,Berlin,https://helfen-shop.berlin/dein-unternehmen/salami-social-club/,restaurant
Wohnzimmer,Paul-Lincke-Ufer 44,10999,Berlin,https://helfen-shop.berlin/dein-unternehmen/wohnzimmer/,restaurant
CHAPARRO Cocina Mexicana,Wiener Str. 14-A,10999,Berlin,https://helfen-shop.berlin/dein-unternehmen/chaparro-cocina-mexicana/,restaurant
Markasit,Florastr. 57b,13187,Berlin,https://helfen-shop.berlin/dein-unternehmen/markasit/,restaurant
uppers,Yorckstr.3,10965,Berlin,https://helfen-shop.berlin/dein-unternehmen/uppers/,restaurant
Kamm2cut,Pappelallee 4,10437,Berlin,https://helfen-shop.berlin/dein-unternehmen/kamm2cut/,restaurant
Fräulein Nimmersatt,Bergmannstrasse 95,10961,Berlin,https://helfen-shop.berlin/dein-unternehmen/fraeulein-nimmersatt/,restaurant
CHAPARRO,Wiener str 14-A,10999,Berlin,https://helfen-shop.berlin/dein-unternehmen/__trashed/,restaurant
By Adriana -Haarverlängerung-,Mehringdamm 45,10961,Berlin,https://helfen-shop.berlin/dein-unternehmen/by-adriana-haarverlaengerung/,restaurant
Miss Green Bean,Brandenburger Straße 34,14467,Berlin,https://helfen-shop.berlin/dein-unternehmen/miss-green-bean/,restaurant
La Santa Lucha,Alarichstr. 12-17,12105,Berlin,https://helfen-shop.berlin/dein-unternehmen/la-santa-lucha/,restaurant
Wertvoll,Marienburgerstr. 39,10405,Berlin,https://helfen-shop.berlin/dein-unternehmen/wertvoll/,restaurant
KLX – Koshary Lux,Grolmanstrasse 27,10623,Berlin,https://helfen-shop.berlin/dein-unternehmen/klx-koshary-lux/,restaurant
Pica Pica,Schliemannstr. 26,10437,Berlin,https://helfen-shop.berlin/dein-unternehmen/pica-pica/,restaurant
T2 Breakfast & Coffee,Litfaß-Platz 3,10178,Berlin,https://helfen-shop.berlin/dein-unternehmen/t2-breakfast-coffee/,restaurant
H2- Be Veggie,Möckernstraße 48,10963,Berlin,https://helfen-shop.berlin/dein-unternehmen/h2-be-veggie/,restaurant
Schokochino,Eberswalderstr.22,10437,Berlin,https://helfen-shop.berlin/dein-unternehmen/schokochino/,restaurant
Haarwerkstatt BLACK LABEL Berlin,Alte Schönhauser Str. 9,10119,Berlin,https://helfen-shop.berlin/dein-unternehmen/haarwerkstatt-black-label-berlin/,restaurant
HAARWERKSTATT – Nollendorfstr. 15,Nollendorfstr. 15,10777,Berlin,https://helfen-shop.berlin/dein-unternehmen/haarwerkstatt-gmbh/,restaurant
Stadtbad Oderberger,Oderberger Straße 57,10435,Berlin,https://helfen-shop.berlin/dein-unternehmen/stadtbad-oderberger/,restaurant
Unforgotten Books Buchhandlung,Proskauer Str. 5,10247,Berlin,https://helfen-shop.berlin/dein-unternehmen/unforgotten-books-buchhandlung/,restaurant
Goodies im Globetrotter,Schloßstr. 78-82,12165,Berlin,https://helfen-shop.berlin/dein-unternehmen/goodies-im-globetrotter/,restaurant
Little Green Rabbit,Jägerstrasse 27,10117,Berlin,https://helfen-shop.berlin/dein-unternehmen/little-green-rabbit/,restaurant
Reitschule Klein,Treskowallee 159,10318,Berlin,https://helfen-shop.berlin/dein-unternehmen/reitschule-klein/,restaurant
41Quarantuno Ristorante,Beckerstraße 12,12157,Berlin,https://helfen-shop.berlin/dein-unternehmen/41quarantuno-ristorante/,restaurant
Restaurant ALvis,Albrechtstraße 8,10117,Berlin,https://helfen-shop.berlin/dein-unternehmen/restaurant-alvis/,restaurant
Tuk Tuk indonesisches Restaurant,Großgörschenstrasse 2,10827,Berlin,https://helfen-shop.berlin/dein-unternehmen/tuk-tuk-indonesisches-restaurant/,restaurant
Tapiocaria Berlin,Samariterstraße 34A,10247,Berlin,https://helfen-shop.berlin/dein-unternehmen/tapiocaria-berlin/,restaurant
Jumino Kristrinanto Hair & Beauty,Thrasoltstr. 5,10585,Berlin,https://helfen-shop.berlin/dein-unternehmen/jumino-kristrinanto-hair-beauty/,restaurant
Rock n Roll Herberge,Muskauer Straße 11,10997,Berlin,https://helfen-shop.berlin/dein-unternehmen/rock-n-roll-herberge/,restaurant
Bikini Berlin Mayfair Hairfashions,Budapester Str. 38/50,10787,Berlin,https://helfen-shop.berlin/dein-unternehmen/bikini-berlin-mayfair-hairfashions/,restaurant
Vivi’s Bazaar,Joachim-Friedrich-Str.19,10711,Berlin,https://helfen-shop.berlin/dein-unternehmen/vivis-bazaar/,restaurant
Goodies Berlin,Akazienstr. 28,10823,Berlin,https://helfen-shop.berlin/dein-unternehmen/goodies-berlin/,restaurant
Kosmetikstudio Edler Wellness,Gardeschützenweg 90,12203,Berlin,https://helfen-shop.berlin/dein-unternehmen/kosmetikstudio-edler-wellness/,restaurant
Gaststätte G7,Gatower Straße 7,13595,Berlin,https://helfen-shop.berlin/dein-unternehmen/gaststaette-g7/,restaurant
ararat,bergmannstraße 99a,10961,Berlin,https://helfen-shop.berlin/dein-unternehmen/ararat/,restaurant
La Cantine d’Augusta,Langenscheidtstrasse 6/6a,10827,Berlin,https://helfen-shop.berlin/dein-unternehmen/la-cantine-daugusta/,restaurant
Zeit für mich Wellnesslounge,Rosenstr 04,12555,Berlin,https://helfen-shop.berlin/dein-unternehmen/zeit-fuer-mich-wellnesslounge/,restaurant
geh Veg,Triftstraße 37,13353,Berlin,https://helfen-shop.berlin/dein-unternehmen/geh-veg/,restaurant
Weinverein rote Insel,Leuthener Strasse 5,10829,Berlin,https://helfen-shop.berlin/dein-unternehmen/weinverein-rote-insel/,restaurant
Restaurant am Rosengarten,Albrechtstrasse.47,12167,Berlin,https://helfen-shop.berlin/dein-unternehmen/restaurant-am-rosengarten/,restaurant
Hoppla Charlotte,Alfredstraße 4,10365,Berlin,https://helfen-shop.berlin/dein-unternehmen/hoppla-charlotte/,restaurant
Barcomis,Bergmannstr. 21,10961,Berlin,https://helfen-shop.berlin/dein-unternehmen/barcomis/,restaurant
Mahlzeit Kreuzberg,Alexandrinenstr. 1a,10969,Berlin,https://helfen-shop.berlin/dein-unternehmen/mahlzeit-kreuzberg/,restaurant
Sanitätshaus – MotusVital GmbH,Streitstraße 13,13587,Berlin,https://helfen-shop.berlin/dein-unternehmen/sanitaetshaus-motusvital-gmbh/,restaurant
Trattoria i due Emigranti,Belziger Str. 38,10781,Berlin,https://helfen-shop.berlin/dein-unternehmen/trattoria-i-due-emigranti/,restaurant
Gartenhaus Café,Martin-Buber-Strasse 1,14163,Berlin,https://helfen-shop.berlin/dein-unternehmen/gartenhaus-cafe/,restaurant
SanHok,Hermannstr 222,12049,Berlin,https://helfen-shop.berlin/dein-unternehmen/sanhok/,restaurant
Salut Classic Bar,Goltzstraße 7,10781,Berlin,https://helfen-shop.berlin/dein-unternehmen/salut-classic-bar/,restaurant
Diamond-Beauty,Spandauer damm 103,14059,Berlin,https://helfen-shop.berlin/dein-unternehmen/diamond-beauty/,restaurant
Buschbeck´s  Restaurant,Trendelenburgstraße 14,14057,Berlin,https://helfen-shop.berlin/dein-unternehmen/buschbecks-restaurant/,restaurant
Saule Mode Berlin,Goltzstraße 48,10781,Berlin,https://helfen-shop.berlin/dein-unternehmen/saule-mode-berlin/,restaurant
Curious Fox Bookshop,Flughafenstr. 22,12053,Berlin,https://helfen-shop.berlin/dein-unternehmen/curious-fox-bookshop/,restaurant
Pure Princess,Crellestraße 12,10827,Berlin,https://helfen-shop.berlin/dein-unternehmen/pure-princess/,restaurant
Gokan,Leberstraße 9,10829,Berlin,https://helfen-shop.berlin/dein-unternehmen/gokan/,restaurant
Restaurant Oderberger,Oderberger Str. 57,10435,Berlin,https://helfen-shop.berlin/dein-unternehmen/restaurant-oderberger/,restaurant
Kleiner SchuhBladen,Seumestraße 12,10245,Berlin,https://helfen-shop.berlin/dein-unternehmen/kleiner-schuhbladen/,restaurant
Cosmetic Studio Blank,Stargarder Str. 74,10437,Berlin,https://helfen-shop.berlin/dein-unternehmen/cosmetic-studio-blank/,restaurant
YUNA,Oranienburger Str.22,10999,Berlin,https://helfen-shop.berlin/dein-unternehmen/yuna/,restaurant
Tanzschule Zielonka,Frankenholzer Weg 4,12683,Berlin,https://helfen-shop.berlin/dein-unternehmen/tanzschule-zielonka/,restaurant
Mattea,Frankenstraße 13,10781,Berlin,https://helfen-shop.berlin/dein-unternehmen/mattea/,restaurant
SchmuckGraefin,Körtestraße 20,10967,Berlin,https://helfen-shop.berlin/dein-unternehmen/schmuckgraefin/,restaurant
healthy glow I Airbrush I Tanning I Beauty,Kleine Hamburger Str. 3,10115,Berlin,https://helfen-shop.berlin/dein-unternehmen/healthy-glow-i-airbrush-i-tanning-i-beauty/,restaurant
BONA Kollektiv,Hermannstrasse 178,12051,Berlin,https://helfen-shop.berlin/dein-unternehmen/bona-kollektiv/,restaurant
Bonis Fahrrad,Hugo-Heimann-Straße 10,12353,Berlin,https://helfen-shop.berlin/dein-unternehmen/bonis-fahrrad/,restaurant
Wimpernfee Berlin,Simon-Dach-Str.31,10245,Berlin,https://helfen-shop.berlin/dein-unternehmen/wimpernfee-berlin/,restaurant
Sunnymoon Hair e. K.,Schildhornstrasse 12,12163,Berlin,https://helfen-shop.berlin/dein-unternehmen/sunnymoon-hair-e-k/,restaurant
Eli Eis Manufaktur,Carl-Schurtz-Str.35,13597,Berlin,https://helfen-shop.berlin/dein-unternehmen/eli-eis-manufaktur/,restaurant
Panama Hutgalerie,Goltzstraße 38,10781,Berlin,https://helfen-shop.berlin/dein-unternehmen/panama-hutgalerie/,restaurant
SenfSalon,Hagelberger Str. 46,10965,Berlin,https://helfen-shop.berlin/dein-unternehmen/senfsalon/,restaurant
Avocado Club,Holteistraße 13,10245,Berlin,https://helfen-shop.berlin/dein-unternehmen/avocado-club/,restaurant
Gaststätte Fair-Play,Florastrasse 3a,15370,Berlin,https://helfen-shop.berlin/dein-unternehmen/gaststaette-fair-play/,restaurant
The Goods,Goltzstrasse 13,10781,Berlin,https://helfen-shop.berlin/dein-unternehmen/the-goods/,restaurant
Foto Frohloff,Lankwitzer Str. 8,12209,Berlin,https://helfen-shop.berlin/dein-unternehmen/foto-frohloff/,restaurant
Yummy,Oranienburger str 84,10178,Berlin,https://helfen-shop.berlin/dein-unternehmen/yummy/,restaurant
Zur Glocke Restaurant,Mecklenburgische Straße 14,10713,Berlin,https://helfen-shop.berlin/dein-unternehmen/zur-glocke-restaurant/,restaurant
tempehhof,Winckelmannstr. 48,12487,Berlin,https://helfen-shop.berlin/dein-unternehmen/tempehhof/,restaurant
Café Miro,Uhlandstr 33,10719,Berlin,https://helfen-shop.berlin/dein-unternehmen/cafe-miro/,restaurant
cookies and cream,Kremmener Straße 8,10435,Berlin,https://helfen-shop.berlin/dein-unternehmen/cookies-and-cream/,restaurant
Zeroliq Bar,Boxhagener Str. 104,10245,Berlin,https://helfen-shop.berlin/dein-unternehmen/zeroliq-bar/,restaurant
Friseursalon Kaiserschnitt,Wühlischstr.34,10245,Berlin,https://helfen-shop.berlin/dein-unternehmen/friseursalon-kaiserschnitt/,restaurant
Thüringer Stuben,Stargarder Str 28,10437,Berlin,https://helfen-shop.berlin/dein-unternehmen/thueringer-stuben/,restaurant
UMI Gendai No Kaishaku,Müllerstr. 55A,13349,Berlin,https://helfen-shop.berlin/dein-unternehmen/umi-gendai-no-kaishaku/,restaurant
Villa Neukölln,Hermannstrasse 233,12049,Berlin,https://helfen-shop.berlin/dein-unternehmen/villa-neukoelln/,restaurant
Süßstoff,Kienitzer Str. 91,12049,Berlin,https://helfen-shop.berlin/dein-unternehmen/suessstoff/,restaurant
Enoiteca IL Calice,Walter-Benjamin-Platz 4,10629,Berlin,https://helfen-shop.berlin/dein-unternehmen/enoiteca-il-calice-2/,restaurant
Brille 54,Kurfürstendamm 50,10707,Berlin,https://helfen-shop.berlin/dein-unternehmen/brille-54/,restaurant
Schneiderei Haj,Westfälische Straße 50 A,10711,Berlin,https://helfen-shop.berlin/dein-unternehmen/schneiderei-haj/,restaurant
harmony living & fashion,Kopernikusstraße 12,10245,Berlin,https://helfen-shop.berlin/dein-unternehmen/harmony-living-fashion/,restaurant
Finnegan’s irish Pub Berlin,Bergstr 8,12169,Berlin,https://helfen-shop.berlin/dein-unternehmen/finnegans-irish-pub-berlin/,restaurant
Schlupfladen – Arminiusmarkthalle,Arminiusstrasse 2-4,10551,Berlin,https://helfen-shop.berlin/dein-unternehmen/schlupfladen-arminiusmarkthalle/,restaurant
KAFFEE 26,Jüdenstraße 26,13597,Berlin,https://helfen-shop.berlin/dein-unternehmen/kaffee-26/,restaurant
Da Jia Le China Restaurant,Goebenstraße 23,10783,Berlin,https://helfen-shop.berlin/dein-unternehmen/da-jia-le-china-restaurant/,restaurant
Sida Thai Restaurant,Aornstraße 32,6132,Berlin,https://helfen-shop.berlin/dein-unternehmen/sida-thai-restaurant/,restaurant
Tanzschule Schrittvermittlung,Grünberger Straße 44a,10245,Berlin,https://helfen-shop.berlin/dein-unternehmen/tanzschule-schrittvermittlung/,restaurant
Wetplate-Berlin,Am Tempelhofer Berg 6,10965,Berlin,https://helfen-shop.berlin/dein-unternehmen/wetplate-berlin/,restaurant
Tight Laced,Bornholmerstr. 4,10439,Berlin,https://helfen-shop.berlin/dein-unternehmen/tight-laced/,restaurant
Purzelbaum Second Hand und Cafe,Gutsmuthsstr. 20,12163,Berlin,https://helfen-shop.berlin/dein-unternehmen/purzelbaum-second-hand-und-cafe/,restaurant
Chuchichäschtli,Holsteinische Str. 19,10717,Berlin,https://helfen-shop.berlin/dein-unternehmen/chuchichaeschtli/,restaurant
Lisson Schuhmode,Hohenzollerdamm 94,14199,Berlin,https://helfen-shop.berlin/dein-unternehmen/lisson-schuhmode/,restaurant
SHIO,Weichselstrasse 59,12045,Berlin,https://helfen-shop.berlin/dein-unternehmen/shio/,restaurant
HEIDENPETERS,Eisenbahnstraße 42-43,10997,Berlin,https://helfen-shop.berlin/dein-unternehmen/heidenpeters/,restaurant
Madame Jordan,Pappelallee 44,10437,Berlin,https://helfen-shop.berlin/dein-unternehmen/madame-jordan/,restaurant
Spielzeugladen Löwenzahn,Ferdinandstraße 35,12209,Berlin,https://helfen-shop.berlin/dein-unternehmen/spielzeugladen-loewenzahn/,restaurant
Mundo Azul Books,Choriner Str. 49,10435,Berlin,https://helfen-shop.berlin/dein-unternehmen/mundo-azul-books/,restaurant
LIT Coffeebar & Bakery,Jagowstraße 23,10555,Berlin,https://helfen-shop.berlin/dein-unternehmen/lit-coffeebar-bakery/,restaurant
Harry Huth Friseure,Gärtnerstraße 3,10245,Berlin,https://helfen-shop.berlin/dein-unternehmen/harry-huth-friseure/,restaurant
Mucha Muchacha,Pflügerstr. 19,12047,Berlin,https://helfen-shop.berlin/dein-unternehmen/mucha-muchacha/,restaurant
Haarstudio Nicole Hauß,Waidmannsluster Damm 189,13469,Berlin,https://helfen-shop.berlin/dein-unternehmen/haarstudio-nicole-hauss/,restaurant
Bakaliko,Maaßenstraße 4,10777,Berlin,https://helfen-shop.berlin/dein-unternehmen/bakaliko/,restaurant
Birkenwunder und Café Wunder,Birkenstr. 32 und Jonasstr. 7,10551,Berlin,https://helfen-shop.berlin/dein-unternehmen/birkenwunder-und-cafe-wunder/,restaurant
Zen Shiatsu/Cristina Mas Blanch,Weichselstr 53,12045,Berlin,https://helfen-shop.berlin/dein-unternehmen/zen-shiatsu-cristina-mas-blanch/,restaurant
Café Velicious vegane Versuchung,Lenbachstraße 13 b,10245,Berlin,https://helfen-shop.berlin/dein-unternehmen/cafe-velicious-vegane-versuchung/,restaurant
Louis Alfons,Gerichtstraße 60,13347,Berlin,https://helfen-shop.berlin/dein-unternehmen/louis-alfons/,restaurant
Kebe LIVING,Lorenzstrasse 58,12209,Berlin,https://helfen-shop.berlin/dein-unternehmen/kebe-living/,restaurant
Café Neue Liebe,Rykestraße 42,10405,Berlin,https://helfen-shop.berlin/dein-unternehmen/cafe-neue-liebe/,restaurant
FRAU TONIS PARFUM,Zimmerstraße 13,10969,Berlin,https://helfen-shop.berlin/dein-unternehmen/frau-tonis-parfum/,restaurant
berles Trends and Gifts gmbh,Friedrichstraße 68,10117,Berlin,https://helfen-shop.berlin/dein-unternehmen/berles-trends-and-gifts-gmbh/,restaurant
Salumeria da Salvatore,Gardeschützenweg 142,12203,Berlin,https://helfen-shop.berlin/dein-unternehmen/salumeria-da-salvatore/,restaurant
Rises Delicacies,veteranen str 25,10119,Berlin,https://helfen-shop.berlin/dein-unternehmen/rises-delicacies/,restaurant
Mazooka Berlin,Kastanienallee 34,10435,Berlin,https://helfen-shop.berlin/dein-unternehmen/mazooka-berlin/,restaurant
Goldrichtig – interior und design,Großbeerenstrasse28c,10965,Berlin,https://helfen-shop.berlin/dein-unternehmen/goldrichtig-interior-und-design/,restaurant
Public-Image-Waxingstudio,Lenbachstraße 7a,10245,Berlin,https://helfen-shop.berlin/dein-unternehmen/public-image-waxingstudio/,restaurant
Die Buchkönigin,Hobrechtstr. 65,12047,Berlin,https://helfen-shop.berlin/dein-unternehmen/die-buchkoenigin/,restaurant
Banana Calling,Bouchéstraße 15,12435,Berlin,https://helfen-shop.berlin/dein-unternehmen/banana-calling/,restaurant
Schuhwerkstatt Adel,Schönwalder Str.80,13585,Berlin,https://helfen-shop.berlin/dein-unternehmen/schuhwerkstatt-adel/,restaurant
Kid Creole,Bölschestraße 10,12587,Berlin,https://helfen-shop.berlin/dein-unternehmen/kid-creole/,restaurant
Cafe Dodo,Dunckerstr. 12,10437,Berlin,https://helfen-shop.berlin/dein-unternehmen/cafe-dodo/,restaurant
Wellenwerk Berlin,Landsberger Allee 270,10367,Berlin,https://helfen-shop.berlin/dein-unternehmen/wellenwerk-berlin/,restaurant
B flat – acoustic music & Jazzclub,Dircksenstraße 40,10178,Berlin,https://helfen-shop.berlin/dein-unternehmen/b-flat-acoustic-music-jazzclub/,restaurant
Classic electric tattoing Berlin,Wexstr. 25,10715,Berlin,https://helfen-shop.berlin/dein-unternehmen/classic-electric-tattoing-berlin/,restaurant
VEIST,Selchower Straße 32,12049,Berlin,https://helfen-shop.berlin/dein-unternehmen/veist/,restaurant
Molting House,Landsberger Allee 61,10249,Berlin,https://helfen-shop.berlin/dein-unternehmen/molting-house/,restaurant
EXIT® Live Adventures,Klosterstraße 62,10179,Berlin,https://helfen-shop.berlin/dein-unternehmen/exit-live-adventures/,restaurant
Sprung.Raum Tempelhof,Malteserstr. 139-142,12277,Berlin,https://helfen-shop.berlin/dein-unternehmen/sprung-raum-tempelhof/,restaurant
Uhren&Schmuck B.Otto,Berliner Allee 38,13055,Berlin,https://helfen-shop.berlin/dein-unternehmen/uhrenschmuck-b-otto/,restaurant
The Bird,Am Falkplatz 5,10437,Berlin,https://helfen-shop.berlin/dein-unternehmen/the-bird/,restaurant
Bloona,Gärtnerstr. 12,10245,Berlin,https://helfen-shop.berlin/dein-unternehmen/bloona/,restaurant
Lausebengel,Grimmstraße 21,10967,Berlin,https://helfen-shop.berlin/dein-unternehmen/lausebengel/,restaurant
Glowy Beauty Bar,Winsstr. 59,10405,Berlin,https://helfen-shop.berlin/dein-unternehmen/glowy-beauty-bar/,restaurant
Flop Café,Otawi straße 11,13351,Berlin,https://helfen-shop.berlin/dein-unternehmen/flop-cafe/,restaurant
Strawbetty,Wühlischstr. 25,10245,Berlin,https://helfen-shop.berlin/dein-unternehmen/strawbetty/,restaurant
Umbras Kuriositätenkabinett,Graefestr. 18,10967,Berlin,https://helfen-shop.berlin/dein-unternehmen/umbras-kuriositaetenkabinett/,restaurant
b-ware!ladenkino,Gärtnerstr. 19,10245,Berlin,https://helfen-shop.berlin/dein-unternehmen/b-wareladenkino/,restaurant
Café Frau Schneider,Luisenstr. 13,10117,Berlin,https://helfen-shop.berlin/dein-unternehmen/cafe-frau-schneider/,restaurant
END. wine & more,Heidenfeldstr. 11,10249,Berlin,https://helfen-shop.berlin/dein-unternehmen/end-wine-more/,restaurant
Sotantar Yoga Shop,Schliemannstr 25a,10437,Berlin,https://helfen-shop.berlin/dein-unternehmen/sotantar-yoga-shop/,restaurant
Café La Mouche,Charlottenburger Ufer 1,10587,Berlin,https://helfen-shop.berlin/dein-unternehmen/cafe-la-mouche/,restaurant
SoulSkin,Damaschkestr. 4,10711,Berlin,https://helfen-shop.berlin/dein-unternehmen/soulskin/,restaurant
Myxa Café,Lenaustr. 22,12047,Berlin,https://helfen-shop.berlin/dein-unternehmen/myxa-cafe/,restaurant
DALUMA,Weinbergsweg 3,10119,Berlin,https://helfen-shop.berlin/dein-unternehmen/daluma/,restaurant
Hauptstadtrestaurant Gendarmerie,Behrenstraße 42,10117,Berlin,https://helfen-shop.berlin/dein-unternehmen/hauptstadtrestaurant-gendarmerie/,restaurant
Restaurant Fino,Prinz Friedrich Leopold Str. 1,14129,Berlin,https://helfen-shop.berlin/dein-unternehmen/restaurant-fino/,restaurant
lebensgefluester fotografie,Am Stadtforst 5,12557,Berlin,https://helfen-shop.berlin/dein-unternehmen/lebensgefluester-fotografie/,restaurant
Ushido,Lychener Str. 18,10437,Berlin,https://helfen-shop.berlin/dein-unternehmen/ushido/,restaurant
Weissbach GmbH,Hauptstraße 37,10827,Berlin,https://helfen-shop.berlin/dein-unternehmen/weissbach-gmbh/,restaurant
Drehmoment,Glasgowerstr. 29,13349,Berlin,https://helfen-shop.berlin/dein-unternehmen/drehmoment/,restaurant
Bernsteiners am Schlachtensee,Am Schlachtensee 1,14129,Berlin,https://helfen-shop.berlin/dein-unternehmen/bernsteiners-am-schlachtensee/,restaurant
RHS-BERLIN®,Blankenburger Straße 23,13089,Berlin,https://helfen-shop.berlin/dein-unternehmen/rhs-berlin/,restaurant
Tegernseer Tönnchen,Berliner Str. 118,10713,Berlin,https://helfen-shop.berlin/dein-unternehmen/tegernseer-toennchen/,restaurant
Restaurant Le saint amour,Maybachufer 2,12047,Berlin,https://helfen-shop.berlin/dein-unternehmen/restaurant-le-saint-amour/,restaurant
Cafe KRAFT,Schivelbeiner Str. 23,10439,Berlin,https://helfen-shop.berlin/dein-unternehmen/cafe-kraft/,restaurant
Q33 Store,Kurfürstendamm 33,10719,Berlin,https://helfen-shop.berlin/dein-unternehmen/q33-store/,restaurant
zuckerfrei-Kids Concept Store,Anzengruberstraße 12,12043,Berlin,https://helfen-shop.berlin/dein-unternehmen/zuckerfrei-kids-concept-store/,restaurant
Das Café in der Gartenakademie,Altensteinstr. 15 a,14195,Berlin,https://helfen-shop.berlin/dein-unternehmen/das-cafe-in-der-gartenakademie/,restaurant
Seoul Kwan,Schmiljanstraße 25,12161,Berlin,https://helfen-shop.berlin/dein-unternehmen/seoul-kwan/,restaurant
Tatem,Bleibtreustr. 12,10623,Berlin,https://helfen-shop.berlin/dein-unternehmen/tatem/,restaurant
BARETTINO,Reuterstr 59,12047,Berlin,https://helfen-shop.berlin/dein-unternehmen/barettino/,restaurant
Plant Base – Vegan Cafe & Workshops,Prenzlauer Allee 208,10405,Berlin,https://helfen-shop.berlin/dein-unternehmen/plant-base-vegan-cafe-workshops/,restaurant
Restaurant Spreeblick,Propststraße 9,10178,Berlin,https://helfen-shop.berlin/dein-unternehmen/spreeblick/,restaurant
Sbeauty Kosmetikinstitut,Müllerstraße 98,13349,Berlin,https://helfen-shop.berlin/dein-unternehmen/sbeauty-kosmetikinstitut/,restaurant
EAST SAUNA wellness & sports,Gotlindestr. 49,10365,Berlin,https://helfen-shop.berlin/dein-unternehmen/east-sauna-wellness-sports/,restaurant
AYAN filipino streetfood,Potsdamer Straße 69,10785,Berlin,https://helfen-shop.berlin/dein-unternehmen/ayan-filipino-streetfood/,restaurant
Hochseilgarten MountMitte,Caroline-Michaelis-Straße 8-11,10115,Berlin,https://helfen-shop.berlin/dein-unternehmen/hochseilgarten-mountmitte/,restaurant
Landhaus Pankow,Mühlenstr.30,13187,Berlin,https://helfen-shop.berlin/dein-unternehmen/landhaus-pankow/,restaurant
KUNSTSCHULE,Hufelandstr. 13,10407,Berlin,https://helfen-shop.berlin/dein-unternehmen/kunstschule/,restaurant
Chay Village Schöneberg,Eisenacher Str. 40,10781,Berlin,https://helfen-shop.berlin/dein-unternehmen/chay-village-schoeneberg/,restaurant
Šljiva,Arminiusstraße 2-4,10551,Berlin,https://helfen-shop.berlin/dein-unternehmen/sljiva/,restaurant
Catering aus Leidenschaft,Rennbahnstr. 3 – 4,13086,Berlin,https://helfen-shop.berlin/dein-unternehmen/catering-aus-leidenschaft/,restaurant
IL KINO,Nansenstraße 22,12047,Berlin,https://helfen-shop.berlin/dein-unternehmen/il-kino/,restaurant
Hot pot Soup,Friesenstraße 6,10965,Berlin,https://helfen-shop.berlin/dein-unternehmen/hot-pot-soup/,restaurant
myol & freunde,Danneckerstrasse 10,10245,Berlin,https://helfen-shop.berlin/dein-unternehmen/myol-freunde/,restaurant
weing`schäft,Bergmannstraße 16,10961,Berlin,https://helfen-shop.berlin/dein-unternehmen/weingschaeft/,restaurant
SEASON Berlin,Almstadtstr. 43,10119,Berlin,https://helfen-shop.berlin/dein-unternehmen/season-berlin/,restaurant
Jannette Kneisel Photography,Lehderstraße 74-79,13086,Berlin,https://helfen-shop.berlin/dein-unternehmen/jannette-kneisel-photography/,restaurant
Sohnemann,Niederbarnimstraße 23,10247,Berlin,https://helfen-shop.berlin/dein-unternehmen/sohnemann/,restaurant
Restaurant Jolesch,Muskauer Str. 1,10997,Berlin,https://helfen-shop.berlin/dein-unternehmen/restaurant-jolesch/,restaurant
Salzperle,Meyerbeerstraße 111,13088,Berlin,https://helfen-shop.berlin/dein-unternehmen/salzperle/,restaurant
Trinkteufel,Naunynstraße 60,10997,Berlin,https://helfen-shop.berlin/dein-unternehmen/trinkteufel/,restaurant
Sauna Plötzensee / sWeadding65,Nordufer 26,13361,Berlin,https://helfen-shop.berlin/dein-unternehmen/sauna-ploetzensee-sweadding65/,restaurant
HYGGE INTERIØR,Grolmanstrasse 44,10623,Berlin,https://helfen-shop.berlin/dein-unternehmen/hygge-interior/,restaurant
wabisabi,Wühlischstraße 27,10245,Berlin,https://helfen-shop.berlin/dein-unternehmen/wabisabi/,restaurant
Strychnin Boutique,Kopernikusstraße 15,10245,Berlin,https://helfen-shop.berlin/dein-unternehmen/strychnin-boutique/,restaurant
The Coffee Ape,Hermannplatz,12043,Berlin,https://helfen-shop.berlin/dein-unternehmen/the-coffee-ape/,restaurant
Chay Village Friedrichshain,Niederbarnimstraße 10,10249,Berlin,https://helfen-shop.berlin/dein-unternehmen/chay-village-friedrichshain/,restaurant
K.W.D. | Objekt und Produkt,Libauer Str. 1,10245,Berlin,https://helfen-shop.berlin/dein-unternehmen/k-w-d-objekt-und-produkt/,restaurant
Dzaino Upcycling Studio,Heinrich-Heine-Straße 36,10179,Berlin,https://helfen-shop.berlin/dein-unternehmen/dzaino-upcycling-studio/,restaurant
BrewDog DogTap Berlin,Im Marienpark 23,12107,Berlin,https://helfen-shop.berlin/dein-unternehmen/brewdog-dogtap-berlin/,restaurant
EGA Schuhmode und mehr…,Marktstraße 1,13597,Berlin,https://helfen-shop.berlin/dein-unternehmen/ega-schuhmode-und-mehr/,restaurant
Libelle Buchhandlung,Karl-Kunger-Straße 63,12435,Berlin,https://helfen-shop.berlin/dein-unternehmen/libelle-buchhandlung/,restaurant
Holz & Farbe,Prinzenallee 58,13359,Berlin,https://helfen-shop.berlin/dein-unternehmen/holz-farbe/,restaurant
Rock’nRoll Stucco,Eichendorffstr. 18,10115,Berlin,https://helfen-shop.berlin/dein-unternehmen/rocknroll-stucco/,restaurant
Indat GmbH,Brandenburgische Str. 37,10707,Berlin,https://helfen-shop.berlin/dein-unternehmen/indat-gmbh/,restaurant
Cafe Friedas Glück,Lindenallee 55,13088,Berlin,https://helfen-shop.berlin/dein-unternehmen/cafe-friedas-glueck/,restaurant
Prime Time Theater,Müllerstraße 163,13353,Berlin,https://helfen-shop.berlin/dein-unternehmen/prime-time-theater/,restaurant
ah&oh Boutiquecafé,Friedrich-Ebert-Straße 93,14467,Berlin,https://helfen-shop.berlin/dein-unternehmen/ahoh-boutiquecafe/,restaurant
Galerie Silberstein,Kollwitzstraße 92,10435,Berlin,https://helfen-shop.berlin/dein-unternehmen/galerie-silberstein/,restaurant
Barrel Weinbar Berlin,Petersburger Pl. 1,10249,Berlin,https://helfen-shop.berlin/dein-unternehmen/barrel-weinbar-berlin/,restaurant
Restaurant Salt‘n‘Sugar,Breitehornweg 36,14089,Berlin,https://helfen-shop.berlin/dein-unternehmen/restaurant-saltnsugar/,restaurant
Regenbogenfabrik,Lausitzer Str. 22,10999,Berlin,https://helfen-shop.berlin/dein-unternehmen/regenbogenfabrik/,restaurant
Gallery of Steel Figures Berlin,Unter den Linden 14,10117,Berlin,https://helfen-shop.berlin/dein-unternehmen/gallery-of-steel-figures-berlin/,restaurant
Eismieze Berlin,Schlegelstraße 21,10115,Berlin,https://helfen-shop.berlin/dein-unternehmen/eismieze-berlin/,restaurant
Mephisto Coffee&Kitchen,Graefestraße 10,10967,Berlin,https://helfen-shop.berlin/dein-unternehmen/mephisto-coffeekitchen/,restaurant
Franz & Josef Schallplatten,Kastanienallee 48,10119,Berlin,https://helfen-shop.berlin/dein-unternehmen/franz-josef-schallplatten/,restaurant
LIEL BOUTIQUE,Pariser Str. 47,10719,Berlin,https://helfen-shop.berlin/dein-unternehmen/liel-boutique/,restaurant
eisspatz,Schönstraße 1,13086,Berlin,https://helfen-shop.berlin/dein-unternehmen/eisspatz/,restaurant
CakesBerlin,Tempelhofer Ufer 16,10963,Berlin,https://helfen-shop.berlin/dein-unternehmen/cakesberlin/,restaurant
Kushinoya,Bleibtreustraße 6,10623,Berlin,https://helfen-shop.berlin/dein-unternehmen/kushinoya/,restaurant
Clubrestaurant am Wannsee im MYCvD,Scabellstraße 10-11,14109,Berlin,https://helfen-shop.berlin/dein-unternehmen/clubrestaurant-am-wannsee-im-mycvd/,restaurant
Casino der VWG zur dicken Knolle,Havelochaussee 115,14055,Berlin,https://helfen-shop.berlin/dein-unternehmen/casino-der-vwg-zur-dicken-knolle/,restaurant
Ristorante & VinoBar CaliBocca,Schlüterstraße 30,10629,Berlin,https://helfen-shop.berlin/dein-unternehmen/ristorante-vinobar-calibocca/,restaurant
Wildnisschule Walk on the Wildside,Heidenfeldstraße 9,10249,Berlin,https://helfen-shop.berlin/dein-unternehmen/wildnisschule-walk-on-the-wildside/,restaurant
Café Kastanientörtchen,Kastanienallee 60,10119,Berlin,https://helfen-shop.berlin/dein-unternehmen/cafe-kastanientoertchen/,restaurant
Big Brobot,Kopernikusstraße 19,10245,Berlin,https://helfen-shop.berlin/dein-unternehmen/big-brobot/,restaurant
SteinReich,Akazienstraße 6,10823,Berlin,https://helfen-shop.berlin/dein-unternehmen/steinreich/,restaurant
Ankleidezimmer,Simplonstraße 6,10245,Berlin,https://helfen-shop.berlin/dein-unternehmen/ankleidezimmer/,restaurant
Cafe Behring,Behringstraße 6,12437,Berlin,https://helfen-shop.berlin/dein-unternehmen/cafe-behring/,restaurant
I golosi briganti,Falckensteinstraße 33,10997,Berlin,https://helfen-shop.berlin/dein-unternehmen/i-golosi-briganti/,restaurant
Shiatsu Praxis im Komponistenviertel,Smetanastraße 20,13088,Berlin,https://helfen-shop.berlin/dein-unternehmen/shiatsu-praxis-im-komponistenviertel/,restaurant
Wolf Kino,Weserstr. 59,12045,Berlin,https://helfen-shop.berlin/dein-unternehmen/wolf-kino/,restaurant
Piekfein Berlin,Kulturbrauerei Berlin,,Berlin,https://helfen-shop.berlin/dein-unternehmen/piekfein-berlin/,restaurant
Schwabylon,Pannierstraße 9,12047,Berlin,https://helfen-shop.berlin/dein-unternehmen/schwabylon/,restaurant
Microlan,Koburger Str. 16,10825,Berlin,https://helfen-shop.berlin/dein-unternehmen/microlan/,restaurant
Ihr Friseur Belinda Schmidt,Eosanderstraße 16,10587,Berlin,https://helfen-shop.berlin/dein-unternehmen/ihr-friseur-belinda-schmidt/,restaurant
SNUGATA organic kidswear,Bänschstraße 34,10247,Berlin,https://helfen-shop.berlin/dein-unternehmen/snugata-organic-kidswear/,restaurant
Der kleine Zirkusladen – Charlottenburg,Schillerstr. 70,10627,Berlin,https://helfen-shop.berlin/dein-unternehmen/der-kleine-zirkusladen/,restaurant
Vintage Berlin,Karl-Kunger-Str. 54,12435,Berlin,https://helfen-shop.berlin/dein-unternehmen/vintage-berlin/,restaurant
City Jeans by Hans,Meinekestraße 25,10719,Berlin,https://helfen-shop.berlin/dein-unternehmen/city-jeans-by-hans/,restaurant
bokx.,Schreinerstraße 21,10247,Berlin,https://helfen-shop.berlin/dein-unternehmen/bokx/,restaurant
Honigundsenf Burgergrillhaus,Huttenstraße 68,10553,Berlin,https://helfen-shop.berlin/dein-unternehmen/honigundsenf-burgergrillhaus/,restaurant
Kaduka Berlin,Weserstr. 207,12047,Berlin,https://helfen-shop.berlin/dein-unternehmen/kaduka-berlin/,restaurant
Shoeting Berlin,Goltzstraße 1,10781,Berlin,https://helfen-shop.berlin/dein-unternehmen/shoeting-berlin/,restaurant
Saporito,Straßmannstraße 21,10249,Berlin,https://helfen-shop.berlin/dein-unternehmen/saporito/,restaurant
Mugi Kosmetik,Weserstraße 18,10247,Berlin,https://helfen-shop.berlin/dein-unternehmen/mugi-kosmetik/,restaurant
Lecoiffeurbarik,Wilmersdorfer Straße 133,10627,Berlin,https://helfen-shop.berlin/dein-unternehmen/lecoiffeurbarik/,restaurant
POMODORINO,Straßmannstraße 21,10249,Berlin,https://helfen-shop.berlin/dein-unternehmen/pomodorino/,restaurant
Soy Restaurant,Rosa-Luxemburg-Straße 30,10178,Berlin,https://helfen-shop.berlin/dein-unternehmen/soy-restaurant/,restaurant
Yogi Haus,Belziger Str. 42,10823,Berlin,https://helfen-shop.berlin/dein-unternehmen/yogi-haus/,restaurant
KvartiraN62,Lübbener Str. 18,10997,Berlin,https://helfen-shop.berlin/dein-unternehmen/kvartiran62/,restaurant
Cuore di Vetro,Max-Beer-Straße 33,10119,Berlin,https://helfen-shop.berlin/dein-unternehmen/cuore-di-vetro/,restaurant
Chocolaterie Estrellas,Akazienstraße 21,10823,Berlin,https://helfen-shop.berlin/dein-unternehmen/chocolaterie-estrellas/,restaurant
espressolounge,Mehringdamm 67,10961,Berlin,https://helfen-shop.berlin/dein-unternehmen/espressolounge/,restaurant
Cafebar Los Angelitos,Fidicinstraße 44,10965,Berlin,https://helfen-shop.berlin/dein-unternehmen/cafebar-los-angelitos/,restaurant
Felix Austria,Bergmannstraße 26,10961,Berlin,https://helfen-shop.berlin/dein-unternehmen/felix-austria/,restaurant
Poké Pelelina GmbH,Graefestr. 75,10967,Berlin,https://helfen-shop.berlin/dein-unternehmen/poke-pelelina-gmbh/,restaurant
no milk today,Fichtestraße 3,10967,Berlin,https://helfen-shop.berlin/dein-unternehmen/no-milk-today/,restaurant
Vinpearl,Raumerstraße 14a,10437,Berlin,https://helfen-shop.berlin/dein-unternehmen/vinpearl/,restaurant
Don Quijote,Bleibtreustraße 41,10623,Berlin,https://helfen-shop.berlin/dein-unternehmen/don-quijote/,restaurant
Le Brot,Fuldastraße 54,12043,Berlin,https://helfen-shop.berlin/dein-unternehmen/le-brot/,restaurant
Jammin-Photostudio & Gallery,Alt-Köpenick 18,12555,Berlin,https://helfen-shop.berlin/dein-unternehmen/jammin-photostudio-gallery/,restaurant
Macondo Cafebar,Gärtnerstraße 14,10245,Berlin,https://helfen-shop.berlin/dein-unternehmen/macondo-cafebar/,restaurant
Café Napoljonska,Kastanienallee 43,10119,Berlin,https://helfen-shop.berlin/dein-unternehmen/cafe-napoljonska/,restaurant
Polly Paper – Umweltfreundliche Schreibwaren,Gipsstraße 23B,10119,Berlin,https://helfen-shop.berlin/dein-unternehmen/polly-paper-umweltfreundliche-schreibwaren/,restaurant
Smunk am Kreuzberg,Kreuzbergstraße 15,10965,Berlin,https://helfen-shop.berlin/dein-unternehmen/smunk-am-kreuzberg/,restaurant
Salon Hairlich,Gleditschstraße 38,10781,Berlin,https://helfen-shop.berlin/dein-unternehmen/salon-hairlich/,restaurant
,,,,,restaurant
Kleinod Salon,Choriner Straße 34,10435,Berlin,https://helfen-shop.berlin/dein-unternehmen/kleinod-salon/,restaurant
Feray’s Beauty Bar by Ferayhennadesign,Brachvogelstraße 1,10961,Berlin,https://helfen-shop.berlin/dein-unternehmen/ferays-beauty-bar-by-ferayhennadesign/,restaurant
Coiffeur Yvonne,Am Krusenick 47,12555,Berlin,https://helfen-shop.berlin/dein-unternehmen/coiffeur-yvonne/,restaurant
café tschüsch – alternative indian futurefood,Fuldastraße 12,12045,Berlin,https://helfen-shop.berlin/dein-unternehmen/cafe-tschuesch-alternative-indian-futurefood/,restaurant
Tempobox,Simon-Dach-Straße 15-16,10245,Berlin,https://helfen-shop.berlin/dein-unternehmen/tempobox/,restaurant
Fräulein Sonntag,Nostitzstraße 36,10961,Berlin,https://helfen-shop.berlin/dein-unternehmen/fraeulein-sonntag/,restaurant
Vivobarefoot Concept Store Berlin – Kübler/Westphal GbR,Brunnenstraße 3,10119,Berlin,https://helfen-shop.berlin/dein-unternehmen/vivobarefoot-concept-store-berlin-kuebler-westphal-gbr/,restaurant
LAMIFA restaurant BERLIN,Storkower Str. 123,10407,Berlin,https://helfen-shop.berlin/dein-unternehmen/lamifa-restaurant-berlin/,restaurant
Landleben Potsdam,Seepromenade 99,14476,Potsdam,https://helfen-shop.berlin/dein-unternehmen/landleben-potsdam/,restaurant
Familiencafé Zaunkönig,Lüderitzstraße 14,13351,Berlin,https://helfen-shop.berlin/dein-unternehmen/familiencafe-zaunkoenig/,restaurant
Glory Duck,Sonntagstraße 31,10245,Berlin,https://helfen-shop.berlin/dein-unternehmen/glory-duck/,restaurant
THE GIN ROOM,Pariser Str. 38,10707,Berlin,https://helfen-shop.berlin/dein-unternehmen/the-gin-room/,restaurant
Zur Mieze – Katzenmusikcafé,Wilmersdorfer Str. 158,10585,Berlin,https://helfen-shop.berlin/dein-unternehmen/zur-mieze-katzenmusikcafe/,restaurant
Atelier Koki van Trotten – Malerei & Malkurse,Kalkseestraße 17,12587,Berlin,https://helfen-shop.berlin/dein-unternehmen/atelier-koki-van-trotten-malerei-malkurse/,restaurant
Ristorante Tre,Giesebrechtstraße 3,10629,Berlin,https://helfen-shop.berlin/dein-unternehmen/ristorante-tre/,restaurant
Offensichtlich – Ihr Augenoptiker,Jägerstraße 63C,10117,Berlin,https://helfen-shop.berlin/dein-unternehmen/offensichtlich-ihr-augenoptiker/,restaurant
Koku Secondhand Store,Schillerpromenade 1,12049,Berlin,https://helfen-shop.berlin/dein-unternehmen/koku-secondhand-store/,restaurant
VITADERMA Berlin,Am Zirkus 5,10117,Berlin,https://helfen-shop.berlin/dein-unternehmen/vitaderma-berlin/,restaurant
Pizzaria vira,Warschauer Str. 66,10243,Berlin,https://helfen-shop.berlin/dein-unternehmen/pizzaria-vira/,restaurant
La Muse Gueule,Sredzkistraße 14,10435,Berlin,https://helfen-shop.berlin/dein-unternehmen/la-muse-gueule/,restaurant
TRISPARI Maßatelier,Westfälische Str. 72,10709,Berlin,https://helfen-shop.berlin/dein-unternehmen/trispari-massatelier/,restaurant
Gegenüber,Straßmannstraße 31,10249,Berlin,https://helfen-shop.berlin/dein-unternehmen/gegenueber/,restaurant
Tú También Sprachschule,Sredzkistraße 41,10435,Berlin,https://helfen-shop.berlin/dein-unternehmen/tu-tambien-sprachschule/,restaurant
Loppis Vintage Laden,Weserstr. 167,12045,Berlin,https://helfen-shop.berlin/dein-unternehmen/loppis-vintage-laden/,restaurant
Morgenstern – Antiquariat und Café,Schützenstraße 54,12165,Berlin,https://helfen-shop.berlin/dein-unternehmen/morgenstern-antiquariat-und-cafe/,restaurant
Savo Bar Cafe,Weisestraße 35,12049,Berlin,https://helfen-shop.berlin/dein-unternehmen/savo-bar-cafe/,restaurant
Café Tasso – Das andere Antiquariat,Frankfurter Allee 11,10247,Berlin,https://helfen-shop.berlin/dein-unternehmen/cafe-tasso-das-andere-antiquariat/,restaurant
Glückscafe Berlin,Chausseestraße 48a,10115,Berlin,https://helfen-shop.berlin/dein-unternehmen/glueckscafe-berlin/,restaurant
Bonvivant Cocktail Bistro,Goltzstraße 32,10781,Berlin,https://helfen-shop.berlin/dein-unternehmen/bonvivant-cocktail-bistro/,restaurant
Meloparc UG (haftungsbeschränkt),Str. 9 Nr. 21,12309,Berlin,https://helfen-shop.berlin/dein-unternehmen/meloparc-ug-haftungsbeschraenkt/,restaurant
MADLEN WOYWOD hair soul beauty,Straßmannstraße 3,10249,Berlin,https://helfen-shop.berlin/dein-unternehmen/madlen-woywod-hair-soul-beauty/,restaurant
Pankebuch – Die schönsten Bücher des Nordens,Wilhelm-Kuhr-Straße 5,13187,Berlin,https://helfen-shop.berlin/dein-unternehmen/pankebuch-die-schoensten-buecher-des-nordens/,restaurant
Ann Lisson,Kösener Str. 7,14199,Berlin,https://helfen-shop.berlin/dein-unternehmen/ann-lisson/,restaurant
Slacks Fashion,Mehringdamm 75,10965,Berlin,https://helfen-shop.berlin/dein-unternehmen/slacks-fashion/,restaurant
Klötze und Schinken,Bürknerstraße 12,12047,Berlin,https://helfen-shop.berlin/dein-unternehmen/kloetze-und-schinken/,restaurant
By Mervearslan,Pichelsdorfer Str. 39,13595,Berlin,https://helfen-shop.berlin/dein-unternehmen/by-mervearslan/,restaurant
Mo‘s Coffee,Stargarder Str. 45,10437,Berlin,https://helfen-shop.berlin/dein-unternehmen/mos-coffee/,restaurant
MARACAY COFFEE,Stresemannstraße 72,10963,Berlin,https://helfen-shop.berlin/dein-unternehmen/maracay-coffee/,restaurant
InterKontinental,Sonntagstraße 26,10245,Berlin,https://helfen-shop.berlin/dein-unternehmen/interkontinental/,restaurant
Ilka Fiedler – Modedesign,Kaiser-Friedrich-Straße 1,10585,Berlin,https://helfen-shop.berlin/dein-unternehmen/ilka-fiedler-modedesign/,restaurant
wild caffè,Südwestkorso 63,12161,Berlin,https://helfen-shop.berlin/dein-unternehmen/wild-caffe/,restaurant
mjot,Friesenstraße 5,10965,Berlin,https://helfen-shop.berlin/dein-unternehmen/mjot/,restaurant
Café Dritter Raum,Hertzbergstraße 14,12055,Berlin,https://helfen-shop.berlin/dein-unternehmen/cafe-dritter-raum/,restaurant
Pee Pees Katzencafe,Thomasstraße 53,12053,Berlin,https://helfen-shop.berlin/dein-unternehmen/pee-pees-katzencafe/,restaurant
Espressomania,Kaiserdamm 15,14057,Berlin,https://helfen-shop.berlin/dein-unternehmen/espressomania/,restaurant
tuesday coworking,Belziger Strasse 69/71,10823,Berlin,https://helfen-shop.berlin/dein-unternehmen/tuesday-coworking/,restaurant
Il Pizzaiolo,Schlesische Str. 28,10997,Berlin,https://helfen-shop.berlin/dein-unternehmen/il-pizzaiolo/,restaurant
stereoki,Gabriel-Max-Straße 18,10245,Berlin,https://helfen-shop.berlin/dein-unternehmen/stereoki/,restaurant
we love coffee,Potsdamer Straße 4,10785,Berlin,https://helfen-shop.berlin/dein-unternehmen/we-love-coffee/,restaurant
Loops,Wörther Str. 19,10405,Berlin,https://helfen-shop.berlin/dein-unternehmen/loops/,restaurant
Teehaus im Englischen Garten,Altonaer Str. 2,10557,Berlin,https://helfen-shop.berlin/dein-unternehmen/teehaus-im-englischen-garten/,restaurant
Café Trinkaus,Roseggerstraße 43,12043,Berlin,https://helfen-shop.berlin/dein-unternehmen/cafe-trinkaus/,restaurant
Kantine Kohlmann,Skalitzer Str. 64,10997,Berlin,https://helfen-shop.berlin/dein-unternehmen/kantine-kohlmann/,restaurant
21 gramm,Hermannstraße 179,12049,Berlin,https://helfen-shop.berlin/dein-unternehmen/21-gramm/,restaurant
Nähmaschinenzentrum Berlin-Charlottenburg,Wilmersdorfer Str. 130,10627,Berlin,https://helfen-shop.berlin/dein-unternehmen/naehmaschinenzentrum-berlin-charlottenburg/,restaurant
Hally Gally Sky Sportsbar/ Kiezkneipe,Hufelandstraße 38,10407,Berlin,https://helfen-shop.berlin/dein-unternehmen/hally-gally-sky-sportsbar-kiezkneipe/,restaurant
CamillaFleurBeauty,Cauerstraße 22,10587,Berlin,https://helfen-shop.berlin/dein-unternehmen/camillafleurbeauty/,restaurant
Style Stallone Sandwichbar,Reuterstraße 57,12047,Berlin,https://helfen-shop.berlin/dein-unternehmen/style-stallone-sandwichbar/,restaurant
Doris Imhoff Schmuck,Akazienstraße 26,10823,Berlin,https://helfen-shop.berlin/dein-unternehmen/doris-imhoff-schmuck/,restaurant
NailXpress Nagelstudio,Osnabrücker Str. 4,10589,Berlin,https://helfen-shop.berlin/dein-unternehmen/nailxpress-nagelstudio/,restaurant
Letaderm Praxis für Ästhetik & Dermatologische kosmetik,Marburger Str. 12-13,10789,Berlin,https://helfen-shop.berlin/dein-unternehmen/letaderm-praxis-fuer-aesthetik-dermatologische-kosmetik/,restaurant
Royal Garden,Osdorfer Str. 26,12207,Berlin,https://helfen-shop.berlin/dein-unternehmen/royal-garden/,restaurant
Café Morgenrot,Kastanienallee 85,10435,Berlin,https://helfen-shop.berlin/dein-unternehmen/cafe-morgenrot/,restaurant
Restaurant Friedhard’s,Königsberger Str. 46,12207,Berlin,https://helfen-shop.berlin/dein-unternehmen/restaurant-friedhards/,restaurant
HeimatKinder,Böckhstraße 49,10967,Berlin,https://helfen-shop.berlin/dein-unternehmen/heimatkinder/,restaurant
ZwoVier,Akazienstraße 24,10823,Berlin,https://helfen-shop.berlin/dein-unternehmen/zwovier/,restaurant
BBB Restaurant,Sonntagstraße 1,10245,Berlin,https://helfen-shop.berlin/dein-unternehmen/bbb-restaurant/,restaurant
Holy Everest,Gleimstraße 54,10437,Berlin,https://helfen-shop.berlin/dein-unternehmen/holy-everest/,restaurant
STAHLROHR 2.0,Paul-Robeson-Straße 50,10439,Berlin,https://helfen-shop.berlin/dein-unternehmen/stahlrohr-2-0/,restaurant
Der Kuchenladen,Kantstraße 138,10623,Berlin,https://helfen-shop.berlin/dein-unternehmen/der-kuchenladen/,restaurant
Kapitel 21,Lehrter Straße 55,10557,Berlin,https://helfen-shop.berlin/dein-unternehmen/kapitel-21/,restaurant
Schönheitswahn,Rykestraße 52,10405,Berlin,https://helfen-shop.berlin/dein-unternehmen/schoenheitswahn/,restaurant
Kosmetikinstitut Doßmann,Fregestraße 36,12161,Berlin,https://helfen-shop.berlin/dein-unternehmen/kosmetikinstitut-dossmann/,restaurant
Cafe Bar Moloko,Lettestraße 6a,10437,Berlin,https://helfen-shop.berlin/dein-unternehmen/cafe-bar-moloko/,restaurant
Souterrain 29,Waldowstraße 29,13156,Berlin,https://helfen-shop.berlin/dein-unternehmen/souterrain-29/,restaurant
AtayaCaffe,Zelterstraße 6,10439,Berlin,https://helfen-shop.berlin/dein-unternehmen/atayacaffe/,restaurant
Billardsalon Spandau “Pool Position”,Am Juliusturm 31,13599,Berlin,https://helfen-shop.berlin/dein-unternehmen/billardsalon-spandau-pool-position/,restaurant
,,,,,restaurant
Gimme Gelato,Wundtstraße 15,14059,Berlin,https://helfen-shop.berlin/dein-unternehmen/gimme-gelato/,restaurant
Firstcrack Coffee Roasters & Cafe Pakolat,Raumerstraße 40,10437,Berlin,https://helfen-shop.berlin/dein-unternehmen/firstcrack-coffee-roasters-cafe-pakolat/,restaurant
Buchhandlung Purzelbuch,Apostel-Paulus-Straße 5,10823,Berlin,https://helfen-shop.berlin/dein-unternehmen/buchhandlung-purzelbuch/,restaurant
MANA,Belziger Straße 34,10823,Berlin,https://helfen-shop.berlin/dein-unternehmen/mana/,restaurant
Modegeschäft Janet Knaack,Bleibtreustraße 48,10623,Berlin,https://helfen-shop.berlin/dein-unternehmen/modegeschaeft-janet-knaack/,restaurant
SAMPOR-KAFFEE-BERLIN,Ruppiner Chaussee 289,13503,Berlin,https://helfen-shop.berlin/dein-unternehmen/sampor-kaffee-berlin/,restaurant
FINNFLOAT Saunafloß,Müggelseedamm 70,12587,Berlin,https://helfen-shop.berlin/dein-unternehmen/finnfloat-saunafloss/,restaurant
Trattoria Battista,Havelstraße 4,13597,Berlin,https://helfen-shop.berlin/dein-unternehmen/trattoria-battista/,restaurant
Kochtail – Küchenladen,Invalidenstraße 150,10115,Berlin,https://helfen-shop.berlin/dein-unternehmen/kochtail-kuechenladen/,restaurant
Café Eulinchen,Bayerische Str. 12,10707,Berlin,https://helfen-shop.berlin/dein-unternehmen/cafe-eulinchen/,restaurant
Schätzchen,Marienburger Str. 5A,10405,Berlin,https://helfen-shop.berlin/dein-unternehmen/schaetzchen/,restaurant
Buchhandlung Anakoluth,Schönhauser Allee 124,10437,Berlin,https://helfen-shop.berlin/dein-unternehmen/buchhandlung-anakoluth/,restaurant
KING KONG VINTAGE,Grünberger Str. 87,10245,Berlin,https://helfen-shop.berlin/dein-unternehmen/king-kong-vintage/,restaurant
Almost Paradise,Gärtnerstraße 13,10245,Berlin,https://helfen-shop.berlin/dein-unternehmen/almost-paradise/,restaurant
Sometimes Coloured – Second Hand & Vintage,Grünberger Str. 90,10245,Berlin,https://helfen-shop.berlin/dein-unternehmen/sometimes-coloured-second-hand-vintage/,restaurant
ting,Rykestraße 41,10405,Berlin,https://helfen-shop.berlin/dein-unternehmen/ting/,restaurant
Fendricks Coffee & Breakfast,Muthesiusstraße 1,12163,Berlin,https://helfen-shop.berlin/dein-unternehmen/fendricks-coffee-breakfast/,restaurant
Restaurant Ehrlich in Friedrichshagen,Josef-Nawrocki-Straße 16,12587,Berlin,https://helfen-shop.berlin/dein-unternehmen/restaurant-ehrlich-in-friedrichshagen/,restaurant
Schrippe oder Stulle,Turmstraße 62,10551,Berlin,https://helfen-shop.berlin/dein-unternehmen/schrippe-oder-stulle/,restaurant
HAARTARI-Friseure,Bänschstraße 52,10247,Berlin,https://helfen-shop.berlin/dein-unternehmen/haartari-friseure/,restaurant
Rotbart,Böhmische Str. 43,12055,Berlin,https://helfen-shop.berlin/dein-unternehmen/rotbart/,restaurant
Sade Beauté,Kienitzer Str. 100,12049,Berlin,https://helfen-shop.berlin/dein-unternehmen/sade-beaute/,restaurant
JUMP3000 GmbH,Landsberger Str. 217/218,12623,Berlin,https://helfen-shop.berlin/dein-unternehmen/jump3000-gmbh/,restaurant
Marc-Antoine Hairstudio Gallery,Kopenhagener Str. 66,10437,Berlin,https://helfen-shop.berlin/dein-unternehmen/marc-antoine-hairstudio-gallery/,restaurant
Calm Coffee,Wühlischstraße 38,10245,Berlin,https://helfen-shop.berlin/dein-unternehmen/calm-coffee/,restaurant
KaffeeArbeitsPlätzchen& Suppensusi,Jagowstrasse 18,13585,Berlin,https://helfen-shop.berlin/dein-unternehmen/kaffeearbeitsplaetzchen-suppensusi/,restaurant
The Greens,Am Krögel 2,10179,Berlin,https://helfen-shop.berlin/dein-unternehmen/the-greens/,restaurant
Simela finest food,Koppenplatz 1,10115,Berlin,https://helfen-shop.berlin/dein-unternehmen/simela-finest-food/,restaurant
Restaurant Macedonia,Hans-Sachs-Straße 4f,12205,Berlin,https://helfen-shop.berlin/dein-unternehmen/restaurant-macedonia/,restaurant
Flickli,Gärtnerstraße 22,10245,Berlin,https://helfen-shop.berlin/dein-unternehmen/flickli/,restaurant
Esther Thomas,Knesebeckstraße 26,10623,Berlin,https://helfen-shop.berlin/dein-unternehmen/esther-thomas/,restaurant
Kosmetiinstitut-Carsta,Oberfeldstraße 43,12683,Berlin,https://helfen-shop.berlin/dein-unternehmen/kosmetiinstitut-carsta/,restaurant
Strawberry,Emser Str. 45,10719,Berlin,https://helfen-shop.berlin/dein-unternehmen/strawberry/,restaurant
Süßkramdealer,Varziner Str. 4,12159,Berlin,https://helfen-shop.berlin/dein-unternehmen/suesskramdealer/,restaurant
,,,,,restaurant
LAKRITZDEALER,Muskauer Str. 10,10997,Berlin,https://helfen-shop.berlin/dein-unternehmen/lakritzdealer/,restaurant
NANDI,Dunckerstraße 11,10437,Berlin,https://helfen-shop.berlin/dein-unternehmen/nandi/,restaurant
Anvio VR,Brandenburgische Str. 35,10707,Berlin,https://helfen-shop.berlin/dein-unternehmen/anvio-vr/,restaurant
Trattoria PANE e VINO,Sybelstrasse 46,10629,Berlin,https://helfen-shop.berlin/dein-unternehmen/trattoria-pane-e-vino/,restaurant
The Bird Barbecue,Oderberger Str. 61,10435,Berlin,https://helfen-shop.berlin/dein-unternehmen/the-bird-barbecue/,restaurant
Katis Kleidchen,Medebacher Weg 29,13507,Berlin,https://helfen-shop.berlin/dein-unternehmen/katis-kleidchen/,restaurant
Schön & Gut das Kosmetik- und Wellnesskonzept,Florapromenade 23,13187,Berlin,https://helfen-shop.berlin/dein-unternehmen/schoen-gut-das-kosmetik-und-wellnesskonzept/,restaurant
Süßfein,Brunnenstraße 156,10115,Berlin,https://helfen-shop.berlin/dein-unternehmen/suessfein/,restaurant
Carma Friseur und mehr,Danziger Str. 175,10407,Berlin,https://helfen-shop.berlin/dein-unternehmen/carma-friseur-und-mehr/,restaurant
Mimi Textilie Antiquitäten,Goltzstraße 5,10781,Berlin,https://helfen-shop.berlin/dein-unternehmen/mimi-textilie-antiquitaeten/,restaurant
Blaumilchkanal,Schivelbeiner Str. 23,10439,Berlin,https://helfen-shop.berlin/dein-unternehmen/blaumilchkanal/,restaurant
„Creative“ Wolle Stoffe Kurzwaren,Bölschestraße 120,12587,Berlin,https://helfen-shop.berlin/dein-unternehmen/creative-wolle-stoffe-kurzwaren/,restaurant
Flying Colors – Drachenladen Berlin,Eisenacher Str. 81,10823,Berlin,https://helfen-shop.berlin/dein-unternehmen/flying-colors-drachenladen-berlin/,restaurant
Goldkörner Müslimanufaktur,Finckensteinallee 1,12205,Berlin,https://helfen-shop.berlin/dein-unternehmen/goldkoerner-mueslimanufaktur/,restaurant
Neumanns Cafe,Gabriel-Max-Straße 18,10245,Berlin,https://helfen-shop.berlin/dein-unternehmen/neumanns-cafe/,restaurant
häppies,Dunckerstraße 85,10437,Berlin,https://helfen-shop.berlin/dein-unternehmen/haeppies/,restaurant
Osteria Mare,Westfälische Str. 37,10711,Berlin,https://helfen-shop.berlin/dein-unternehmen/osteria-mare/,restaurant
Kinderkiste Lankwitz,Kaiser-Wilhelm-Straße 28,12247,Berlin,https://helfen-shop.berlin/dein-unternehmen/kinderkiste-lankwitz/,restaurant
Drei Käse Hoch,Hauptstraße 73,12159,Berlin,https://helfen-shop.berlin/dein-unternehmen/drei-kaese-hoch/,restaurant
Ein Moment,Lehrter Str. 26A,10557,Berlin,https://helfen-shop.berlin/dein-unternehmen/ein-moment/,restaurant
Einer dieser Tage,Waldstraße 32,10551,Berlin,https://helfen-shop.berlin/dein-unternehmen/einer-dieser-tage/,restaurant
Miss Peacock Vintage & Crafts,Richardpl. 7,12055,Berlin,https://helfen-shop.berlin/dein-unternehmen/miss-peacock-vintage-crafts/,restaurant
BabaLuna,Marienburger Straße 21,10405,Berlin,https://helfen-shop.berlin/dein-unternehmen/babaluna/,restaurant
Tasty Waffle,Mahlsdorfer Str. 97e,12555,Berlin,https://helfen-shop.berlin/dein-unternehmen/tasty-waffle/,restaurant
MANKii ViNTAGE,Gormannstraße 16,10119,Berlin,https://helfen-shop.berlin/dein-unternehmen/mankii-vintage/,restaurant
Luftsprung Fotografie,Ella-Kay-Straße 22B,10405,Berlin,https://helfen-shop.berlin/dein-unternehmen/luftsprung-fotografie/,restaurant
Cafe Friedrichs,Mierendorffpl. 2,10589,Berlin,https://helfen-shop.berlin/dein-unternehmen/cafe-friedrichs/,restaurant
Restaurant Meena Kumari,Lychener Str. 9,10437,Berlin,https://helfen-shop.berlin/dein-unternehmen/restaurant-meena-kumari/,restaurant
Bar ada,Weserstr. 208,12047,Berlin,https://helfen-shop.berlin/dein-unternehmen/bar-ada/,restaurant
Das Fachgeschäft … der besonderen ART,Hermann-Hesse-Straße 2,13156,Berlin,https://helfen-shop.berlin/dein-unternehmen/das-fachgeschaeft-der-besonderen-art/,restaurant
Schlosswirt Meseberg,Meseberger Dorfstraße 27,16775,Gransee,https://helfen-shop.berlin/dein-unternehmen/schlosswirt-meseberg/,restaurant
Pension & Café Klosterblick,Am Wutzsee 53,16835,Lindow,https://helfen-shop.berlin/dein-unternehmen/pension-cafe-klosterblick/,restaurant
noon. schmuck und produkt,Dresdener Str. 26,10999,Berlin,https://helfen-shop.berlin/dein-unternehmen/noon-schmuck-und-produkt/,restaurant
,,,,,restaurant
"Fritz Heyn – Bar, Café, Wirtschaft",Heynstraße 15,13187,Berlin,https://helfen-shop.berlin/dein-unternehmen/fritz-heyn-bar-cafe-wirtschaft/,restaurant
Gin Chilla Bar,Warschauer Str. 33,10243,Berlin,https://helfen-shop.berlin/dein-unternehmen/gin-chilla-bar/,restaurant
Café-Bar-Bistro Charlotte,Charlottenstraße 14a,13597,Berlin,https://helfen-shop.berlin/dein-unternehmen/cafe-bar-bistro-charlotte/,restaurant
Café ohne Titel,Treptower Str. 91,12059,Berlin,https://helfen-shop.berlin/dein-unternehmen/cafe-ohne-titel/,restaurant
MANITA Spielzeug,Scharnweberstraße 24,12587,Berlin,https://helfen-shop.berlin/dein-unternehmen/manita-spielzeug/,restaurant
FC Magnet Bar,Veteranenstraße 26,10119,Berlin,https://helfen-shop.berlin/dein-unternehmen/fc-magnet-bar/,restaurant
MAERZ,Krossener Str. 23,10245,Berlin,https://helfen-shop.berlin/dein-unternehmen/maerz/,restaurant
Aromi e Sapori,Straßburger Str. 29,10405,Berlin,https://helfen-shop.berlin/dein-unternehmen/aromi-e-sapori/,restaurant
CAMON Coffee,Sonnenallee 27,12047,Berlin,https://helfen-shop.berlin/dein-unternehmen/camon-coffee/,restaurant
MilchHalle,Auguststr. 50,10119,Berlin,https://helfen-shop.berlin/dein-unternehmen/milchhalle/,restaurant
Bergers Bootshaus,Bootshausweg 1,13599,Berlin,https://helfen-shop.berlin/dein-unternehmen/bergers-bootshaus/,restaurant
Wellensteyn Collection Store,Invalidenstraße 124,10115,Berlin,https://helfen-shop.berlin/dein-unternehmen/wellensteyn-collection-store/,restaurant
avia & amica,Goltzstraße 45,10781,Berlin,https://helfen-shop.berlin/dein-unternehmen/avia-amica/,restaurant
Hug & Grow,Kirchstraße 20,10557,Berlin,https://helfen-shop.berlin/dein-unternehmen/hug-grow/,restaurant
Curry Meineke 27,Meinekestraße 27,10719,Berlin,https://helfen-shop.berlin/dein-unternehmen/curry-meineke-27/,restaurant
Bar Sieben,Sonntagstraße 6,10245,Berlin,https://helfen-shop.berlin/dein-unternehmen/bar-sieben/,restaurant
Cafe Schaumschläger,Hobrechtstraße 11,12047,Berlin,https://helfen-shop.berlin/dein-unternehmen/cafe-schaumschlaeger/,restaurant
Ateliers 22,Niedstraße 22,12159,Berlin,https://helfen-shop.berlin/dein-unternehmen/ateliers-22/,restaurant
Lieblingsdinge,Charlottenstraße 3,13597,Berlin,https://helfen-shop.berlin/dein-unternehmen/lieblingsdinge/,restaurant
Les Soeurs Shop,Grolmanstraße 16,10623,Berlin,https://helfen-shop.berlin/dein-unternehmen/les-soeurs-shop/,restaurant
Praxis für Gesundheit und Ästhetik,Brauerstraße 8,12209,Berlin,https://helfen-shop.berlin/dein-unternehmen/praxis-fuer-gesundheit-und-aesthetik/,restaurant
Kopenhagener Weinhandlung,Kopenhagener Str. 72,10437,Berlin,https://helfen-shop.berlin/dein-unternehmen/kopenhagener-weinhandlung/,restaurant
Luxima,Westfälische Str. 50a,10711,Berlin,https://helfen-shop.berlin/dein-unternehmen/luxima/,restaurant
Lowkal,Pfalzburger Str. 72A,10719,Berlin,https://helfen-shop.berlin/dein-unternehmen/lowkal/,restaurant
Aesthetikinstitut Gold & Kaviar,Giesebrechtstraße 16,10629,Berlin,https://helfen-shop.berlin/dein-unternehmen/aesthetikinstitut-gold-kaviar/,restaurant
Berlin macht Dampf / Bahnbetriebswerk Schöneweide,Landfliegerstraße,12487,Berlin,https://helfen-shop.berlin/dein-unternehmen/berlin-macht-dampf-bahnbetriebswerk-schoeneweide/,restaurant
James June Sommergarten,Karl-Marx-Allee 93,10243,Berlin,https://helfen-shop.berlin/dein-unternehmen/james-june-sommergarten/,restaurant
Kaffee Ingwer,Wühlischstraße 12,10245,Berlin,https://helfen-shop.berlin/dein-unternehmen/kaffee-ingwer/,restaurant
WiDDA & CO,Gärtnerstraße 24,10245,Berlin,https://helfen-shop.berlin/dein-unternehmen/widda-co/,restaurant
Ab ins Kind und Kegel,Weitlingstraße 37,10317,Berlin,https://helfen-shop.berlin/dein-unternehmen/ab-ins-kind-und-kegel/,restaurant
CONCEPTNAILS,Westfälische Str. 55,10711,Berlin,https://helfen-shop.berlin/dein-unternehmen/conceptnails/,restaurant
Sprachmafia. Die Sprachschule in Berlin,Kranoldpl. 7,12051,Berlin,https://helfen-shop.berlin/dein-unternehmen/sprachmafia-die-sprachschule-in-berlin/,restaurant
Salumeria Gusto,Ettaler Str. 12A,10777,Berlin,https://helfen-shop.berlin/dein-unternehmen/salumeria-gusto/,restaurant
PEPE Schuhmoden Allende-Center Köpenick,Pablo-Neruda-Straße 2-4,12559,Berlin,https://helfen-shop.berlin/dein-unternehmen/pepe-schuhmoden-allende-center-koepenick/,restaurant
Walter’s Coffey,Machnower Str. 6,14165,Berlin,https://helfen-shop.berlin/dein-unternehmen/walters-coffey/,restaurant
café smula,Hertastraße 2,12051,Berlin,https://helfen-shop.berlin/dein-unternehmen/cafe-smula/,restaurant
le piaf gourmand,Marburger Str. 5,10789,Berlin,https://helfen-shop.berlin/dein-unternehmen/le-piaf-gourmand/,restaurant
cafe Barfly,Brüderstraße 47,13595,Berlin,https://helfen-shop.berlin/dein-unternehmen/cafe-barfly/,restaurant
PlanB,Wilhelmstraße 144,13595,Berlin,https://helfen-shop.berlin/dein-unternehmen/planb/,restaurant
El Almacén de Fausto,Katzbachstraße 6,10965,Berlin,https://helfen-shop.berlin/dein-unternehmen/el-almacen-de-fausto/,restaurant
moono frozen yogurt,Windscheidstraße 19,10627,Berlin,https://helfen-shop.berlin/dein-unternehmen/moono-frozen-yogurt/,restaurant
Zur Haltestelle,Ruhlaer Str. 19,16225,Berlin,https://helfen-shop.berlin/dein-unternehmen/zur-haltestelle/,restaurant
Kneipe Hirsch,Kopernikusstraße 3,10243,Berlin,https://helfen-shop.berlin/dein-unternehmen/kneipe-hirsch/,restaurant
Kino im Kulturhaus und OpenAirKino Spandau,Mauerstraße 6,13597,Berlin,https://helfen-shop.berlin/dein-unternehmen/kino-im-kulturhaus-und-openairkino-spandau/,restaurant
Buchhandlung ebertundweber,Falckensteinstraße 44,10997,Berlin,https://helfen-shop.berlin/dein-unternehmen/buchhandlung-ebertundweber/,restaurant
Papierhaus,Belziger Str. 18,10823,Berlin,https://helfen-shop.berlin/dein-unternehmen/papierhaus/,restaurant
Kosmetikstudio Sandowell,Voigtstraße 40,10247,Berlin,https://helfen-shop.berlin/dein-unternehmen/kosmetikstudio-sandowell/,restaurant
The Forsberg,Gerichtstraße 26,13347,Berlin,https://helfen-shop.berlin/dein-unternehmen/the-forsberg/,restaurant
Annika Hairstylist,Saarstraße 9,12161,Berlin,https://helfen-shop.berlin/dein-unternehmen/annika-hairstylist/,restaurant
Weinmagasin – Weine – Feinkost -Catering,Breisgauer Strasse 11,14129,Berlin,https://helfen-shop.berlin/dein-unternehmen/weinmagasin-weine-feinkost-catering/,restaurant
JOCaffè Rösterei und Maschinen,Reichenhaller Str. 1,14199,Berlin,https://helfen-shop.berlin/dein-unternehmen/jocaffe-roesterei-und-maschinen/,restaurant
Lorch & Söhne,Danziger Str. 25,10435,Berlin,https://helfen-shop.berlin/dein-unternehmen/lorch-soehne/,restaurant
Yummy Mummy Vegan Bistro,Raumerstraße 12,10437,Berlin,https://helfen-shop.berlin/dein-unternehmen/yummy-mummy-vegan-bistro/,restaurant
Stilbruch Kaffee,Revaler Str. 9,10245,Berlin,https://helfen-shop.berlin/dein-unternehmen/stilbruch-kaffee/,restaurant
Pukka Berlin,Budapester Str. 46,10787,Berlin,https://helfen-shop.berlin/dein-unternehmen/pukka-berlin/,restaurant
:vorWien,Skalitzer Str. 41,10997,Berlin,https://helfen-shop.berlin/dein-unternehmen/vorwien/,restaurant
Café Pförtner,Uferstraße 8,13357,Berlin,https://helfen-shop.berlin/dein-unternehmen/cafe-pfoertner/,restaurant
Coworking-Space TUECHTIG – Raum für Inklusion,Haus D06 Oudenarder Straße 16 Haus D06,13347,Berlin,https://helfen-shop.berlin/dein-unternehmen/coworking-space-tuechtig-raum-fuer-inklusion/,restaurant
GARCIA Kaffeebar,Waldstraße 59,10551,Berlin,https://helfen-shop.berlin/dein-unternehmen/garcia-kaffeebar/,restaurant
Restaurant Nea Politia,Lieselotte-Berger-Platz 4,12355,Berlin,https://helfen-shop.berlin/dein-unternehmen/restaurant-nea-politia/,restaurant
Belina derma cosmetic,Westerlandstraße 18,13189,Berlin,https://helfen-shop.berlin/dein-unternehmen/belina-derma-cosmetic/,restaurant
MISALSA,Richard-Wagner-Platz 5,10585,Berlin,https://helfen-shop.berlin/dein-unternehmen/misalsa/,restaurant
Betty macht Druck,Weißenburger Str. 20,13595,Berlin,https://helfen-shop.berlin/dein-unternehmen/betty-macht-druck/,restaurant
Fräulein Juli,Lorenzstraße 63,12209,Berlin,https://helfen-shop.berlin/dein-unternehmen/fraeulein-juli/,restaurant
Perfect Cook,Gatower Str. 314,14089,Berlin,https://helfen-shop.berlin/dein-unternehmen/perfect-cook/,restaurant
Tirree,Birkenstraße 46,10551,Berlin,https://helfen-shop.berlin/dein-unternehmen/tirree/,restaurant
Pan Africa Restaurant & Catering,Kirchhofstraße 41,12055,Berlin,https://helfen-shop.berlin/dein-unternehmen/pan-africa-restaurant-catering/,restaurant
OstPost Cafe,Choriner Str. 84,10119,Berlin,https://helfen-shop.berlin/dein-unternehmen/ostpost-cafe/,restaurant
La Criolla Empanadas,Marienburger Str. 9,10405,Berlin,https://helfen-shop.berlin/dein-unternehmen/la-criolla-empanadas/,restaurant
EstelleDining,Kopenhagener Str. 12A,10437,Berlin,https://helfen-shop.berlin/dein-unternehmen/estelledining/,restaurant
FISHERMANS Restaurant,Eisenhammerweg 20,13507,Berlin,https://helfen-shop.berlin/dein-unternehmen/fishermans-restaurant/,restaurant
Küchenliebe Markthalle9,Eisenbahnstraße 42,10997,Berlin,https://helfen-shop.berlin/dein-unternehmen/kuechenliebe-markthalle9/,restaurant
Malou,Barbarossastraße 61,10781,Berlin,https://helfen-shop.berlin/dein-unternehmen/malou/,restaurant
Kneipenkönig-zwei,Bornstraße 22,12163,Berlin,https://helfen-shop.berlin/dein-unternehmen/kneipenkoenig-zwei/,restaurant
Tvaya,Warnemünder Str. 7,14199,Berlin,https://helfen-shop.berlin/dein-unternehmen/tvaya/,restaurant
Friseur die Besten vom anderen Ufer,Ohlauer Str. 40,10999,Berlin,https://helfen-shop.berlin/dein-unternehmen/friseur-die-besten-vom-anderen-ufer/,restaurant
KREYENBERGS Nähschule & Werkstatt,Göhrener Str. 14,10437,Berlin,https://helfen-shop.berlin/dein-unternehmen/kreyenbergs-naehschule-werkstatt/,restaurant
wundervino – Köpenick,Lüdersstraße 10,12555,Berlin,https://helfen-shop.berlin/dein-unternehmen/wundervino-koepenick/,restaurant
MAMPES NEUE HEIMAT,Am Tempelhofer Berg 6,10965,Berlin,https://helfen-shop.berlin/dein-unternehmen/mampes-neue-heimat/,restaurant
Geheimwaffel,Alt-Reinickendorf 61,13407,Berlin,https://helfen-shop.berlin/dein-unternehmen/geheimwaffel/,restaurant
Die Stulle,Carmerstraße 10,10623,Berlin,https://helfen-shop.berlin/dein-unternehmen/die-stulle/,restaurant
BioCafé & BioRestaurant Mandelbaum,Smetanastraße 9,13088,Berlin,https://helfen-shop.berlin/dein-unternehmen/biocafe-biorestaurant-mandelbaum/,restaurant
wundervino – Adlershof,Volmerstraße 1,12489,Berlin,https://helfen-shop.berlin/dein-unternehmen/wundervino-adlershof/,restaurant
Galander -Charlottenburg-,Stuttgarter Platz 15 E.G. rechtsseitig,10627,Berlin,https://helfen-shop.berlin/dein-unternehmen/galander-charlottenburg/,restaurant
Mini Lounge,Neue Bahnhofstraße 36,10245,Berlin,https://helfen-shop.berlin/dein-unternehmen/mini-lounge/,restaurant
Galander -Haifischbar-,Arndtstraße 25,10965,Berlin,https://helfen-shop.berlin/dein-unternehmen/galander-haifischbar/,restaurant
Tornero am Fließ,Gorkistraße 206,13437,Berlin,https://helfen-shop.berlin/dein-unternehmen/tornero-am-fliess/,restaurant
Galander -Kreuzberg-,Großbeerenstraße 54,10965,Berlin,https://helfen-shop.berlin/dein-unternehmen/galander-kreuzberg/,restaurant
m|a – feine Kost,Kienitzer Str. 93,12049,Berlin,https://helfen-shop.berlin/dein-unternehmen/ma-feine-kost/,restaurant
Atelier Nuno,Utrechter Str. 32,13347,Berlin,https://helfen-shop.berlin/dein-unternehmen/atelier-nuno/,restaurant
KIETZBLUME,Niederbarnimstraße 15,10247,Berlin,https://helfen-shop.berlin/dein-unternehmen/kietzblume/,restaurant
Hüftgold Restaurant Berlin,Neue Bahnhofstraße 29,10245,Berlin,https://helfen-shop.berlin/dein-unternehmen/hueftgold-restaurant-berlin/,restaurant
miniberliner,Solmsstraße 18,10961,Berlin,https://helfen-shop.berlin/dein-unternehmen/miniberliner/,restaurant
LottiKlein,Hufelandstraße 17,10407,Berlin,https://helfen-shop.berlin/dein-unternehmen/lottiklein/,restaurant
LENA‘S LOVELY VINTAGE,Lützowstraße 92,10785,Berlin,https://helfen-shop.berlin/dein-unternehmen/lenas-lovely-vintage/,restaurant
Podrum Berlin,Lehrter Str. 48B,10557,Berlin,https://helfen-shop.berlin/dein-unternehmen/podrum-berlin/,restaurant
Miss Saigon Restaurant,Skalitzer Str. 38,10999,Berlin,https://helfen-shop.berlin/dein-unternehmen/miss-saigon-restaurant/,restaurant
Essbarer Garten Kladow,Imchenallee 66,14089,Berlin,https://helfen-shop.berlin/dein-unternehmen/essbarer-garten-kladow/,restaurant
Café ESPERA,Sonnenallee 35,12045,Berlin,https://helfen-shop.berlin/dein-unternehmen/cafe-espera/,restaurant
YAAM,An der Schillingbrücke 3,10243,Berlin,https://helfen-shop.berlin/dein-unternehmen/yaam/,restaurant
IND-Berlin,Budapester Str. 38-50,10787,Berlin,https://helfen-shop.berlin/dein-unternehmen/ind-berlin/,restaurant
Imbiss/Catering/Streetfood,Bautzener Str. 40,10829,Berlin,https://helfen-shop.berlin/dein-unternehmen/imbiss-catering-streetfood/,restaurant
CV. Studio Berlin,Pflügerstraße 70,12047,Berlin,https://helfen-shop.berlin/dein-unternehmen/cv-studio-berlin/,restaurant
Mimosa,Richardstraße 103,12043,Berlin,https://helfen-shop.berlin/dein-unternehmen/mimosa/,restaurant
Computerspielemuseum,Karl-Marx-Allee 93A,10243,Berlin,https://helfen-shop.berlin/dein-unternehmen/computerspielemuseum/,restaurant
Uhren&Goldschmiedewerkstatt Paul Wagner,Charlottenstraße 22,13597,Berlin,https://helfen-shop.berlin/dein-unternehmen/uhrengoldschmiedewerkstatt-paul-wagner/,restaurant
The Sushi Club,Mohrenstraße 42,10117,Berlin,https://helfen-shop.berlin/dein-unternehmen/the-sushi-club/,restaurant
KLEID & SCHUH,Sredzkistraße 34,10435,Berlin,https://helfen-shop.berlin/dein-unternehmen/kleid-schuh/,restaurant
VAN NORD,Grolmanstraße 30-31,10623,Berlin,https://helfen-shop.berlin/dein-unternehmen/van-nord/,restaurant
HEIMAT Friedrichshain,Niederbarnimstraße 17,10247,Berlin,https://helfen-shop.berlin/dein-unternehmen/heimat-friedrichshain/,restaurant
Roter Rabe Bar,Kottbusser Str. 13,10999,Berlin,https://helfen-shop.berlin/dein-unternehmen/roter-rabe-bar/,restaurant
MAMSELL,Goltzstraße 48,10781,Berlin,https://helfen-shop.berlin/dein-unternehmen/mamsell/,restaurant
Restaurant Kastanienhof,Schillerstraße 1A,16552,Mühlenbecker,https://helfen-shop.berlin/dein-unternehmen/restaurant-kastanienhof/,restaurant
Restaurant Leibhaftig,Metzer Str. 30,10405,Berlin,https://helfen-shop.berlin/dein-unternehmen/restaurant-leibhaftig/,restaurant
Cargo Gastronomia,Samariterstraße 37,10247,Berlin,https://helfen-shop.berlin/dein-unternehmen/cargo-gastronomia/,restaurant
1000grad,Kurfürstendamm 90,10709,Berlin,https://helfen-shop.berlin/dein-unternehmen/1000grad/,restaurant
Pomeranze Kaffeebar,Leinestraße 48,12049,Berlin,https://helfen-shop.berlin/dein-unternehmen/pomeranze-kaffeebar/,restaurant
Albert,Dunckerstraße 81,10437,Berlin,https://helfen-shop.berlin/dein-unternehmen/albert/,restaurant
The Botanical Room,Manteuffelstraße 73,10999,Berlin,https://helfen-shop.berlin/dein-unternehmen/the-botanical-room/,restaurant
Victoria met Albert – Friedrichshain,KROSSENER STRASSE 9-10,10245,Berlin,https://helfen-shop.berlin/dein-unternehmen/victoria-met-albert-2/,restaurant
Raum Schwalbe,Winsstraße 9,10405,Berlin,https://helfen-shop.berlin/dein-unternehmen/raum-schwalbe/,restaurant
Schneiderei,Dunckerstraße 69,10437,Berlin,https://helfen-shop.berlin/dein-unternehmen/schneiderei/,restaurant
R.S.V.P.,Mulackstraße 26,10119,Berlin,https://helfen-shop.berlin/dein-unternehmen/r-s-v-p/,restaurant
Berliner Residenz Konzerte / Große Orangerie Schloss Charlottenburg,Spandauer Damm 22,14059,Berlin,https://helfen-shop.berlin/dein-unternehmen/berliner-residenz-konzerte-grosse-orangerie-schloss-charlottenburg/,restaurant
Prinzipal Burlesque Bar,Oranienstraße 178,10999,Berlin,https://helfen-shop.berlin/dein-unternehmen/prinzipal-burlesque-bar/,restaurant
Das Gretel,Hagelberger Str. 15,10965,Berlin,https://helfen-shop.berlin/dein-unternehmen/das-gretel/,restaurant
kolor,Bergfriedstraße 22,10969,Berlin,https://helfen-shop.berlin/dein-unternehmen/kolor/,restaurant
Pings Art,,12435,Berlin,https://helfen-shop.berlin/dein-unternehmen/pings-art/,restaurant
Horváth,Paul-Lincke-Ufer 44a,10999,Berlin,https://helfen-shop.berlin/dein-unternehmen/horvath/,restaurant
Süße Flora,Bizetstraße 87,13088,Berlin,https://helfen-shop.berlin/dein-unternehmen/suesse-flora/,restaurant
"Die braut – Dorfbrauerei Stegelitz, Uckermark",Dorfstraße 12,17268,Flieth-Stegelitz,https://helfen-shop.berlin/dein-unternehmen/die-braut-dorfbrauerei-stegelitz-uckermark/,restaurant
Muse Berlin,Immanuelkirchstraße 31,10405,Berlin,https://helfen-shop.berlin/dein-unternehmen/muse-berlin/,restaurant
HOLY COFFEE,Sonnenallee 132,12059,Berlin,https://helfen-shop.berlin/dein-unternehmen/holy-coffee/,restaurant
Sajour,Westfälische Str. 39,10711,Berlin,https://helfen-shop.berlin/dein-unternehmen/sajour/,restaurant
Owens – Training ganz persönlich,Neue Kantstraße 10,14057,Berlin,https://helfen-shop.berlin/dein-unternehmen/owens-training-ganz-persoenlich/,restaurant
AMRIT Berlin Schöneberg,Winterfeldstraße 40,10781,Berlin,https://helfen-shop.berlin/dein-unternehmen/amrit-berlin-schoeneberg/,restaurant
Herman Schulz Café/Bar,Finowstraße 33,10247,Berlin,https://helfen-shop.berlin/dein-unternehmen/herman-schulz-cafe-bar/,restaurant
Café „Stück vom Glück „,Wilhelm-Kuhr-Straße 2,13187,Berlin,https://helfen-shop.berlin/dein-unternehmen/cafe-stueck-vom-glueck/,restaurant
Artcafé Osbili,Gustav-Freytag-Straße 5,10827,Berlin,https://helfen-shop.berlin/dein-unternehmen/artcafe-osbili/,restaurant
Zum Elefanten,Oranienstraße 12,10999,Berlin,https://helfen-shop.berlin/dein-unternehmen/zum-elefanten/,restaurant
Kosmetikstudio Ruhezone,Waltersdorfer Chaussee 89,12355,Berlin,https://helfen-shop.berlin/dein-unternehmen/kosmetikstudio-ruhezone/,restaurant
Feurichs Wirtshaus Malchow,Dorfstraße 11,13051,Berlin,https://helfen-shop.berlin/dein-unternehmen/feurichs-wirtshaus-malchow/,restaurant
Café Bolacha,Senefelderstraße 29,10437,Berlin,https://helfen-shop.berlin/dein-unternehmen/cafe-bolacha/,restaurant
Die kleine Gesellschaft,Rykestraße 41,10405,Berlin,https://helfen-shop.berlin/dein-unternehmen/die-kleine-gesellschaft/,restaurant
Chez Dang Restaurant,Friedelstraße 31,12047,Berlin,https://helfen-shop.berlin/dein-unternehmen/chez-dang-restaurant/,restaurant
Mobile Dunkelkammer,Kaskelstraße 55,10317,Berlin,https://helfen-shop.berlin/dein-unternehmen/mobile-dunkelkammer/,restaurant
Stadtgarten Steglitz,Hubertusstraße 14,12163,Berlin,https://helfen-shop.berlin/dein-unternehmen/stadtgarten-steglitz/,restaurant
Pizzeria vira,Warschauer Str. 66,10243,Berlin,https://helfen-shop.berlin/dein-unternehmen/pizzeria-vira/,restaurant
Trompete,Lützowpl. 9,10785,Berlin,https://helfen-shop.berlin/dein-unternehmen/trompete/,restaurant
KÜCHE Bar,Tempelhofer Ufer 16,10963,Berlin,https://helfen-shop.berlin/dein-unternehmen/kueche-bar/,restaurant
Lerchen&Eulen,Pücklerstraße 33,10997,Berlin,https://helfen-shop.berlin/dein-unternehmen/lercheneulen/,restaurant
Solo Pizza,Wilhelmstraße 147,13595,Berlin,https://helfen-shop.berlin/dein-unternehmen/solo-pizza/,restaurant
Superschlüpfer,Wühlischstraße 25,10245,Berlin,https://helfen-shop.berlin/dein-unternehmen/superschluepfer/,restaurant
Mixtape,Kirchstraße 2,10557,Berlin,https://helfen-shop.berlin/dein-unternehmen/mixtape/,restaurant
Zwei Kraniche,Heinsestraße 42,13467,Berlin,https://helfen-shop.berlin/dein-unternehmen/zwei-kraniche/,restaurant
supermarché – Ökofaire Mode,Wiener Straße 16,10999,Berlin,https://helfen-shop.berlin/dein-unternehmen/supermarche-oekofaire-mode/,restaurant
Schoko Kreativ Fabrik,Krausnickstraße 23,10115,Berlin,https://helfen-shop.berlin/dein-unternehmen/schoko-kreativ-fabrik/,restaurant
a compás Studio&Location Flamencotanzschule Laura la Risa,Hasenheide 54,10967,Berlin,https://helfen-shop.berlin/dein-unternehmen/a-compas-studiolocation-flamencotanzschule-laura-la-risa/,restaurant
karo&auguste Keramik,Elberfelder Str. 18,10555,Berlin,https://helfen-shop.berlin/dein-unternehmen/karoauguste-keramik/,restaurant
Kleiner knorsh,Hufelandstraße 24,10407,Berlin,https://helfen-shop.berlin/dein-unternehmen/kleiner-knorsh/,restaurant
Weinhandel Smiling Kangaroohs,Goltzstraße 45,10781,Berlin,https://helfen-shop.berlin/dein-unternehmen/weinhandel-smiling-kangaroohs/,restaurant
Kleines Schuhwerk,Grunewaldstraße 9A,10823,Berlin,https://helfen-shop.berlin/dein-unternehmen/kleines-schuhwerk/,restaurant
R.EH,Böttgerstraße 16,13357,Berlin,https://helfen-shop.berlin/dein-unternehmen/r-eh/,restaurant
Neue Republik Reger,Bouchéstraße 79A,12435,Berlin,https://helfen-shop.berlin/dein-unternehmen/neue-republik-reger/,restaurant
Stilraumberlin,Eldenaer Str. 21,10247,Berlin,https://helfen-shop.berlin/dein-unternehmen/stilraumberlin/,restaurant
Suicide Sue,Dunckerstraße 2,10437,Berlin,https://helfen-shop.berlin/dein-unternehmen/suicide-sue/,restaurant
Kreuzberger Himmel,Yorckstraße 89,10965,Berlin,https://helfen-shop.berlin/dein-unternehmen/kreuzberger-himmel/,restaurant
Seebad Friedrichshagen,Müggelseedamm 216,12587,Berlin,https://helfen-shop.berlin/dein-unternehmen/seebad-friedrichshagen/,restaurant
Dollyrocker,Gärtnerstraße 25,10245,Berlin,https://helfen-shop.berlin/dein-unternehmen/dollyrocker/,restaurant
Perlou,Perleberger Str. 58,10559,Berlin,https://helfen-shop.berlin/dein-unternehmen/perlou/,restaurant
Mundvoll,Waldemarstraße 48,10997,Berlin,https://helfen-shop.berlin/dein-unternehmen/mundvoll/,restaurant
12 Cafe & Bar,Sprengelstraße 12,13353,Berlin,https://helfen-shop.berlin/dein-unternehmen/12-cafe-bar/,restaurant
Restaurant*Bar MeilenStein,Am Juliusturm 104,13597,Berlin,https://helfen-shop.berlin/dein-unternehmen/restaurantbar-meilenstein/,restaurant
N3 Club Berlin,Oranienburger Str. 4,10178,Berlin,https://helfen-shop.berlin/dein-unternehmen/n3-club-berlin/,restaurant
Osteria Ballerino,Ruhlsdorfer Str. 14,14532,Stahnsdorf,https://helfen-shop.berlin/dein-unternehmen/osteria-ballerino/,restaurant
Ella & Monster,Gärtnerstraße 8,10245,Berlin,https://helfen-shop.berlin/dein-unternehmen/ella-monster/,restaurant
Berlin Erlebnisse,Am Speicher 3,10245,Berlin,https://helfen-shop.berlin/dein-unternehmen/berlin-erlebnisse/,restaurant
Salt n Bone,Schliemannstraße 31,10437,Berlin,https://helfen-shop.berlin/dein-unternehmen/salt-n-bone/,restaurant
Eiche – Bürgerstube,Wollankstraße 127,13187,Berlin,https://helfen-shop.berlin/dein-unternehmen/eiche-buergerstube/,restaurant
Selig Berlin,Herrfurthpl. 14,12049,Berlin,https://helfen-shop.berlin/dein-unternehmen/selig-berlin/,restaurant
FLORAL BISTRO GMBH,Braunschweiger Str. 66,12055,Berlin,https://helfen-shop.berlin/dein-unternehmen/floral-bistro-gmbh/,restaurant
Restaurant Medusa,Perelspl. 10,12159,Berlin,https://helfen-shop.berlin/dein-unternehmen/restaurant-medusa/,restaurant
Restaurant Schifferstube,Grünauer Str. 193,12557,Berlin,https://helfen-shop.berlin/dein-unternehmen/restaurant-schifferstube/,restaurant
EIGENGRAU BAR,Skalitzer Str. 45,10997,Berlin,https://helfen-shop.berlin/dein-unternehmen/eigengrau-bar/,restaurant
PHO-Noodlebar,"Mitte:,restaurant
Linienstr. 134",10115,Berlin,https://helfen-shop.berlin/dein-unternehmen/pho-noodlebar/,restaurant
Tortendesignerin Koni Tonitz,Janusz-Korczak-Straße 31,12627,Berlin,https://helfen-shop.berlin/dein-unternehmen/tortendesignerin-koni-tonitz/,restaurant
Piri’s Chicken Burgers at Santa Cantina,Simon-Dach-Str. 22,10245,Berlin,https://helfen-shop.berlin/dein-unternehmen/piris-chicken-burgers-at-santa-cantina/,restaurant
Shiso Burger,Auguststraße 29c,10119,Berlin,https://helfen-shop.berlin/dein-unternehmen/shiso-burger/,restaurant
Zuckerbaby Café & Deli,Richardpl. 21,,Berlin,https://helfen-shop.berlin/dein-unternehmen/zuckerbaby-cafe-deli/,restaurant
Patta- Finest Baked Potatoes,Krossener Str. 16,10245,Berlin,https://helfen-shop.berlin/dein-unternehmen/patta-finest-baked-potatoes/,restaurant
LOVECO Schöneberg,Eisenacher Straße 36/37,10781,Berlin,https://helfen-shop.berlin/dein-unternehmen/loveco-schoeneberg/,restaurant
LOVECO Shoes,Manteuffelstraße 77,10999,Berlin,https://helfen-shop.berlin/dein-unternehmen/loveco-shoes/,restaurant
LOVECO,Sonntagstraße 29,,Berlin,https://helfen-shop.berlin/dein-unternehmen/loveco/,restaurant
Ohana Viethawaiian Poke,Reichenberger Str. 120,10999,Berlin,https://helfen-shop.berlin/dein-unternehmen/ohana-viethawaiian-poke/,restaurant
GLÜCKSTÜCK,Apostel-Paulus-Straße 1,10823,Berlin,https://helfen-shop.berlin/dein-unternehmen/glueckstueck/,restaurant
Kirk Bar,Skalitzer Str. 75,10997,Berlin,https://helfen-shop.berlin/dein-unternehmen/kirk-bar/,restaurant
Gasthaus Hahns Mühle,Hahns Mühle 12,12587,Berlin,https://helfen-shop.berlin/dein-unternehmen/gasthaus-hahns-muehle/,restaurant
Eck Kneipe,Mariannenpl. 9A,10997,Berlin,https://helfen-shop.berlin/dein-unternehmen/eck-kneipe/,restaurant
Sotto,Neue Hochstraße 25,13347,Berlin,https://helfen-shop.berlin/dein-unternehmen/sotto/,restaurant
BUCHBOX! Kiezbuchhandlung,Kastanienallee 97,10435,Berlin,https://helfen-shop.berlin/dein-unternehmen/buchbox-kiezbuchhandlung/,restaurant
Restaurant Floh,Am Bahnhof Grunewald 4,14193,Berlin,https://helfen-shop.berlin/dein-unternehmen/restaurant-floh/,restaurant
CHAMÄLEON Theater,Rosenthaler Str. 40/41,10178,Berlin,https://helfen-shop.berlin/dein-unternehmen/chamaeleon-theater/,restaurant
Soup Guerilla,Schlesische Str. 31,10997,Berlin,https://helfen-shop.berlin/dein-unternehmen/soup-guerilla/,restaurant
Tsukushiya,Dresdener Str. 16,10999,Berlin,https://helfen-shop.berlin/dein-unternehmen/tsukushiya/,restaurant
GlobalClub21,Wartenberger Str. 174,13051,Berlin,https://helfen-shop.berlin/dein-unternehmen/globalclub21/,restaurant
,,,,,restaurant
taubenblau,Bouchéstraße 77,12435,Berlin,https://helfen-shop.berlin/dein-unternehmen/taubenblau/,restaurant
Ava Friseur,Grünberger Str. 1,10243,Berlin,https://helfen-shop.berlin/dein-unternehmen/ava-friseur/,restaurant
HEY ALEX,Niederbarnimstraße 11,10247,Berlin,https://helfen-shop.berlin/dein-unternehmen/hey-alex/,restaurant
Tupac,Hagelberger Str. 9,10965,Berlin,https://helfen-shop.berlin/dein-unternehmen/tupac/,restaurant
Scheers Schnitzel,Warschauer Pl. 18,10245,Berlin,https://helfen-shop.berlin/dein-unternehmen/scheers-schnitzel/,restaurant
Tisk,Neckarstraße 12,12053,Berlin,https://helfen-shop.berlin/dein-unternehmen/tisk/,restaurant
Café Golzo,Goltzstraße 21,10781,Berlin,https://helfen-shop.berlin/dein-unternehmen/cafe-golzo/,restaurant
Bar in a Jar,Mariannenstraße 29,10999,Berlin,https://helfen-shop.berlin/dein-unternehmen/bar-in-a-jar/,restaurant
,,,,,restaurant
20×24 Studio Berlin,Kronestraße 71,10117,Berlin,https://helfen-shop.berlin/dein-unternehmen/20x24-studio-berlin/,restaurant
Frannz Club,Schönhauser Allee 36,101435,Berlin,https://helfen-shop.berlin/dein-unternehmen/frannz-club/,restaurant
Krüger Eck,Weserstraße 12,10247,Berlin,https://helfen-shop.berlin/dein-unternehmen/krueger-eck/,restaurant
Schönhauser-Design,Rosenthalerstrasse 19,10119,Berlin,https://helfen-shop.berlin/dein-unternehmen/schoenhauser-design/,restaurant
Milja & Schäfa,Sonntagstraße 1,10245,Berlin,https://helfen-shop.berlin/dein-unternehmen/milja-schaefa/,restaurant
Eisenbergs,Sophienstraße 5,10178,Berlin,https://helfen-shop.berlin/dein-unternehmen/eisenbergs/,restaurant
DingsDums Dumplings,Wiener Straße 34,10999,Berlin,https://helfen-shop.berlin/dein-unternehmen/dingsdums-dumplings/,restaurant
PICTOFACTUM,Wühlischstraße 12,10245,Berlin,https://helfen-shop.berlin/dein-unternehmen/pictofactum/,restaurant
Gestaltungskombinat,Kirchstraße 2,12555,Berlin,https://helfen-shop.berlin/dein-unternehmen/gestaltungskombinat/,restaurant
Bambusgarten Restaurant Wildau,Gewerbepark 1,15745,Wildau,https://helfen-shop.berlin/dein-unternehmen/bambusgarten-restaurant-wildau/,restaurant
Bonitaperla,Leonhardtstraße 4,14057,Berlin,https://helfen-shop.berlin/dein-unternehmen/bonitaperla/,restaurant
Bambusgarten Restaurant Hoppegarten,Bollensdorfer Weg 2-4,15366,Hoppegarten,https://helfen-shop.berlin/dein-unternehmen/bambusgarten-restaurant-hoppegarten/,restaurant
Work’n’Kid – Coworking mit Kinderbetreuung,Schreinerstraße 58,10247,Berlin,https://helfen-shop.berlin/dein-unternehmen/worknkid-coworking-mit-kinderbetreuung/,restaurant
Raymons das Fischrestaurant,Frieda-Arnheim-Promenade 7,13585,Berlin,https://helfen-shop.berlin/dein-unternehmen/raymons-das-fischrestaurant/,restaurant
Café Lutetia,Jüdenstraße 10,13597,Berlin,https://helfen-shop.berlin/dein-unternehmen/cafe-lutetia/,restaurant
Bambusgarten Restaurant Teltow,Asternstraße 2,14513,Teltow,https://helfen-shop.berlin/dein-unternehmen/bambusgarten-restaurant-teltow/,restaurant
Kater&Goldfisch,Exerzierstraße 1,13357,Berlin,https://helfen-shop.berlin/dein-unternehmen/katergoldfisch/,restaurant
Restaurant BRUDERHERZ,Leonhardtstraße 6,14057,Berlin,https://helfen-shop.berlin/dein-unternehmen/restaurant-bruderherz/,restaurant
Theater ANU,Pohlstraße 41,10785,Berlin,https://helfen-shop.berlin/dein-unternehmen/theater-anu/,restaurant
pars Pralinen,Schönleinstraße 6,10967,Berlin,https://helfen-shop.berlin/dein-unternehmen/pars-pralinen/,restaurant
Wintergarten Varieté Berlin,Potsdamer Straße 96,10785,Berlin,https://helfen-shop.berlin/dein-unternehmen/wintergarten-variete-berlin/,restaurant
Faro,Schlesische Str. 14,10997,Berlin,https://helfen-shop.berlin/dein-unternehmen/faro/,restaurant
Alte Kantine in der Kulturbrauerei,Knaackstraße 97,10435,Berlin,https://helfen-shop.berlin/dein-unternehmen/alte-kantine-in-der-kulturbrauerei/,restaurant
Vöner,Boxhagener Str. 56,10245,Berlin,https://helfen-shop.berlin/dein-unternehmen/voener/,restaurant
Dong Da Restaurant,Pfarrstraße 121,10317,Berlin,https://helfen-shop.berlin/dein-unternehmen/dong-da-restaurant/,restaurant
Mooi Fashion Berlin GbR,Knesebeckstraße 32,10623,Berlin,https://helfen-shop.berlin/dein-unternehmen/mooi-fashion-berlin-gbr/,restaurant
HeartSpace Coworking & Coffee,Urbanstraße 70a,10967,Berlin,https://helfen-shop.berlin/dein-unternehmen/heartspace-coworking-coffee/,restaurant
Theater am Wandlitzsee,Bahnhofspl. 1,16348,Wandlitz,https://helfen-shop.berlin/dein-unternehmen/theater-am-wandlitzsee/,restaurant
Exclusive coffee,Zillestr. 74,10585,Berlin,https://helfen-shop.berlin/dein-unternehmen/exclusive-coffee/,restaurant
AltoAdige Weinbar,Windscheidstraße 22,10627,Berlin,https://helfen-shop.berlin/dein-unternehmen/altoadige-weinbar/,restaurant
Brettspielplatz – Das Spielecafé,Waldstraße 50,10551,Berlin,https://helfen-shop.berlin/dein-unternehmen/brettspielplatz-das-spielecafe/,restaurant
eisbox,Elberfelder Str. 27,10555,Berlin,https://helfen-shop.berlin/dein-unternehmen/eisbox/,restaurant
Röststätte Berlin,Rosenthaler Straße 40-41,10178,Berlin,https://helfen-shop.berlin/dein-unternehmen/roeststaette-berlin/,restaurant
l’herbivore,Petersburger Str. 38,10249,Berlin,https://helfen-shop.berlin/dein-unternehmen/lherbivore/,restaurant
Ta Panta Ri,Düsseldorfer Str. 75,10719,Berlin,https://helfen-shop.berlin/dein-unternehmen/ta-panta-ri/,restaurant
Zentralhanf Hanffachgeschäft,Kastanienallee 86,10435,Berlin,https://helfen-shop.berlin/dein-unternehmen/zentralhanf-hanffachgeschaeft/,restaurant
Superskull,Mittenwalder Str. 13,10961,Berlin,https://helfen-shop.berlin/dein-unternehmen/superskull/,restaurant
Theaterkasse Friedrichshagen,Böl­sche­s­traße 87/88,12587,Berlin,https://helfen-shop.berlin/dein-unternehmen/theaterkasse-friedrichshagen/,restaurant
Berlin Limo 24,Hallandstraße,13189,Berlin,https://helfen-shop.berlin/dein-unternehmen/berlin-limo-24/,restaurant
Spielwarengeschäft Kleiner Schlauberger,Achillesstraße 57,13125,Berlin,https://helfen-shop.berlin/dein-unternehmen/spielwarengeschaeft-kleiner-schlauberger/,restaurant
Restaurant Café Schraders,Malplaquetstraße 16B,13341,Berlin,https://helfen-shop.berlin/dein-unternehmen/restaurant-cafe-schraders/,restaurant
Prachtmädchen,Wühlischstraße 28,10245,Berlin,https://helfen-shop.berlin/dein-unternehmen/prachtmaedchen/,restaurant
IVA Berlin – Studio für Pole und Aerial Arts,Mittenwalder Str. 6,10961,Berlin,https://helfen-shop.berlin/dein-unternehmen/iva-berlin-studio-fuer-pole-und-aerial-arts/,restaurant
"Suppen Cult, Suppen Bar",Prenzlauer Allee 42,10405,Berlin,https://helfen-shop.berlin/dein-unternehmen/suppen-cult-suppen-bar/,restaurant
Frühsammers Restaurant,Flinsberger Platz 8,14193,Berlin,https://helfen-shop.berlin/dein-unternehmen/fruehsammers-restaurant/,restaurant
"Print Seven, Druck u. Kopierservice",Schöneberger Str. 13,12163,Berlin,https://helfen-shop.berlin/dein-unternehmen/print-seven-druck-u-kopierservice/,restaurant
"Asabi, Perlencenter u. Schmuckdesign",Holsteinische Str. 14,12163,Berlin,https://helfen-shop.berlin/dein-unternehmen/asabi-perlencenter-u-schmuckdesign/,restaurant
Wonder Waffel Kreuzberg,Adalbertstraße 88,10997,Berlin,https://helfen-shop.berlin/dein-unternehmen/wonder-waffel-kreuzberg/,restaurant
WAU – Wirtshaus am Ufer,Hallesches Ufer 32,10963,Berlin,https://helfen-shop.berlin/dein-unternehmen/wau-wirtshaus-am-ufer/,restaurant
Erzgebirgshaus,Friedrichstraße 199,10117,Berlin,https://helfen-shop.berlin/dein-unternehmen/erzgebirgshaus/,restaurant
Liquor Shop,Köpenicker Str.,10179,Berlin,https://helfen-shop.berlin/dein-unternehmen/liquor-shop/,restaurant
Küchenladen,Knesebeckstraße 26,10623,Berlin,https://helfen-shop.berlin/dein-unternehmen/kuechenladen/,restaurant
Gasthaus Kronprinz,Clayallee 323,14169,Berlin,https://helfen-shop.berlin/dein-unternehmen/gasthaus-kronprinz/,restaurant
The Happy Pig,Lenbachstraße 1,10245,Berlin,https://helfen-shop.berlin/dein-unternehmen/the-happy-pig/,restaurant
(La)Manifattura del Gusto,Rathenaustraße 23,12459,Berlin,https://helfen-shop.berlin/dein-unternehmen/lamanifattura-del-gusto/,restaurant
KAFFE,Immanuelkirchstraße 6,10405,Berlin,https://helfen-shop.berlin/dein-unternehmen/kaffe/,restaurant
Strandbad Wendenschloss,Möllhausenufer 30,12557,Berlin,https://helfen-shop.berlin/dein-unternehmen/strandbad-wendenschloss/,restaurant
The Last Morning on Earth,Karl-Marx-Straße 55,12043,Berlin,https://helfen-shop.berlin/dein-unternehmen/the-last-morning-on-earth/,restaurant
Galerie und Atelier Morgenrot,Mainzer Str. 6,10247,Berlin,https://helfen-shop.berlin/dein-unternehmen/gallerie-und-atelier-mirgenrot/,restaurant
Pane al Caffé,Rheinstraße 61,12159,Berlin,https://helfen-shop.berlin/dein-unternehmen/pane-al-caffe/,restaurant
Herz & Niere Restaurant,Fichtestraße 31,10967,Berlin,https://helfen-shop.berlin/dein-unternehmen/herz-niere-restaurant/,restaurant
Mecato,Simplonstraße 6,10245,Berlin,https://helfen-shop.berlin/dein-unternehmen/mecato/,restaurant
Stiller Don,Erich-Weinert-Straße 67,10439,Berlin,https://helfen-shop.berlin/dein-unternehmen/stiller-don/,restaurant
Barbaras Küche,Kärntener Str. 26,10827,Berlin,https://helfen-shop.berlin/dein-unternehmen/barbaras-kueche/,restaurant
art:berlin Stadtführungen (ist ein Teil der cpb culturepartner berlin GmbH),Bessemerstraße 22,12103,Berlin,https://helfen-shop.berlin/dein-unternehmen/artberlin-stadtfuehrungen-ist-ein-teil-der-cpb-culturepartner-berlin-gmbh/,restaurant
Küchenliebe,Gärtnerstraße 28,10245,Berlin,https://helfen-shop.berlin/dein-unternehmen/kuechenliebe/,restaurant
Peter Schlemihl,Willibald-Alexis-Straße 25,10965,Berlin,https://helfen-shop.berlin/dein-unternehmen/peter-schlemihl/,restaurant
Rockchair Apartments,Sophie-Charlotten-Straße,14059,Berlin,https://helfen-shop.berlin/dein-unternehmen/rockchair-apartments/,restaurant
Schwesterherz,Bergmannstr. 19,10961,Berlin,https://helfen-shop.berlin/dein-unternehmen/schwesterherz/,restaurant
earlybean,Clausewitzstraße 9,10629,Berlin,https://helfen-shop.berlin/dein-unternehmen/earlybean/,restaurant
NOER Weinhandel & Weinevents,Falckensteinstraße 10,10997,Berlin,https://helfen-shop.berlin/dein-unternehmen/noer-weinhandel-weinevents/,restaurant
MARIA Restaurant,Falckensteinstraße 37,10997,Berlin,https://helfen-shop.berlin/dein-unternehmen/maria-restaurant/,restaurant
Emi Wynehouse Pop-Up Bar,Torstraße 68,10119,Berlin,https://helfen-shop.berlin/dein-unternehmen/emi-wynehouse-pop-up-bar/,restaurant
Sharlie Cheen Bar,Brunnenstraße 196,10119,Berlin,https://helfen-shop.berlin/dein-unternehmen/sharlie-cheen-bar/,restaurant
Alma Mia,Giesebrechtstraße 19,10629,Berlin,https://helfen-shop.berlin/dein-unternehmen/alma-mia/,restaurant
Kino Casablanca,Friedenstraße 12,12489,Berlin,https://helfen-shop.berlin/dein-unternehmen/kino-casablanca/,restaurant
Pêle-Mêle,Innstraße 26,12043,Berlin,https://helfen-shop.berlin/dein-unternehmen/pele-mele/,restaurant
Restaurantschiff PATIO,Kirchstraße 8 y,10557,Berlin,https://helfen-shop.berlin/dein-unternehmen/restaurantschiff-patio/,restaurant
Mensch Meier,Storkower Str. 121,10407,Berlin,https://helfen-shop.berlin/dein-unternehmen/mensch-meier/,restaurant
Hallesches Haus,Tempelhofer Ufer 1,10961,Berlin,https://helfen-shop.berlin/dein-unternehmen/hallesches-haus/,restaurant
DUDU,Torstraße 134,10119,Berlin,https://helfen-shop.berlin/dein-unternehmen/dudu/,restaurant
This City Rocks,Libauer Str. 23,10245,Berlin,https://helfen-shop.berlin/dein-unternehmen/this-city-rocks/,restaurant
KONK,Kleine Hamburger Str. 15,10117,Berlin,https://helfen-shop.berlin/dein-unternehmen/konk/,restaurant
8greenbottles,Senefelderstraße 34,10437,Berlin,https://helfen-shop.berlin/dein-unternehmen/8greenbottles/,restaurant
TimeRide Berlin,Zimmerstraße 91,10117,Berlin,https://helfen-shop.berlin/dein-unternehmen/timeride-berlin/,restaurant
Drink Drunk,Schlesische Str. 1,10997,Berlin,https://helfen-shop.berlin/dein-unternehmen/drink-drunk/,restaurant
Ovest,Schlüterstraße 47,10629,Berlin,https://helfen-shop.berlin/dein-unternehmen/ovest/,restaurant
FreiRaum,Katzbachstraße 24,10965,Berlin,https://helfen-shop.berlin/dein-unternehmen/freiraum/,restaurant
theNOname,Oranienburger Str. 32,10117,Berlin,https://helfen-shop.berlin/dein-unternehmen/thenoname/,restaurant
Linie Clara Kaesdorf,Linienstraße 114,10115,Berlin,https://helfen-shop.berlin/dein-unternehmen/linie-clara-kaesdorf/,restaurant
WESEN,Tellstraße 7,12045,Berlin,https://helfen-shop.berlin/dein-unternehmen/wesen/,restaurant
FREA,Torstraße 180,10115,Berlin,https://helfen-shop.berlin/dein-unternehmen/frea/,restaurant
,,,,,restaurant
Flaschenzug bar,Emser Str. 16,12051,Berlin,https://helfen-shop.berlin/dein-unternehmen/flaschenzug-bar/,restaurant
platz doch!,Manteuffelstraße 48,10999,Berlin,https://helfen-shop.berlin/dein-unternehmen/platz-doch/,restaurant
Trödler,Dresdender Str. 123,10999,Berlin,https://helfen-shop.berlin/dein-unternehmen/troedler/,restaurant
Haus Lebenskunst,Mehringdamm 34,10961,Berlin,https://helfen-shop.berlin/dein-unternehmen/haus-lebenskunst/,restaurant
BRLO BRWHOUSE,Schöneberger Str. 16,10963,Berlin,https://helfen-shop.berlin/dein-unternehmen/brlo-brwhouse/,restaurant
Pastarium Berlin,Willibald-Alexis-Straße 27,10965,Berlin,https://helfen-shop.berlin/dein-unternehmen/pastarium-berlin/,restaurant
Restaurant Kuchel Eck,Ludwigkirchpl. 1,10719,Berlin,https://helfen-shop.berlin/dein-unternehmen/restaurant-kuchel-eck/,restaurant
pique nique,Falckensteinstraße 43a,10997,Berlin,https://helfen-shop.berlin/dein-unternehmen/pique-nique/,restaurant
Mahlo Brunch Bar,Mahlower Str. 32,12049,Berlin,https://helfen-shop.berlin/dein-unternehmen/mahlo-brunch-bar/,restaurant
Yorckschlösschen,Yorckstraße 15,10965,Berlin,https://helfen-shop.berlin/dein-unternehmen/yorckschloesschen/,restaurant
Miss Cupcake Berlin,Streustraße 5,13086,Berlin,https://helfen-shop.berlin/dein-unternehmen/miss-cupcake-berlin/,restaurant
Wahrhaft nahrhaft,Revaler Str. 16,10245,Berlin,https://helfen-shop.berlin/dein-unternehmen/wahrhaft-nahrhaft/,restaurant
Sommerhaus KaffeeBar,Hufelandstraße 43,10407,Berlin,https://helfen-shop.berlin/dein-unternehmen/sommerhaus-kaffeebar/,restaurant
FABELEI Cocktailbar,Kyffhäuserstraße 21,10781,Berlin,https://helfen-shop.berlin/dein-unternehmen/fabelei-cocktailbar/,restaurant
Zum Starken August,Schönhauser Allee 56,10437,Berlin,https://helfen-shop.berlin/dein-unternehmen/zum-starken-august/,restaurant
Fiona Bennett,Potsdamer Straße 81-83,10785,Berlin,https://helfen-shop.berlin/dein-unternehmen/fiona-bennett/,restaurant
Muted Horn,Flughafenstraße 49,12053,Berlin,https://helfen-shop.berlin/dein-unternehmen/muted-horn/,restaurant
Illuseum Berlin,Karl-Liebknecht-Str. 9,10178,Berlin,https://helfen-shop.berlin/dein-unternehmen/illuseum-berlin/,restaurant
Volksbar,Rosa-Luxemburg-Straße 39,10178,Berlin,https://helfen-shop.berlin/dein-unternehmen/volksbar/,restaurant
Goura Pakora,Krossener Str. 16,10245,Berlin,https://helfen-shop.berlin/dein-unternehmen/goura-pakora/,restaurant
Engelbecken Gastwirtschaft,Witzlebenstraße 31,14057,Berlin,https://helfen-shop.berlin/dein-unternehmen/engelbecken-gastwirtschaft/,restaurant
The Hummus Guys,Hohenstaufenstraße 39,10779,Berlin,https://helfen-shop.berlin/dein-unternehmen/the-hummus-guys/,restaurant
NO FIRE NO GLORY,Rykestraße 45,10405,Berlin,https://helfen-shop.berlin/dein-unternehmen/no-fire-no-glory/,restaurant
Lula Deli und Grill,Lauterstraße 14-15,12159,Berlin,https://helfen-shop.berlin/dein-unternehmen/lula-deli-und-grill/,restaurant
San Remo Upflamör,Falckensteinstraße 46,10997,Berlin,https://helfen-shop.berlin/dein-unternehmen/san-remo-upflamoer/,restaurant
Mugshot Tattoo,Reuterstraße 20,12043,Berlin,https://helfen-shop.berlin/dein-unternehmen/mugshot-tattoo/,restaurant
House of Tales – Escape Room,Zimmerstraße 90,10117,Berlin,https://helfen-shop.berlin/dein-unternehmen/house-of-tales-escape-room/,restaurant
Thomas Hermanns Quatsch Comedy Club,Friedrichstraße 107,10117,Berlin,https://helfen-shop.berlin/dein-unternehmen/thomas-hermanns-quatsch-comedy-club/,restaurant
Café KLEiNES SONNTAG,Sonntagstraße 29,10245,Berlin,https://helfen-shop.berlin/dein-unternehmen/cafe-kleines-sonntag/,restaurant
SalzResort – In Balance…VON KOPF BIS FUSS,Heinsestraße 25,13467,Berlin,https://helfen-shop.berlin/dein-unternehmen/salzresort-in-balance-von-kopf-bis-fuss/,restaurant
Restaurant/Cafe  MadaMe,Mehringplatz 10,10969,Berlin,https://helfen-shop.berlin/dein-unternehmen/restaurant-cafe-madame/,restaurant
Knalle Popkornditorei,Raumerstraße 32,10437,Berlin,https://helfen-shop.berlin/dein-unternehmen/knalle-popkornditorei/,restaurant
Caffè Monelli,Greifenhagener Str. 53,10437,Berlin,https://helfen-shop.berlin/dein-unternehmen/caffe-monelli/,restaurant
Froschkönig,Weisestraße 17,12049,Berlin,https://helfen-shop.berlin/dein-unternehmen/froschkoenig/,restaurant
make tea not war,Heinrich-Roller-Straße 6,10405,Berlin,https://helfen-shop.berlin/dein-unternehmen/make-tea-not-war/,restaurant
Lange Nacht,Weisestraße 8,12049,Berlin,https://helfen-shop.berlin/dein-unternehmen/lange-nacht/,restaurant
klix – kleine Sachen,Curtiusstraße 13,12205,Berlin,https://helfen-shop.berlin/dein-unternehmen/klix-kleine-sachen/,restaurant
bass Restaurant,Xantener Str. 9,10707,Berlin,https://helfen-shop.berlin/dein-unternehmen/bass-restaurant/,restaurant
Kiezkantine im Jugendgästehaus Hauptbahnhof,Lehrter Str. 68,10557,Berlin,https://helfen-shop.berlin/dein-unternehmen/kiezkantine-im-jugendgaestehaus-hauptbahnhof/,restaurant
Deutsches Spionagemuseum,Leipziger Pl. 9,10117,Berlin,https://helfen-shop.berlin/dein-unternehmen/deutsches-spionagemuseum/,restaurant